<?xml version="1.0" encoding="UTF-8"?>
<gpx version="1.1" creator="Nomad Outdoors" xmlns="http://www.topografix.com/GPX/1/1"><metadata><name>Maleha to Fossil Rock</name><link href="https://www.nomadoutdoors.org/routes/2020-02-07-maleha-to-fossil-rock"/></metadata><trk><name>Maleha to Fossil Rock</name><trkseg><trkpt lat="25.15283" lon="55.74594"/><trkpt lat="25.15239" lon="55.7496"/><trkpt lat="25.15186" lon="55.75164"/><trkpt lat="25.15186" lon="55.75383"/><trkpt lat="25.15223" lon="55.75431"/><trkpt lat="25.1523" lon="55.75461"/><trkpt lat="25.15171" lon="55.75892"/><trkpt lat="25.15175" lon="55.7596"/><trkpt lat="25.15155" lon="55.76053"/><trkpt lat="25.15165" lon="55.7614"/><trkpt lat="25.15186" lon="55.76183"/><trkpt lat="25.15207" lon="55.7619"/><trkpt lat="25.1522" lon="55.76176"/><trkpt lat="25.15214" lon="55.76085"/><trkpt lat="25.15232" lon="55.76002"/><trkpt lat="25.15216" lon="55.75958"/><trkpt lat="25.15226" lon="55.75916"/><trkpt lat="25.15305" lon="55.75851"/><trkpt lat="25.15325" lon="55.75799"/><trkpt lat="25.15382" lon="55.75819"/><trkpt lat="25.15393" lon="55.75905"/><trkpt lat="25.15421" lon="55.75927"/><trkpt lat="25.15423" lon="55.75981"/><trkpt lat="25.15459" lon="55.76105"/><trkpt lat="25.15477" lon="55.76132"/><trkpt lat="25.15471" lon="55.76208"/><trkpt lat="25.15506" lon="55.7627"/><trkpt lat="25.15509" lon="55.76352"/><trkpt lat="25.1554" lon="55.76499"/><trkpt lat="25.15573" lon="55.76551"/><trkpt lat="25.15604" lon="55.76651"/><trkpt lat="25.15687" lon="55.7673"/><trkpt lat="25.15666" lon="55.76779"/><trkpt lat="25.15642" lon="55.76795"/><trkpt lat="25.1564" lon="55.76841"/><trkpt lat="25.15663" lon="55.76896"/><trkpt lat="25.15699" lon="55.76917"/><trkpt lat="25.15675" lon="55.76942"/><trkpt lat="25.15672" lon="55.76969"/><trkpt lat="25.15693" lon="55.76992"/><trkpt lat="25.15677" lon="55.77045"/><trkpt lat="25.15699" lon="55.7706"/><trkpt lat="25.15724" lon="55.77054"/><trkpt lat="25.15732" lon="55.77066"/><trkpt lat="25.1572" lon="55.77096"/><trkpt lat="25.15682" lon="55.77108"/><trkpt lat="25.15674" lon="55.77122"/><trkpt lat="25.15693" lon="55.77164"/><trkpt lat="25.15693" lon="55.77209"/><trkpt lat="25.15673" lon="55.77378"/><trkpt lat="25.15643" lon="55.77434"/><trkpt lat="25.1567" lon="55.77495"/><trkpt lat="25.15647" lon="55.77591"/><trkpt lat="25.15649" lon="55.77645"/><trkpt lat="25.15626" lon="55.77697"/><trkpt lat="25.15627" lon="55.7774"/><trkpt lat="25.15589" lon="55.7777"/><trkpt lat="25.15593" lon="55.77835"/><trkpt lat="25.15578" lon="55.77885"/><trkpt lat="25.15564" lon="55.77895"/><trkpt lat="25.15542" lon="55.77889"/><trkpt lat="25.1554" lon="55.77899"/><trkpt lat="25.15586" lon="55.77937"/><trkpt lat="25.15573" lon="55.78009"/><trkpt lat="25.15596" lon="55.781"/><trkpt lat="25.15649" lon="55.78117"/><trkpt lat="25.15666" lon="55.78072"/><trkpt lat="25.15683" lon="55.78064"/><trkpt lat="25.15736" lon="55.78119"/><trkpt lat="25.15797" lon="55.78107"/><trkpt lat="25.15813" lon="55.78118"/><trkpt lat="25.15809" lon="55.78145"/><trkpt lat="25.15715" lon="55.78174"/><trkpt lat="25.15712" lon="55.78198"/><trkpt lat="25.1573" lon="55.78224"/><trkpt lat="25.1583" lon="55.78233"/><trkpt lat="25.15821" lon="55.783"/><trkpt lat="25.15846" lon="55.78354"/><trkpt lat="25.15835" lon="55.7844"/><trkpt lat="25.15862" lon="55.78474"/><trkpt lat="25.1594" lon="55.78506"/><trkpt lat="25.15928" lon="55.78536"/><trkpt lat="25.15887" lon="55.78561"/><trkpt lat="25.15909" lon="55.78578"/><trkpt lat="25.15923" lon="55.78635"/><trkpt lat="25.15957" lon="55.78666"/><trkpt lat="25.15961" lon="55.78734"/><trkpt lat="25.15923" lon="55.78787"/><trkpt lat="25.15906" lon="55.78834"/><trkpt lat="25.15884" lon="55.78842"/><trkpt lat="25.15887" lon="55.78759"/><trkpt lat="25.15917" lon="55.78661"/><trkpt lat="25.1591" lon="55.78608"/><trkpt lat="25.15893" lon="55.7861"/><trkpt lat="25.15899" lon="55.78729"/><trkpt lat="25.15887" lon="55.78771"/><trkpt lat="25.15925" lon="55.78763"/><trkpt lat="25.15901" lon="55.78761"/><trkpt lat="25.1589" lon="55.78776"/><trkpt lat="25.15882" lon="55.7884"/><trkpt lat="25.1589" lon="55.78844"/><trkpt lat="25.15899" lon="55.78828"/><trkpt lat="25.15923" lon="55.78762"/><trkpt lat="25.15912" lon="55.78763"/><trkpt lat="25.15905" lon="55.78789"/><trkpt lat="25.15913" lon="55.78798"/><trkpt lat="25.15954" lon="55.78758"/><trkpt lat="25.15959" lon="55.78737"/><trkpt lat="25.15952" lon="55.78686"/><trkpt lat="25.15921" lon="55.78645"/><trkpt lat="25.1591" lon="55.78608"/><trkpt lat="25.15895" lon="55.78607"/><trkpt lat="25.159" lon="55.78728"/><trkpt lat="25.15879" lon="55.78834"/><trkpt lat="25.16007" lon="55.78933"/><trkpt lat="25.16029" lon="55.78979"/><trkpt lat="25.16034" lon="55.79068"/><trkpt lat="25.16061" lon="55.79111"/><trkpt lat="25.16053" lon="55.79119"/><trkpt lat="25.16002" lon="55.79116"/><trkpt lat="25.1601" lon="55.7916"/><trkpt lat="25.15996" lon="55.7917"/><trkpt lat="25.15981" lon="55.7916"/><trkpt lat="25.15965" lon="55.79109"/><trkpt lat="25.15945" lon="55.79106"/><trkpt lat="25.15912" lon="55.79147"/><trkpt lat="25.15861" lon="55.79175"/><trkpt lat="25.15883" lon="55.79203"/><trkpt lat="25.1586" lon="55.79242"/><trkpt lat="25.15885" lon="55.79297"/><trkpt lat="25.15897" lon="55.79362"/><trkpt lat="25.15868" lon="55.7959"/><trkpt lat="25.15844" lon="55.79639"/><trkpt lat="25.15836" lon="55.79724"/><trkpt lat="25.15842" lon="55.79825"/><trkpt lat="25.15832" lon="55.79835"/><trkpt lat="25.15803" lon="55.79828"/><trkpt lat="25.15765" lon="55.79852"/><trkpt lat="25.15756" lon="55.79897"/><trkpt lat="25.15725" lon="55.79923"/><trkpt lat="25.15739" lon="55.79945"/><trkpt lat="25.15722" lon="55.79955"/><trkpt lat="25.15706" lon="55.79997"/><trkpt lat="25.15705" lon="55.80063"/><trkpt lat="25.15659" lon="55.80116"/><trkpt lat="25.15633" lon="55.80179"/><trkpt lat="25.15633" lon="55.80234"/><trkpt lat="25.15715" lon="55.80249"/><trkpt lat="25.15728" lon="55.80315"/><trkpt lat="25.15745" lon="55.80344"/><trkpt lat="25.15736" lon="55.80365"/><trkpt lat="25.15677" lon="55.80365"/><trkpt lat="25.15688" lon="55.80388"/><trkpt lat="25.15673" lon="55.80456"/><trkpt lat="25.1562" lon="55.80575"/><trkpt lat="25.15631" lon="55.80584"/><trkpt lat="25.15652" lon="55.80577"/><trkpt lat="25.15671" lon="55.80594"/><trkpt lat="25.15671" lon="55.80621"/><trkpt lat="25.15706" lon="55.80665"/><trkpt lat="25.15691" lon="55.80711"/><trkpt lat="25.15702" lon="55.80705"/><trkpt lat="25.15713" lon="55.80655"/><trkpt lat="25.15699" lon="55.80655"/><trkpt lat="25.15688" lon="55.807"/><trkpt lat="25.15659" lon="55.80717"/><trkpt lat="25.15663" lon="55.80738"/><trkpt lat="25.15649" lon="55.80757"/><trkpt lat="25.15694" lon="55.80861"/><trkpt lat="25.15726" lon="55.80877"/><trkpt lat="25.15759" lon="55.80918"/><trkpt lat="25.15748" lon="55.80987"/><trkpt lat="25.15762" lon="55.81009"/><trkpt lat="25.15763" lon="55.81068"/><trkpt lat="25.15785" lon="55.811"/><trkpt lat="25.15775" lon="55.81112"/><trkpt lat="25.15734" lon="55.81116"/><trkpt lat="25.15721" lon="55.81138"/><trkpt lat="25.15731" lon="55.81164"/><trkpt lat="25.15765" lon="55.81181"/><trkpt lat="25.15775" lon="55.81167"/><trkpt lat="25.15746" lon="55.81113"/><trkpt lat="25.15649" lon="55.81111"/><trkpt lat="25.15634" lon="55.81172"/><trkpt lat="25.15595" lon="55.81249"/><trkpt lat="25.15629" lon="55.81321"/><trkpt lat="25.15658" lon="55.81336"/><trkpt lat="25.15644" lon="55.81432"/><trkpt lat="25.15678" lon="55.81509"/><trkpt lat="25.15647" lon="55.81541"/><trkpt lat="25.15647" lon="55.81597"/><trkpt lat="25.15674" lon="55.81671"/><trkpt lat="25.15689" lon="55.81782"/><trkpt lat="25.1572" lon="55.81808"/><trkpt lat="25.15722" lon="55.81848"/><trkpt lat="25.15754" lon="55.81862"/><trkpt lat="25.15769" lon="55.8189"/><trkpt lat="25.15793" lon="55.81859"/><trkpt lat="25.15771" lon="55.8183"/><trkpt lat="25.15781" lon="55.81801"/><trkpt lat="25.15764" lon="55.81771"/><trkpt lat="25.15776" lon="55.81751"/><trkpt lat="25.15864" lon="55.81777"/><trkpt lat="25.15888" lon="55.81816"/><trkpt lat="25.15935" lon="55.81849"/><trkpt lat="25.15944" lon="55.8191"/><trkpt lat="25.15889" lon="55.81927"/><trkpt lat="25.15855" lon="55.81984"/><trkpt lat="25.15929" lon="55.82027"/><trkpt lat="25.15943" lon="55.82066"/><trkpt lat="25.15975" lon="55.82074"/><trkpt lat="25.15989" lon="55.82168"/><trkpt lat="25.16029" lon="55.82202"/><trkpt lat="25.16046" lon="55.82235"/><trkpt lat="25.16067" lon="55.82256"/><trkpt lat="25.16059" lon="55.82244"/><trkpt lat="25.16098" lon="55.8224"/><trkpt lat="25.1607" lon="55.82276"/><trkpt lat="25.16068" lon="55.82296"/><trkpt lat="25.16027" lon="55.8231"/><trkpt lat="25.16026" lon="55.8233"/><trkpt lat="25.1605" lon="55.82342"/><trkpt lat="25.16029" lon="55.82311"/><trkpt lat="25.16022" lon="55.82333"/><trkpt lat="25.16056" lon="55.82374"/><trkpt lat="25.16087" lon="55.82384"/><trkpt lat="25.16091" lon="55.82404"/><trkpt lat="25.16069" lon="55.82409"/><trkpt lat="25.15852" lon="55.8235"/><trkpt lat="25.15716" lon="55.82333"/><trkpt lat="25.1564" lon="55.82299"/><trkpt lat="25.15586" lon="55.82251"/><trkpt lat="25.15409" lon="55.82259"/><trkpt lat="25.15004" lon="55.82161"/><trkpt lat="25.14888" lon="55.82146"/><trkpt lat="25.14855" lon="55.82156"/><trkpt lat="25.14795" lon="55.82198"/><trkpt lat="25.14798" lon="55.82306"/><trkpt lat="25.14771" lon="55.82448"/><trkpt lat="25.1471" lon="55.82511"/><trkpt lat="25.14712" lon="55.82585"/><trkpt lat="25.14719" lon="55.82571"/><trkpt lat="25.14699" lon="55.82594"/><trkpt lat="25.14683" lon="55.82594"/><trkpt lat="25.14653" lon="55.82552"/><trkpt lat="25.14613" lon="55.82551"/><trkpt lat="25.14605" lon="55.82509"/><trkpt lat="25.14551" lon="55.82576"/><trkpt lat="25.14549" lon="55.82537"/><trkpt lat="25.14549" lon="55.82572"/><trkpt lat="25.14561" lon="55.8254"/><trkpt lat="25.14558" lon="55.8272"/><trkpt lat="25.14497" lon="55.82901"/><trkpt lat="25.14472" lon="55.82923"/><trkpt lat="25.14459" lon="55.83016"/></trkseg></trk></gpx>
