<?xml version="1.0" encoding="UTF-8"?>
<gpx version="1.1" creator="Nomad Outdoors" xmlns="http://www.topografix.com/GPX/1/1"><metadata><name>AN Al Qudra Fred</name><link href="https://www.nomadoutdoors.org/routes/2020-07-25-an-al-qudra-fred"/></metadata><trk><name>AN Al Qudra Fred</name><trkseg><trkpt lat="24.8355" lon="55.35773"/><trkpt lat="24.83515" lon="55.35741"/><trkpt lat="24.83472" lon="55.35758"/><trkpt lat="24.83436" lon="55.35755"/><trkpt lat="24.83376" lon="55.35709"/><trkpt lat="24.83214" lon="55.35663"/><trkpt lat="24.8318" lon="55.35623"/><trkpt lat="24.83146" lon="55.35514"/><trkpt lat="24.83132" lon="55.35341"/><trkpt lat="24.83095" lon="55.35238"/><trkpt lat="24.83075" lon="55.35085"/><trkpt lat="24.83025" lon="55.34982"/><trkpt lat="24.83004" lon="55.34841"/><trkpt lat="24.82963" lon="55.34724"/><trkpt lat="24.82961" lon="55.34628"/><trkpt lat="24.8294" lon="55.34513"/><trkpt lat="24.82955" lon="55.34404"/><trkpt lat="24.82928" lon="55.34374"/><trkpt lat="24.8292" lon="55.34319"/><trkpt lat="24.82891" lon="55.3432"/><trkpt lat="24.82882" lon="55.34306"/><trkpt lat="24.82841" lon="55.34111"/><trkpt lat="24.82853" lon="55.34002"/><trkpt lat="24.82843" lon="55.33928"/><trkpt lat="24.82857" lon="55.33734"/><trkpt lat="24.82892" lon="55.33586"/><trkpt lat="24.82952" lon="55.3348"/><trkpt lat="24.82947" lon="55.33296"/><trkpt lat="24.8303" lon="55.33137"/><trkpt lat="24.83042" lon="55.33052"/><trkpt lat="24.83029" lon="55.33003"/><trkpt lat="24.82983" lon="55.32928"/><trkpt lat="24.83013" lon="55.32877"/><trkpt lat="24.83" lon="55.32844"/><trkpt lat="24.83012" lon="55.32818"/><trkpt lat="24.82995" lon="55.32748"/><trkpt lat="24.83008" lon="55.32704"/><trkpt lat="24.82981" lon="55.32651"/><trkpt lat="24.82969" lon="55.32468"/><trkpt lat="24.82969" lon="55.32418"/><trkpt lat="24.83" lon="55.32334"/><trkpt lat="24.82999" lon="55.32264"/><trkpt lat="24.82954" lon="55.32231"/><trkpt lat="24.82887" lon="55.32271"/><trkpt lat="24.82851" lon="55.32338"/><trkpt lat="24.82851" lon="55.32377"/><trkpt lat="24.8282" lon="55.32476"/><trkpt lat="24.82823" lon="55.32518"/><trkpt lat="24.82813" lon="55.3253"/><trkpt lat="24.82789" lon="55.32534"/><trkpt lat="24.8279" lon="55.32461"/><trkpt lat="24.8277" lon="55.32446"/><trkpt lat="24.82756" lon="55.32455"/><trkpt lat="24.82759" lon="55.32492"/><trkpt lat="24.82781" lon="55.32523"/><trkpt lat="24.82772" lon="55.32687"/><trkpt lat="24.82757" lon="55.32765"/><trkpt lat="24.82705" lon="55.32812"/><trkpt lat="24.82731" lon="55.32844"/><trkpt lat="24.82732" lon="55.32928"/><trkpt lat="24.82713" lon="55.32932"/><trkpt lat="24.82693" lon="55.32891"/><trkpt lat="24.82692" lon="55.32731"/><trkpt lat="24.82671" lon="55.32721"/><trkpt lat="24.82649" lon="55.3276"/><trkpt lat="24.82649" lon="55.3278"/><trkpt lat="24.82673" lon="55.32811"/><trkpt lat="24.82656" lon="55.32862"/><trkpt lat="24.82681" lon="55.3296"/><trkpt lat="24.82666" lon="55.33017"/><trkpt lat="24.82641" lon="55.33022"/><trkpt lat="24.82611" lon="55.32971"/><trkpt lat="24.82612" lon="55.32833"/><trkpt lat="24.82594" lon="55.32792"/><trkpt lat="24.8258" lon="55.3278"/><trkpt lat="24.82559" lon="55.32796"/><trkpt lat="24.82535" lon="55.32931"/><trkpt lat="24.82518" lon="55.32974"/><trkpt lat="24.82548" lon="55.33048"/><trkpt lat="24.82543" lon="55.33194"/><trkpt lat="24.82488" lon="55.3328"/><trkpt lat="24.82529" lon="55.33334"/><trkpt lat="24.82536" lon="55.33478"/><trkpt lat="24.82533" lon="55.33458"/><trkpt lat="24.82566" lon="55.33459"/><trkpt lat="24.82556" lon="55.33511"/><trkpt lat="24.82571" lon="55.33572"/><trkpt lat="24.82556" lon="55.3359"/><trkpt lat="24.82502" lon="55.33571"/><trkpt lat="24.82506" lon="55.33447"/><trkpt lat="24.82453" lon="55.33404"/><trkpt lat="24.82442" lon="55.33323"/><trkpt lat="24.82411" lon="55.33221"/><trkpt lat="24.82363" lon="55.33119"/><trkpt lat="24.82341" lon="55.33097"/><trkpt lat="24.82303" lon="55.33105"/><trkpt lat="24.82283" lon="55.33146"/><trkpt lat="24.82294" lon="55.33166"/><trkpt lat="24.82318" lon="55.33174"/><trkpt lat="24.82355" lon="55.33161"/><trkpt lat="24.82359" lon="55.33131"/><trkpt lat="24.82336" lon="55.33111"/><trkpt lat="24.82311" lon="55.33114"/><trkpt lat="24.8229" lon="55.33133"/><trkpt lat="24.82323" lon="55.33161"/><trkpt lat="24.8236" lon="55.33139"/><trkpt lat="24.82365" lon="55.33117"/><trkpt lat="24.82345" lon="55.33097"/><trkpt lat="24.82315" lon="55.33115"/><trkpt lat="24.82329" lon="55.3314"/><trkpt lat="24.82357" lon="55.33128"/><trkpt lat="24.8241" lon="55.32945"/><trkpt lat="24.82408" lon="55.32837"/><trkpt lat="24.82424" lon="55.32734"/><trkpt lat="24.82401" lon="55.32688"/><trkpt lat="24.82405" lon="55.32644"/><trkpt lat="24.82385" lon="55.3258"/><trkpt lat="24.82396" lon="55.32515"/><trkpt lat="24.82386" lon="55.32459"/><trkpt lat="24.8237" lon="55.32427"/><trkpt lat="24.82345" lon="55.32413"/><trkpt lat="24.82285" lon="55.32449"/><trkpt lat="24.82269" lon="55.32484"/><trkpt lat="24.82321" lon="55.32532"/><trkpt lat="24.82327" lon="55.32555"/><trkpt lat="24.82263" lon="55.32625"/><trkpt lat="24.82268" lon="55.32657"/><trkpt lat="24.82289" lon="55.32657"/><trkpt lat="24.82306" lon="55.32639"/><trkpt lat="24.82334" lon="55.32491"/><trkpt lat="24.82343" lon="55.32412"/><trkpt lat="24.82329" lon="55.32312"/><trkpt lat="24.82307" lon="55.32276"/><trkpt lat="24.82257" lon="55.32232"/><trkpt lat="24.82211" lon="55.32245"/><trkpt lat="24.8218" lon="55.3229"/><trkpt lat="24.82197" lon="55.3232"/><trkpt lat="24.82278" lon="55.32362"/><trkpt lat="24.82289" lon="55.32353"/><trkpt lat="24.82291" lon="55.3224"/><trkpt lat="24.82303" lon="55.32192"/><trkpt lat="24.82305" lon="55.31952"/><trkpt lat="24.82336" lon="55.31872"/><trkpt lat="24.82343" lon="55.31805"/><trkpt lat="24.82288" lon="55.31739"/><trkpt lat="24.82228" lon="55.31596"/><trkpt lat="24.82113" lon="55.31422"/><trkpt lat="24.82106" lon="55.3133"/><trkpt lat="24.82141" lon="55.31221"/><trkpt lat="24.82134" lon="55.31154"/><trkpt lat="24.82082" lon="55.31139"/><trkpt lat="24.81996" lon="55.31186"/><trkpt lat="24.81962" lon="55.31168"/><trkpt lat="24.81948" lon="55.3114"/><trkpt lat="24.81957" lon="55.31051"/><trkpt lat="24.81946" lon="55.31007"/><trkpt lat="24.81887" lon="55.30891"/><trkpt lat="24.81828" lon="55.30864"/><trkpt lat="24.81771" lon="55.30883"/><trkpt lat="24.81779" lon="55.30914"/><trkpt lat="24.81816" lon="55.30953"/><trkpt lat="24.81821" lon="55.30983"/><trkpt lat="24.81779" lon="55.31049"/><trkpt lat="24.81739" lon="55.31164"/><trkpt lat="24.81717" lon="55.31163"/><trkpt lat="24.817" lon="55.31109"/><trkpt lat="24.81667" lon="55.31081"/><trkpt lat="24.81614" lon="55.31121"/><trkpt lat="24.81583" lon="55.31176"/><trkpt lat="24.81569" lon="55.313"/><trkpt lat="24.81526" lon="55.31495"/><trkpt lat="24.81506" lon="55.3154"/><trkpt lat="24.81517" lon="55.31599"/><trkpt lat="24.81503" lon="55.31713"/><trkpt lat="24.81469" lon="55.31856"/><trkpt lat="24.81441" lon="55.31923"/><trkpt lat="24.8145" lon="55.3196"/><trkpt lat="24.81438" lon="55.32016"/><trkpt lat="24.81436" lon="55.32213"/><trkpt lat="24.8137" lon="55.32344"/><trkpt lat="24.81339" lon="55.32442"/><trkpt lat="24.81241" lon="55.32557"/><trkpt lat="24.81255" lon="55.32619"/><trkpt lat="24.81252" lon="55.32712"/><trkpt lat="24.81226" lon="55.32798"/><trkpt lat="24.8122" lon="55.33063"/><trkpt lat="24.81195" lon="55.33086"/><trkpt lat="24.81209" lon="55.33077"/><trkpt lat="24.81206" lon="55.33209"/><trkpt lat="24.81193" lon="55.33254"/><trkpt lat="24.81211" lon="55.33326"/><trkpt lat="24.81194" lon="55.33415"/><trkpt lat="24.81189" lon="55.33547"/><trkpt lat="24.81224" lon="55.33685"/><trkpt lat="24.81224" lon="55.33775"/><trkpt lat="24.81287" lon="55.33877"/><trkpt lat="24.8127" lon="55.3394"/><trkpt lat="24.81164" lon="55.34003"/><trkpt lat="24.81143" lon="55.34028"/><trkpt lat="24.81126" lon="55.34127"/><trkpt lat="24.8111" lon="55.34156"/><trkpt lat="24.81047" lon="55.34199"/><trkpt lat="24.81056" lon="55.34274"/><trkpt lat="24.81035" lon="55.34286"/><trkpt lat="24.81042" lon="55.34399"/><trkpt lat="24.81058" lon="55.34423"/><trkpt lat="24.81041" lon="55.34474"/><trkpt lat="24.81048" lon="55.34497"/><trkpt lat="24.8103" lon="55.3454"/><trkpt lat="24.8104" lon="55.34611"/><trkpt lat="24.81068" lon="55.34667"/><trkpt lat="24.81051" lon="55.34712"/><trkpt lat="24.81068" lon="55.34769"/><trkpt lat="24.81129" lon="55.34843"/><trkpt lat="24.81134" lon="55.34886"/><trkpt lat="24.81109" lon="55.34985"/><trkpt lat="24.81135" lon="55.35022"/><trkpt lat="24.8114" lon="55.35066"/><trkpt lat="24.81189" lon="55.35105"/><trkpt lat="24.81196" lon="55.35147"/><trkpt lat="24.81222" lon="55.35164"/><trkpt lat="24.81234" lon="55.35206"/><trkpt lat="24.81232" lon="55.35347"/><trkpt lat="24.81315" lon="55.35541"/><trkpt lat="24.81325" lon="55.35632"/><trkpt lat="24.8135" lon="55.35657"/><trkpt lat="24.81358" lon="55.35688"/><trkpt lat="24.81351" lon="55.35736"/><trkpt lat="24.81333" lon="55.3575"/><trkpt lat="24.81347" lon="55.35798"/><trkpt lat="24.81378" lon="55.35851"/><trkpt lat="24.81427" lon="55.35869"/><trkpt lat="24.81431" lon="55.35923"/><trkpt lat="24.81451" lon="55.35974"/><trkpt lat="24.81539" lon="55.35924"/><trkpt lat="24.81521" lon="55.35787"/><trkpt lat="24.81545" lon="55.35755"/><trkpt lat="24.8153" lon="55.35708"/><trkpt lat="24.81544" lon="55.35655"/><trkpt lat="24.81567" lon="55.35682"/><trkpt lat="24.81595" lon="55.35657"/><trkpt lat="24.81611" lon="55.35673"/><trkpt lat="24.81641" lon="55.35668"/><trkpt lat="24.81655" lon="55.35567"/><trkpt lat="24.81683" lon="55.35535"/><trkpt lat="24.81726" lon="55.35567"/><trkpt lat="24.81789" lon="55.3556"/><trkpt lat="24.81811" lon="55.35516"/><trkpt lat="24.8182" lon="55.35436"/><trkpt lat="24.81855" lon="55.35381"/><trkpt lat="24.81874" lon="55.35292"/><trkpt lat="24.8191" lon="55.35227"/><trkpt lat="24.81894" lon="55.35194"/><trkpt lat="24.81896" lon="55.3516"/><trkpt lat="24.81876" lon="55.35136"/><trkpt lat="24.81878" lon="55.35076"/><trkpt lat="24.81915" lon="55.35012"/><trkpt lat="24.81937" lon="55.34941"/><trkpt lat="24.81978" lon="55.34907"/><trkpt lat="24.82033" lon="55.34922"/><trkpt lat="24.82046" lon="55.34975"/><trkpt lat="24.82097" lon="55.35032"/><trkpt lat="24.82104" lon="55.35126"/><trkpt lat="24.82082" lon="55.35247"/><trkpt lat="24.8214" lon="55.35243"/><trkpt lat="24.82157" lon="55.35275"/><trkpt lat="24.82158" lon="55.35341"/><trkpt lat="24.82182" lon="55.35421"/><trkpt lat="24.82126" lon="55.35495"/><trkpt lat="24.82133" lon="55.35552"/><trkpt lat="24.8212" lon="55.357"/><trkpt lat="24.82133" lon="55.35742"/><trkpt lat="24.82175" lon="55.35749"/><trkpt lat="24.8219" lon="55.35803"/><trkpt lat="24.82214" lon="55.35814"/><trkpt lat="24.82221" lon="55.35803"/><trkpt lat="24.82193" lon="55.35726"/><trkpt lat="24.82229" lon="55.35612"/><trkpt lat="24.82225" lon="55.35459"/><trkpt lat="24.82249" lon="55.35451"/><trkpt lat="24.82278" lon="55.35509"/><trkpt lat="24.82304" lon="55.35499"/><trkpt lat="24.82302" lon="55.3546"/><trkpt lat="24.82276" lon="55.35394"/><trkpt lat="24.82295" lon="55.35337"/><trkpt lat="24.82323" lon="55.3533"/><trkpt lat="24.82358" lon="55.35283"/><trkpt lat="24.82385" lon="55.3544"/><trkpt lat="24.82397" lon="55.35456"/><trkpt lat="24.8241" lon="55.35452"/><trkpt lat="24.82397" lon="55.35366"/><trkpt lat="24.82405" lon="55.35354"/><trkpt lat="24.82431" lon="55.35352"/><trkpt lat="24.82433" lon="55.35331"/><trkpt lat="24.82411" lon="55.35277"/><trkpt lat="24.82405" lon="55.35136"/><trkpt lat="24.82376" lon="55.3506"/><trkpt lat="24.8239" lon="55.34995"/><trkpt lat="24.82406" lon="55.34987"/><trkpt lat="24.82428" lon="55.34998"/><trkpt lat="24.82449" lon="55.35091"/><trkpt lat="24.82482" lon="55.3516"/><trkpt lat="24.82482" lon="55.35209"/><trkpt lat="24.82505" lon="55.35195"/><trkpt lat="24.82526" lon="55.35127"/><trkpt lat="24.82545" lon="55.3512"/><trkpt lat="24.82556" lon="55.35138"/><trkpt lat="24.82553" lon="55.35173"/><trkpt lat="24.82577" lon="55.352"/><trkpt lat="24.82598" lon="55.35257"/><trkpt lat="24.82671" lon="55.35227"/><trkpt lat="24.8273" lon="55.35229"/><trkpt lat="24.82757" lon="55.3528"/><trkpt lat="24.82841" lon="55.35332"/><trkpt lat="24.82861" lon="55.35388"/><trkpt lat="24.82901" lon="55.35438"/><trkpt lat="24.82917" lon="55.35435"/><trkpt lat="24.82918" lon="55.35415"/><trkpt lat="24.82877" lon="55.35132"/><trkpt lat="24.82899" lon="55.35102"/><trkpt lat="24.82904" lon="55.35059"/><trkpt lat="24.8292" lon="55.35034"/><trkpt lat="24.82937" lon="55.35024"/><trkpt lat="24.82966" lon="55.35034"/><trkpt lat="24.8298" lon="55.35088"/><trkpt lat="24.83038" lon="55.35208"/><trkpt lat="24.83042" lon="55.35307"/><trkpt lat="24.83063" lon="55.35308"/><trkpt lat="24.83096" lon="55.35275"/><trkpt lat="24.83133" lon="55.35341"/><trkpt lat="24.83151" lon="55.35595"/><trkpt lat="24.83204" lon="55.35659"/><trkpt lat="24.83279" lon="55.35678"/><trkpt lat="24.83309" lon="55.35699"/></trkseg></trk></gpx>
