<?xml version="1.0" encoding="UTF-8"?>
<gpx version="1.1" creator="Nomad Outdoors" xmlns="http://www.topografix.com/GPX/1/1"><metadata><name>Fossil Rock and Maleiha, April 2020</name><link href="https://www.nomadoutdoors.org/routes/2020-04-28-fossil-rock-and-maleiha"/></metadata><trk><name>Fossil Rock and Maleiha, April 2020</name><trkseg><trkpt lat="25.15929" lon="55.74863"/><trkpt lat="25.15823" lon="55.75499"/><trkpt lat="25.15729" lon="55.7587"/><trkpt lat="25.15719" lon="55.76044"/><trkpt lat="25.15691" lon="55.76176"/><trkpt lat="25.15665" lon="55.76623"/><trkpt lat="25.1564" lon="55.76662"/><trkpt lat="25.15624" lon="55.76777"/><trkpt lat="25.15568" lon="55.76843"/><trkpt lat="25.15558" lon="55.76834"/><trkpt lat="25.15557" lon="55.76748"/><trkpt lat="25.15536" lon="55.76673"/><trkpt lat="25.15496" lon="55.76653"/><trkpt lat="25.1548" lon="55.76664"/><trkpt lat="25.15501" lon="55.76835"/><trkpt lat="25.15502" lon="55.7699"/><trkpt lat="25.15521" lon="55.7706"/><trkpt lat="25.15511" lon="55.77067"/><trkpt lat="25.15512" lon="55.77152"/><trkpt lat="25.15482" lon="55.77263"/><trkpt lat="25.15457" lon="55.77305"/><trkpt lat="25.15484" lon="55.77396"/><trkpt lat="25.15455" lon="55.77531"/><trkpt lat="25.15477" lon="55.77663"/><trkpt lat="25.15452" lon="55.77717"/><trkpt lat="25.15456" lon="55.77759"/><trkpt lat="25.15437" lon="55.77774"/><trkpt lat="25.1543" lon="55.77807"/><trkpt lat="25.15438" lon="55.77928"/><trkpt lat="25.15452" lon="55.77951"/><trkpt lat="25.15414" lon="55.77977"/><trkpt lat="25.15398" lon="55.78031"/><trkpt lat="25.15416" lon="55.78142"/><trkpt lat="25.1544" lon="55.78168"/><trkpt lat="25.15439" lon="55.78201"/><trkpt lat="25.15479" lon="55.7832"/><trkpt lat="25.1549" lon="55.78304"/><trkpt lat="25.15487" lon="55.78194"/><trkpt lat="25.15547" lon="55.78099"/><trkpt lat="25.15548" lon="55.78055"/><trkpt lat="25.15537" lon="55.78034"/><trkpt lat="25.1552" lon="55.7803"/><trkpt lat="25.15453" lon="55.78158"/><trkpt lat="25.15486" lon="55.78198"/><trkpt lat="25.15481" lon="55.78259"/></trkseg><trkseg><trkpt lat="25.15616" lon="55.74163"/><trkpt lat="25.16004" lon="55.74099"/><trkpt lat="25.16207" lon="55.74079"/></trkseg></trk></gpx>
