<?xml version="1.0" encoding="UTF-8"?>
<gpx version="1.1" creator="Nomad Outdoors" xmlns="http://www.topografix.com/GPX/1/1"><metadata><name>Qudra Loops</name><link href="https://www.nomadoutdoors.org/routes/2020-06-05-qudra-loops"/></metadata><trk><name>Qudra Loops</name><trkseg><trkpt lat="24.82851" lon="55.35427"/><trkpt lat="24.82857" lon="55.35463"/><trkpt lat="24.82886" lon="55.35515"/><trkpt lat="24.82873" lon="55.35557"/><trkpt lat="24.82887" lon="55.35587"/><trkpt lat="24.82891" lon="55.35642"/><trkpt lat="24.82872" lon="55.35662"/><trkpt lat="24.82846" lon="55.35613"/><trkpt lat="24.82861" lon="55.35539"/><trkpt lat="24.82856" lon="55.35503"/><trkpt lat="24.82768" lon="55.35473"/><trkpt lat="24.8275" lon="55.35398"/><trkpt lat="24.82702" lon="55.35357"/><trkpt lat="24.82697" lon="55.35329"/><trkpt lat="24.82708" lon="55.35295"/><trkpt lat="24.82759" lon="55.35229"/><trkpt lat="24.82735" lon="55.352"/><trkpt lat="24.82743" lon="55.35167"/><trkpt lat="24.82732" lon="55.35122"/><trkpt lat="24.82651" lon="55.35019"/><trkpt lat="24.82641" lon="55.34932"/><trkpt lat="24.82603" lon="55.34869"/><trkpt lat="24.82615" lon="55.34841"/><trkpt lat="24.82613" lon="55.34806"/><trkpt lat="24.82563" lon="55.34708"/><trkpt lat="24.82566" lon="55.34617"/><trkpt lat="24.82587" lon="55.34534"/><trkpt lat="24.82584" lon="55.34435"/><trkpt lat="24.82597" lon="55.34389"/><trkpt lat="24.82594" lon="55.34235"/><trkpt lat="24.82535" lon="55.34123"/><trkpt lat="24.82532" lon="55.34049"/><trkpt lat="24.82474" lon="55.33998"/><trkpt lat="24.82463" lon="55.33972"/><trkpt lat="24.82481" lon="55.33938"/><trkpt lat="24.82517" lon="55.33907"/><trkpt lat="24.82474" lon="55.33851"/><trkpt lat="24.82506" lon="55.33797"/><trkpt lat="24.82475" lon="55.33748"/><trkpt lat="24.82521" lon="55.33735"/><trkpt lat="24.82538" lon="55.33719"/><trkpt lat="24.82536" lon="55.33687"/><trkpt lat="24.82513" lon="55.3364"/><trkpt lat="24.8256" lon="55.33611"/><trkpt lat="24.82581" lon="55.33554"/><trkpt lat="24.82559" lon="55.33518"/><trkpt lat="24.82569" lon="55.33459"/><trkpt lat="24.82513" lon="55.3334"/><trkpt lat="24.82498" lon="55.33258"/><trkpt lat="24.82528" lon="55.33156"/><trkpt lat="24.82556" lon="55.33113"/><trkpt lat="24.82553" lon="55.33088"/><trkpt lat="24.82529" lon="55.33062"/><trkpt lat="24.82565" lon="55.33028"/><trkpt lat="24.82541" lon="55.32988"/><trkpt lat="24.82582" lon="55.32918"/><trkpt lat="24.82536" lon="55.32889"/><trkpt lat="24.82512" lon="55.32847"/><trkpt lat="24.82525" lon="55.32803"/><trkpt lat="24.82496" lon="55.32737"/><trkpt lat="24.82499" lon="55.32613"/><trkpt lat="24.82463" lon="55.32543"/><trkpt lat="24.82413" lon="55.32507"/><trkpt lat="24.82436" lon="55.32386"/><trkpt lat="24.82418" lon="55.32261"/><trkpt lat="24.82396" lon="55.32212"/><trkpt lat="24.82358" lon="55.32209"/><trkpt lat="24.82349" lon="55.32232"/><trkpt lat="24.82383" lon="55.32241"/><trkpt lat="24.8239" lon="55.32264"/><trkpt lat="24.82329" lon="55.32309"/><trkpt lat="24.82254" lon="55.32388"/><trkpt lat="24.82194" lon="55.32412"/><trkpt lat="24.82205" lon="55.32518"/><trkpt lat="24.82076" lon="55.32517"/><trkpt lat="24.82073" lon="55.32544"/><trkpt lat="24.82108" lon="55.32545"/><trkpt lat="24.82158" lon="55.32585"/><trkpt lat="24.82168" lon="55.32605"/><trkpt lat="24.82146" lon="55.32705"/><trkpt lat="24.82084" lon="55.32716"/><trkpt lat="24.82064" lon="55.3274"/><trkpt lat="24.82113" lon="55.32798"/><trkpt lat="24.82111" lon="55.32821"/><trkpt lat="24.82076" lon="55.32874"/><trkpt lat="24.82078" lon="55.32901"/><trkpt lat="24.8211" lon="55.32929"/><trkpt lat="24.82113" lon="55.32948"/><trkpt lat="24.82075" lon="55.32963"/><trkpt lat="24.82065" lon="55.32985"/><trkpt lat="24.82112" lon="55.33062"/><trkpt lat="24.82113" lon="55.33099"/><trkpt lat="24.82101" lon="55.33117"/><trkpt lat="24.8207" lon="55.33129"/><trkpt lat="24.82012" lon="55.33076"/><trkpt lat="24.81995" lon="55.33032"/><trkpt lat="24.82028" lon="55.32975"/><trkpt lat="24.81986" lon="55.32925"/><trkpt lat="24.81981" lon="55.32896"/><trkpt lat="24.82028" lon="55.32847"/><trkpt lat="24.82036" lon="55.32823"/><trkpt lat="24.81992" lon="55.32767"/><trkpt lat="24.82043" lon="55.32752"/><trkpt lat="24.82055" lon="55.32736"/><trkpt lat="24.82054" lon="55.32716"/><trkpt lat="24.82013" lon="55.3267"/><trkpt lat="24.82009" lon="55.32644"/><trkpt lat="24.82065" lon="55.32559"/><trkpt lat="24.81995" lon="55.32515"/><trkpt lat="24.8205" lon="55.32481"/><trkpt lat="24.82062" lon="55.3246"/><trkpt lat="24.82054" lon="55.32435"/><trkpt lat="24.82011" lon="55.32393"/><trkpt lat="24.82009" lon="55.32369"/><trkpt lat="24.82049" lon="55.32329"/><trkpt lat="24.82071" lon="55.32285"/><trkpt lat="24.82034" lon="55.32152"/><trkpt lat="24.82044" lon="55.32109"/><trkpt lat="24.82082" lon="55.32036"/><trkpt lat="24.82044" lon="55.31972"/><trkpt lat="24.82039" lon="55.31944"/><trkpt lat="24.82077" lon="55.31863"/><trkpt lat="24.82089" lon="55.31905"/><trkpt lat="24.82105" lon="55.3192"/><trkpt lat="24.82127" lon="55.31889"/><trkpt lat="24.82101" lon="55.31775"/><trkpt lat="24.82082" lon="55.31759"/><trkpt lat="24.82058" lon="55.31764"/><trkpt lat="24.81997" lon="55.31691"/><trkpt lat="24.81978" lon="55.31598"/><trkpt lat="24.82" lon="55.31542"/><trkpt lat="24.8198" lon="55.31536"/><trkpt lat="24.81962" lon="55.31582"/><trkpt lat="24.8187" lon="55.31603"/><trkpt lat="24.81848" lon="55.31621"/><trkpt lat="24.81841" lon="55.31644"/><trkpt lat="24.81884" lon="55.31713"/><trkpt lat="24.81891" lon="55.31742"/><trkpt lat="24.81848" lon="55.31778"/><trkpt lat="24.81837" lon="55.31823"/><trkpt lat="24.81884" lon="55.31904"/><trkpt lat="24.81939" lon="55.31936"/><trkpt lat="24.81947" lon="55.31953"/><trkpt lat="24.81944" lon="55.31977"/><trkpt lat="24.81907" lon="55.32007"/><trkpt lat="24.81871" lon="55.32118"/><trkpt lat="24.81879" lon="55.32149"/><trkpt lat="24.81924" lon="55.32209"/><trkpt lat="24.81868" lon="55.32278"/><trkpt lat="24.81923" lon="55.32349"/><trkpt lat="24.81906" lon="55.32463"/><trkpt lat="24.81861" lon="55.32529"/><trkpt lat="24.81897" lon="55.32583"/><trkpt lat="24.81902" lon="55.32772"/><trkpt lat="24.81893" lon="55.32807"/><trkpt lat="24.81854" lon="55.32864"/><trkpt lat="24.81815" lon="55.32951"/><trkpt lat="24.81823" lon="55.32981"/><trkpt lat="24.81848" lon="55.32998"/><trkpt lat="24.81865" lon="55.3306"/><trkpt lat="24.81866" lon="55.33085"/><trkpt lat="24.81837" lon="55.33121"/><trkpt lat="24.81828" lon="55.33153"/><trkpt lat="24.81885" lon="55.33195"/><trkpt lat="24.81892" lon="55.33215"/><trkpt lat="24.81864" lon="55.33278"/><trkpt lat="24.81832" lon="55.33314"/><trkpt lat="24.81851" lon="55.33354"/><trkpt lat="24.81856" lon="55.33403"/><trkpt lat="24.81814" lon="55.33447"/><trkpt lat="24.8182" lon="55.33486"/><trkpt lat="24.81859" lon="55.33535"/><trkpt lat="24.81838" lon="55.33549"/><trkpt lat="24.81775" lon="55.3351"/><trkpt lat="24.81738" lon="55.33519"/><trkpt lat="24.8172" lon="55.3358"/><trkpt lat="24.81692" lon="55.33615"/><trkpt lat="24.81707" lon="55.33679"/><trkpt lat="24.81702" lon="55.33708"/><trkpt lat="24.81655" lon="55.33755"/><trkpt lat="24.81631" lon="55.33729"/><trkpt lat="24.8164" lon="55.33697"/><trkpt lat="24.81631" lon="55.33639"/><trkpt lat="24.8166" lon="55.33526"/><trkpt lat="24.81631" lon="55.33463"/><trkpt lat="24.81695" lon="55.33416"/><trkpt lat="24.81702" lon="55.33383"/><trkpt lat="24.81672" lon="55.33354"/><trkpt lat="24.81613" lon="55.33385"/><trkpt lat="24.81603" lon="55.33458"/><trkpt lat="24.81628" lon="55.33504"/><trkpt lat="24.81619" lon="55.33563"/><trkpt lat="24.81652" lon="55.33595"/><trkpt lat="24.8164" lon="55.33631"/><trkpt lat="24.81653" lon="55.33677"/><trkpt lat="24.81651" lon="55.33748"/><trkpt lat="24.81689" lon="55.33786"/><trkpt lat="24.81715" lon="55.33868"/><trkpt lat="24.81746" lon="55.33902"/><trkpt lat="24.81734" lon="55.33971"/><trkpt lat="24.81747" lon="55.34014"/><trkpt lat="24.81778" lon="55.34042"/><trkpt lat="24.8177" lon="55.34169"/><trkpt lat="24.81801" lon="55.34234"/><trkpt lat="24.81797" lon="55.34323"/><trkpt lat="24.81824" lon="55.34387"/><trkpt lat="24.81783" lon="55.34435"/><trkpt lat="24.81772" lon="55.34466"/><trkpt lat="24.81749" lon="55.34658"/><trkpt lat="24.81693" lon="55.34778"/><trkpt lat="24.817" lon="55.3484"/><trkpt lat="24.8173" lon="55.34879"/><trkpt lat="24.81703" lon="55.34944"/><trkpt lat="24.81742" lon="55.34998"/><trkpt lat="24.81747" lon="55.35061"/><trkpt lat="24.81706" lon="55.35131"/><trkpt lat="24.8171" lon="55.35177"/><trkpt lat="24.81687" lon="55.35216"/><trkpt lat="24.81717" lon="55.35318"/><trkpt lat="24.81674" lon="55.35358"/><trkpt lat="24.81658" lon="55.35413"/><trkpt lat="24.81667" lon="55.35482"/><trkpt lat="24.81654" lon="55.35596"/><trkpt lat="24.8162" lon="55.3565"/><trkpt lat="24.81639" lon="55.35739"/><trkpt lat="24.81613" lon="55.35783"/><trkpt lat="24.81595" lon="55.36143"/><trkpt lat="24.81531" lon="55.36306"/><trkpt lat="24.81539" lon="55.3637"/><trkpt lat="24.81528" lon="55.364"/><trkpt lat="24.81547" lon="55.36439"/><trkpt lat="24.81531" lon="55.36445"/><trkpt lat="24.81514" lon="55.36434"/><trkpt lat="24.81492" lon="55.36382"/><trkpt lat="24.81466" lon="55.36389"/><trkpt lat="24.81434" lon="55.36422"/><trkpt lat="24.81441" lon="55.36461"/><trkpt lat="24.81457" lon="55.3648"/><trkpt lat="24.81439" lon="55.36532"/><trkpt lat="24.81463" lon="55.3659"/><trkpt lat="24.8146" lon="55.36617"/><trkpt lat="24.8148" lon="55.36633"/><trkpt lat="24.81477" lon="55.36643"/><trkpt lat="24.80897" lon="55.36811"/><trkpt lat="24.80542" lon="55.36896"/><trkpt lat="24.80517" lon="55.36828"/><trkpt lat="24.80514" lon="55.36761"/><trkpt lat="24.8048" lon="55.36619"/><trkpt lat="24.80424" lon="55.36472"/><trkpt lat="24.80431" lon="55.36375"/><trkpt lat="24.8039" lon="55.363"/><trkpt lat="24.80407" lon="55.36269"/><trkpt lat="24.80403" lon="55.36225"/><trkpt lat="24.80369" lon="55.36195"/><trkpt lat="24.8035" lon="55.36131"/><trkpt lat="24.80313" lon="55.36065"/><trkpt lat="24.80275" lon="55.35903"/><trkpt lat="24.80275" lon="55.35874"/><trkpt lat="24.80301" lon="55.35811"/><trkpt lat="24.80256" lon="55.35674"/><trkpt lat="24.80296" lon="55.35568"/><trkpt lat="24.80304" lon="55.35429"/><trkpt lat="24.80223" lon="55.35275"/><trkpt lat="24.80225" lon="55.35192"/><trkpt lat="24.80203" lon="55.3515"/><trkpt lat="24.80192" lon="55.35052"/><trkpt lat="24.80196" lon="55.34997"/><trkpt lat="24.80186" lon="55.34964"/><trkpt lat="24.802" lon="55.34938"/><trkpt lat="24.80179" lon="55.34905"/><trkpt lat="24.80169" lon="55.3485"/><trkpt lat="24.80099" lon="55.34808"/><trkpt lat="24.8008" lon="55.34783"/><trkpt lat="24.80097" lon="55.34664"/><trkpt lat="24.80071" lon="55.34642"/><trkpt lat="24.80067" lon="55.34608"/><trkpt lat="24.80096" lon="55.34533"/><trkpt lat="24.80108" lon="55.34449"/><trkpt lat="24.80133" lon="55.34451"/><trkpt lat="24.80109" lon="55.34502"/><trkpt lat="24.8012" lon="55.34613"/><trkpt lat="24.80141" lon="55.34656"/><trkpt lat="24.80166" lon="55.34627"/><trkpt lat="24.80197" lon="55.34618"/><trkpt lat="24.80168" lon="55.34591"/><trkpt lat="24.80168" lon="55.34564"/><trkpt lat="24.80238" lon="55.34494"/><trkpt lat="24.80226" lon="55.34442"/><trkpt lat="24.80182" lon="55.34418"/><trkpt lat="24.80154" lon="55.34361"/><trkpt lat="24.80156" lon="55.34267"/><trkpt lat="24.80172" lon="55.34189"/><trkpt lat="24.80161" lon="55.34127"/><trkpt lat="24.8016" lon="55.3391"/><trkpt lat="24.80193" lon="55.338"/><trkpt lat="24.80147" lon="55.33701"/><trkpt lat="24.80122" lon="55.33615"/><trkpt lat="24.80106" lon="55.33468"/><trkpt lat="24.80117" lon="55.33407"/><trkpt lat="24.80109" lon="55.33373"/><trkpt lat="24.80118" lon="55.33248"/><trkpt lat="24.80104" lon="55.33211"/><trkpt lat="24.80052" lon="55.33167"/><trkpt lat="24.80028" lon="55.33122"/><trkpt lat="24.79983" lon="55.33099"/><trkpt lat="24.79968" lon="55.33078"/><trkpt lat="24.7998" lon="55.33053"/><trkpt lat="24.80044" lon="55.33007"/><trkpt lat="24.80059" lon="55.32971"/><trkpt lat="24.79994" lon="55.32959"/><trkpt lat="24.79976" lon="55.32897"/><trkpt lat="24.79907" lon="55.32812"/><trkpt lat="24.7991" lon="55.32788"/><trkpt lat="24.79947" lon="55.32748"/><trkpt lat="24.79923" lon="55.32702"/><trkpt lat="24.79953" lon="55.32633"/><trkpt lat="24.79953" lon="55.32588"/><trkpt lat="24.79941" lon="55.32565"/><trkpt lat="24.79909" lon="55.32562"/><trkpt lat="24.79889" lon="55.326"/><trkpt lat="24.7988" lon="55.32656"/><trkpt lat="24.79897" lon="55.32753"/><trkpt lat="24.79885" lon="55.32782"/><trkpt lat="24.79864" lon="55.32784"/><trkpt lat="24.79842" lon="55.32753"/><trkpt lat="24.79837" lon="55.32727"/><trkpt lat="24.79849" lon="55.3268"/><trkpt lat="24.79829" lon="55.32597"/><trkpt lat="24.79843" lon="55.32546"/><trkpt lat="24.79833" lon="55.32532"/><trkpt lat="24.79809" lon="55.32532"/><trkpt lat="24.79775" lon="55.32559"/><trkpt lat="24.79737" lon="55.32617"/><trkpt lat="24.79716" lon="55.32549"/><trkpt lat="24.79681" lon="55.32547"/><trkpt lat="24.79668" lon="55.3256"/><trkpt lat="24.79665" lon="55.32596"/><trkpt lat="24.79716" lon="55.32642"/><trkpt lat="24.79705" lon="55.32696"/><trkpt lat="24.79747" lon="55.32747"/><trkpt lat="24.79745" lon="55.32787"/><trkpt lat="24.79771" lon="55.32785"/><trkpt lat="24.79815" lon="55.32637"/><trkpt lat="24.79828" lon="55.32505"/><trkpt lat="24.79844" lon="55.32461"/><trkpt lat="24.79837" lon="55.32447"/><trkpt lat="24.7978" lon="55.32429"/><trkpt lat="24.79769" lon="55.32401"/><trkpt lat="24.79845" lon="55.32351"/><trkpt lat="24.79856" lon="55.32311"/><trkpt lat="24.79831" lon="55.32198"/><trkpt lat="24.79805" lon="55.32169"/><trkpt lat="24.79725" lon="55.32135"/><trkpt lat="24.79703" lon="55.3211"/><trkpt lat="24.79682" lon="55.32055"/><trkpt lat="24.79651" lon="55.32076"/><trkpt lat="24.79624" lon="55.32155"/><trkpt lat="24.79578" lon="55.32236"/><trkpt lat="24.79576" lon="55.32259"/><trkpt lat="24.7961" lon="55.323"/><trkpt lat="24.79618" lon="55.3233"/><trkpt lat="24.79547" lon="55.32408"/><trkpt lat="24.79538" lon="55.32445"/><trkpt lat="24.79566" lon="55.32485"/><trkpt lat="24.79635" lon="55.32499"/><trkpt lat="24.7965" lon="55.3252"/><trkpt lat="24.79617" lon="55.32574"/><trkpt lat="24.79632" lon="55.32631"/><trkpt lat="24.79629" lon="55.32675"/><trkpt lat="24.79637" lon="55.32692"/><trkpt lat="24.79681" lon="55.32703"/><trkpt lat="24.79688" lon="55.32741"/><trkpt lat="24.79672" lon="55.32752"/><trkpt lat="24.79654" lon="55.32747"/><trkpt lat="24.79682" lon="55.32725"/><trkpt lat="24.79691" lon="55.32735"/><trkpt lat="24.79685" lon="55.32755"/><trkpt lat="24.79651" lon="55.32751"/><trkpt lat="24.79627" lon="55.32729"/><trkpt lat="24.79596" lon="55.32644"/><trkpt lat="24.79578" lon="55.32649"/><trkpt lat="24.79566" lon="55.32681"/><trkpt lat="24.7958" lon="55.32759"/><trkpt lat="24.79605" lon="55.32766"/><trkpt lat="24.79642" lon="55.32811"/><trkpt lat="24.7963" lon="55.32865"/><trkpt lat="24.79663" lon="55.3293"/><trkpt lat="24.79626" lon="55.33001"/><trkpt lat="24.79606" lon="55.33"/><trkpt lat="24.79601" lon="55.32973"/><trkpt lat="24.79623" lon="55.32941"/><trkpt lat="24.79618" lon="55.32874"/><trkpt lat="24.79642" lon="55.32853"/><trkpt lat="24.79652" lon="55.32915"/><trkpt lat="24.79637" lon="55.33002"/><trkpt lat="24.79614" lon="55.3301"/><trkpt lat="24.79624" lon="55.32954"/><trkpt lat="24.79597" lon="55.32915"/><trkpt lat="24.79547" lon="55.32888"/><trkpt lat="24.79521" lon="55.32854"/><trkpt lat="24.79515" lon="55.32835"/><trkpt lat="24.79537" lon="55.32795"/><trkpt lat="24.79491" lon="55.32746"/><trkpt lat="24.79485" lon="55.32699"/><trkpt lat="24.79567" lon="55.32617"/><trkpt lat="24.79603" lon="55.32628"/><trkpt lat="24.79651" lon="55.32541"/><trkpt lat="24.79637" lon="55.32502"/><trkpt lat="24.79566" lon="55.32499"/><trkpt lat="24.79535" lon="55.32451"/><trkpt lat="24.79541" lon="55.32411"/><trkpt lat="24.79607" lon="55.32352"/><trkpt lat="24.79616" lon="55.32329"/><trkpt lat="24.79608" lon="55.32308"/><trkpt lat="24.79575" lon="55.32291"/><trkpt lat="24.79565" lon="55.32273"/><trkpt lat="24.79586" lon="55.32176"/><trkpt lat="24.7963" lon="55.32126"/><trkpt lat="24.79666" lon="55.32016"/><trkpt lat="24.79647" lon="55.31988"/><trkpt lat="24.79593" lon="55.31961"/><trkpt lat="24.796" lon="55.31945"/><trkpt lat="24.79587" lon="55.31921"/><trkpt lat="24.79502" lon="55.3188"/><trkpt lat="24.79472" lon="55.3189"/><trkpt lat="24.79445" lon="55.31964"/><trkpt lat="24.79435" lon="55.32012"/><trkpt lat="24.7945" lon="55.32062"/><trkpt lat="24.79436" lon="55.32113"/><trkpt lat="24.79463" lon="55.32179"/><trkpt lat="24.79438" lon="55.3224"/><trkpt lat="24.79503" lon="55.32317"/><trkpt lat="24.7955" lon="55.32341"/><trkpt lat="24.79564" lon="55.32415"/><trkpt lat="24.79584" lon="55.32433"/><trkpt lat="24.7962" lon="55.32438"/><trkpt lat="24.79626" lon="55.32455"/><trkpt lat="24.79579" lon="55.32513"/><trkpt lat="24.79604" lon="55.32551"/><trkpt lat="24.79591" lon="55.32595"/><trkpt lat="24.79607" lon="55.32628"/><trkpt lat="24.79537" lon="55.3264"/><trkpt lat="24.79493" lon="55.32617"/><trkpt lat="24.79488" lon="55.32595"/><trkpt lat="24.79535" lon="55.32547"/><trkpt lat="24.79526" lon="55.32512"/><trkpt lat="24.7949" lon="55.32456"/><trkpt lat="24.7953" lon="55.32414"/><trkpt lat="24.79535" lon="55.32357"/><trkpt lat="24.79523" lon="55.32338"/><trkpt lat="24.79466" lon="55.32339"/><trkpt lat="24.79452" lon="55.32319"/><trkpt lat="24.79449" lon="55.32286"/><trkpt lat="24.79497" lon="55.32247"/><trkpt lat="24.79523" lon="55.32198"/><trkpt lat="24.79528" lon="55.32178"/><trkpt lat="24.79505" lon="55.32114"/><trkpt lat="24.79557" lon="55.3205"/><trkpt lat="24.79548" lon="55.32014"/><trkpt lat="24.79487" lon="55.31936"/><trkpt lat="24.79526" lon="55.31805"/><trkpt lat="24.79503" lon="55.31727"/><trkpt lat="24.79502" lon="55.31669"/><trkpt lat="24.79479" lon="55.3167"/><trkpt lat="24.7946" lon="55.3171"/><trkpt lat="24.79385" lon="55.31676"/><trkpt lat="24.79366" lon="55.31682"/><trkpt lat="24.79351" lon="55.31706"/><trkpt lat="24.79366" lon="55.31803"/><trkpt lat="24.79386" lon="55.31823"/><trkpt lat="24.79412" lon="55.31818"/><trkpt lat="24.79435" lon="55.31904"/><trkpt lat="24.79463" lon="55.31936"/><trkpt lat="24.79465" lon="55.31954"/><trkpt lat="24.79439" lon="55.32006"/><trkpt lat="24.79445" lon="55.32077"/><trkpt lat="24.79393" lon="55.32092"/><trkpt lat="24.79341" lon="55.32082"/><trkpt lat="24.79303" lon="55.3209"/><trkpt lat="24.79293" lon="55.3207"/><trkpt lat="24.79309" lon="55.31971"/><trkpt lat="24.7939" lon="55.31888"/><trkpt lat="24.79385" lon="55.31869"/><trkpt lat="24.79323" lon="55.31815"/><trkpt lat="24.7931" lon="55.31781"/><trkpt lat="24.79324" lon="55.3173"/><trkpt lat="24.7933" lon="55.31622"/><trkpt lat="24.79309" lon="55.31437"/><trkpt lat="24.79339" lon="55.31175"/><trkpt lat="24.79398" lon="55.31043"/><trkpt lat="24.79406" lon="55.30991"/><trkpt lat="24.7936" lon="55.30929"/><trkpt lat="24.79308" lon="55.30822"/><trkpt lat="24.79271" lon="55.30801"/><trkpt lat="24.79202" lon="55.30792"/><trkpt lat="24.79138" lon="55.308"/><trkpt lat="24.79087" lon="55.30837"/><trkpt lat="24.78922" lon="55.31074"/><trkpt lat="24.78889" lon="55.31231"/><trkpt lat="24.78728" lon="55.31792"/><trkpt lat="24.78666" lon="55.31932"/><trkpt lat="24.78676" lon="55.31965"/><trkpt lat="24.78723" lon="55.31992"/><trkpt lat="24.78733" lon="55.32014"/><trkpt lat="24.78675" lon="55.32049"/><trkpt lat="24.78659" lon="55.32104"/><trkpt lat="24.78725" lon="55.32159"/><trkpt lat="24.78753" lon="55.32215"/><trkpt lat="24.78722" lon="55.32314"/><trkpt lat="24.7864" lon="55.32411"/><trkpt lat="24.78647" lon="55.32447"/><trkpt lat="24.78724" lon="55.32488"/><trkpt lat="24.78729" lon="55.3253"/><trkpt lat="24.78654" lon="55.32574"/><trkpt lat="24.78642" lon="55.32609"/><trkpt lat="24.78734" lon="55.32714"/><trkpt lat="24.78747" lon="55.32745"/><trkpt lat="24.7874" lon="55.32774"/><trkpt lat="24.78679" lon="55.32809"/><trkpt lat="24.78655" lon="55.32853"/><trkpt lat="24.7866" lon="55.32876"/><trkpt lat="24.78701" lon="55.32897"/><trkpt lat="24.78714" lon="55.32923"/><trkpt lat="24.78692" lon="55.3299"/><trkpt lat="24.78686" lon="55.33099"/><trkpt lat="24.78665" lon="55.33132"/><trkpt lat="24.78665" lon="55.3315"/><trkpt lat="24.78695" lon="55.33182"/><trkpt lat="24.78673" lon="55.33227"/><trkpt lat="24.78688" lon="55.33283"/><trkpt lat="24.78684" lon="55.33339"/><trkpt lat="24.78675" lon="55.33368"/><trkpt lat="24.78633" lon="55.33393"/><trkpt lat="24.78663" lon="55.33468"/><trkpt lat="24.78683" lon="55.33486"/><trkpt lat="24.78676" lon="55.3358"/><trkpt lat="24.78695" lon="55.33642"/><trkpt lat="24.78692" lon="55.33696"/><trkpt lat="24.78718" lon="55.33756"/><trkpt lat="24.78694" lon="55.33838"/><trkpt lat="24.78734" lon="55.33931"/><trkpt lat="24.7872" lon="55.33993"/><trkpt lat="24.78745" lon="55.34036"/><trkpt lat="24.7876" lon="55.34155"/><trkpt lat="24.78738" lon="55.3422"/><trkpt lat="24.78754" lon="55.34385"/><trkpt lat="24.78743" lon="55.34439"/><trkpt lat="24.78746" lon="55.34505"/><trkpt lat="24.78721" lon="55.34592"/><trkpt lat="24.78731" lon="55.34623"/><trkpt lat="24.78778" lon="55.34675"/><trkpt lat="24.78763" lon="55.34789"/><trkpt lat="24.78743" lon="55.34784"/><trkpt lat="24.78754" lon="55.34759"/><trkpt lat="24.7874" lon="55.34716"/><trkpt lat="24.78717" lon="55.34711"/><trkpt lat="24.78674" lon="55.34752"/><trkpt lat="24.78668" lon="55.34789"/><trkpt lat="24.78611" lon="55.34839"/><trkpt lat="24.7861" lon="55.34866"/><trkpt lat="24.78638" lon="55.34917"/><trkpt lat="24.78627" lon="55.35022"/><trkpt lat="24.78661" lon="55.35049"/><trkpt lat="24.78668" lon="55.35071"/><trkpt lat="24.78637" lon="55.35326"/><trkpt lat="24.7867" lon="55.35617"/><trkpt lat="24.78731" lon="55.35858"/><trkpt lat="24.78757" lon="55.35912"/><trkpt lat="24.79604" lon="55.36902"/><trkpt lat="24.79683" lon="55.36973"/><trkpt lat="24.79809" lon="55.37036"/><trkpt lat="24.79894" lon="55.37059"/><trkpt lat="24.79971" lon="55.37062"/><trkpt lat="24.80085" lon="55.3704"/><trkpt lat="24.80413" lon="55.36932"/><trkpt lat="24.80981" lon="55.36788"/><trkpt lat="24.81346" lon="55.36672"/><trkpt lat="24.81633" lon="55.36603"/><trkpt lat="24.82213" lon="55.36537"/><trkpt lat="24.8245" lon="55.36531"/><trkpt lat="24.82545" lon="55.36513"/><trkpt lat="24.8272" lon="55.36514"/><trkpt lat="24.82905" lon="55.3648"/><trkpt lat="24.82972" lon="55.3648"/><trkpt lat="24.83155" lon="55.36438"/><trkpt lat="24.83111" lon="55.36328"/><trkpt lat="24.83125" lon="55.36262"/><trkpt lat="24.83116" lon="55.36339"/><trkpt lat="24.83159" lon="55.36429"/><trkpt lat="24.83178" lon="55.36442"/><trkpt lat="24.85115" lon="55.3613"/><trkpt lat="24.85187" lon="55.36012"/><trkpt lat="24.85064" lon="55.35253"/></trkseg></trk></gpx>
