<?xml version="1.0" encoding="UTF-8"?>
<gpx version="1.1" creator="Nomad Outdoors" xmlns="http://www.topografix.com/GPX/1/1"><metadata><name>Liwa Yellow Truck</name><link href="https://www.nomadoutdoors.org/routes/2020-02-14-liwa-yellow-truck"/></metadata><trk><name>Liwa Yellow Truck</name><trkseg><trkpt lat="23.57995" lon="53.72286"/><trkpt lat="23.57784" lon="53.72205"/><trkpt lat="23.57616" lon="53.7213"/><trkpt lat="23.57613" lon="53.72118"/><trkpt lat="23.57617" lon="53.72072"/><trkpt lat="23.57595" lon="53.7204"/><trkpt lat="23.57587" lon="53.71978"/><trkpt lat="23.57614" lon="53.7192"/><trkpt lat="23.5762" lon="53.71618"/><trkpt lat="23.576" lon="53.71565"/><trkpt lat="23.57602" lon="53.71469"/><trkpt lat="23.5767" lon="53.71382"/><trkpt lat="23.57683" lon="53.71341"/><trkpt lat="23.57672" lon="53.71298"/><trkpt lat="23.57629" lon="53.71283"/><trkpt lat="23.57613" lon="53.7118"/><trkpt lat="23.57685" lon="53.71099"/><trkpt lat="23.57702" lon="53.71038"/><trkpt lat="23.57662" lon="53.70848"/><trkpt lat="23.57593" lon="53.7041"/><trkpt lat="23.57389" lon="53.6996"/><trkpt lat="23.57335" lon="53.69696"/><trkpt lat="23.57298" lon="53.6964"/><trkpt lat="23.57315" lon="53.69577"/><trkpt lat="23.57291" lon="53.69434"/><trkpt lat="23.57267" lon="53.69402"/><trkpt lat="23.57218" lon="53.69369"/><trkpt lat="23.57051" lon="53.69336"/><trkpt lat="23.56951" lon="53.69281"/><trkpt lat="23.56776" lon="53.69272"/><trkpt lat="23.56651" lon="53.6921"/><trkpt lat="23.56595" lon="53.69158"/><trkpt lat="23.56516" lon="53.69144"/><trkpt lat="23.56486" lon="53.69102"/><trkpt lat="23.5649" lon="53.68976"/><trkpt lat="23.56459" lon="53.68928"/><trkpt lat="23.56402" lon="53.68928"/><trkpt lat="23.56065" lon="53.68984"/><trkpt lat="23.55941" lon="53.68991"/><trkpt lat="23.55913" lon="53.69007"/><trkpt lat="23.55875" lon="53.69052"/><trkpt lat="23.55801" lon="53.69069"/><trkpt lat="23.54216" lon="53.69296"/><trkpt lat="23.5411" lon="53.69333"/><trkpt lat="23.53998" lon="53.69343"/><trkpt lat="23.53948" lon="53.69334"/><trkpt lat="23.53271" lon="53.69438"/><trkpt lat="23.5318" lon="53.6944"/><trkpt lat="23.52359" lon="53.69556"/><trkpt lat="23.52276" lon="53.69578"/><trkpt lat="23.52222" lon="53.69607"/><trkpt lat="23.52074" lon="53.69633"/><trkpt lat="23.51881" lon="53.69651"/><trkpt lat="23.51791" lon="53.69637"/><trkpt lat="23.50873" lon="53.69764"/><trkpt lat="23.50808" lon="53.69692"/><trkpt lat="23.50763" lon="53.69613"/><trkpt lat="23.50357" lon="53.68578"/><trkpt lat="23.50336" lon="53.68555"/><trkpt lat="23.50288" lon="53.68539"/><trkpt lat="23.49677" lon="53.68822"/><trkpt lat="23.49624" lon="53.68806"/><trkpt lat="23.49532" lon="53.68831"/><trkpt lat="23.48996" lon="53.69098"/><trkpt lat="23.48476" lon="53.69318"/><trkpt lat="23.48102" lon="53.69499"/><trkpt lat="23.47952" lon="53.69552"/><trkpt lat="23.47906" lon="53.69544"/><trkpt lat="23.4776" lon="53.69477"/><trkpt lat="23.47728" lon="53.69494"/><trkpt lat="23.4761" lon="53.6949"/><trkpt lat="23.47567" lon="53.69502"/><trkpt lat="23.47374" lon="53.69431"/><trkpt lat="23.4718" lon="53.69402"/><trkpt lat="23.47083" lon="53.69401"/><trkpt lat="23.46956" lon="53.6935"/><trkpt lat="23.46912" lon="53.69357"/><trkpt lat="23.46883" lon="53.69385"/><trkpt lat="23.46844" lon="53.69383"/><trkpt lat="23.46797" lon="53.69364"/><trkpt lat="23.46723" lon="53.69305"/><trkpt lat="23.46525" lon="53.69066"/><trkpt lat="23.46373" lon="53.68817"/><trkpt lat="23.4632" lon="53.68689"/><trkpt lat="23.4629" lon="53.68563"/><trkpt lat="23.46169" lon="53.68539"/><trkpt lat="23.45969" lon="53.68575"/><trkpt lat="23.45911" lon="53.68558"/><trkpt lat="23.45863" lon="53.6856"/><trkpt lat="23.45743" lon="53.68481"/><trkpt lat="23.45602" lon="53.68425"/><trkpt lat="23.45576" lon="53.684"/><trkpt lat="23.45523" lon="53.68301"/><trkpt lat="23.45465" lon="53.68256"/><trkpt lat="23.45306" lon="53.68208"/><trkpt lat="23.45261" lon="53.68178"/><trkpt lat="23.45165" lon="53.68162"/><trkpt lat="23.45112" lon="53.68097"/><trkpt lat="23.45024" lon="53.68137"/><trkpt lat="23.44911" lon="53.68137"/><trkpt lat="23.44827" lon="53.68086"/><trkpt lat="23.44664" lon="53.68048"/><trkpt lat="23.44555" lon="53.67971"/><trkpt lat="23.4454" lon="53.67971"/><trkpt lat="23.44525" lon="53.67992"/><trkpt lat="23.44526" lon="53.6808"/><trkpt lat="23.44502" lon="53.68104"/><trkpt lat="23.44456" lon="53.67995"/><trkpt lat="23.4432" lon="53.68052"/><trkpt lat="23.44226" lon="53.68034"/><trkpt lat="23.44214" lon="53.68049"/><trkpt lat="23.44211" lon="53.68094"/><trkpt lat="23.44116" lon="53.68153"/><trkpt lat="23.44043" lon="53.68088"/><trkpt lat="23.44028" lon="53.68012"/><trkpt lat="23.43957" lon="53.68015"/><trkpt lat="23.43926" lon="53.67954"/><trkpt lat="23.43929" lon="53.67916"/><trkpt lat="23.43978" lon="53.6784"/><trkpt lat="23.43969" lon="53.6783"/><trkpt lat="23.43859" lon="53.67834"/><trkpt lat="23.43795" lon="53.67783"/><trkpt lat="23.43789" lon="53.6776"/><trkpt lat="23.43947" lon="53.67677"/><trkpt lat="23.43976" lon="53.67643"/><trkpt lat="23.43973" lon="53.67628"/><trkpt lat="23.43912" lon="53.67637"/><trkpt lat="23.43883" lon="53.67565"/><trkpt lat="23.43738" lon="53.67599"/><trkpt lat="23.43671" lon="53.67592"/><trkpt lat="23.43643" lon="53.67563"/><trkpt lat="23.43628" lon="53.67509"/><trkpt lat="23.43629" lon="53.67455"/><trkpt lat="23.43649" lon="53.67426"/><trkpt lat="23.43685" lon="53.67399"/><trkpt lat="23.43713" lon="53.67394"/><trkpt lat="23.43747" lon="53.67446"/><trkpt lat="23.43784" lon="53.67452"/><trkpt lat="23.4383" lon="53.67394"/><trkpt lat="23.43815" lon="53.67353"/><trkpt lat="23.43793" lon="53.67349"/><trkpt lat="23.43762" lon="53.67369"/><trkpt lat="23.43745" lon="53.6741"/><trkpt lat="23.43715" lon="53.67422"/><trkpt lat="23.43673" lon="53.6741"/><trkpt lat="23.43665" lon="53.67418"/><trkpt lat="23.43679" lon="53.67434"/><trkpt lat="23.43657" lon="53.67431"/><trkpt lat="23.43746" lon="53.67458"/><trkpt lat="23.438" lon="53.67442"/><trkpt lat="23.43836" lon="53.67402"/><trkpt lat="23.43839" lon="53.67381"/><trkpt lat="23.43819" lon="53.67348"/><trkpt lat="23.4378" lon="53.67356"/><trkpt lat="23.43746" lon="53.67431"/><trkpt lat="23.43757" lon="53.67448"/><trkpt lat="23.43821" lon="53.67442"/><trkpt lat="23.43839" lon="53.67465"/><trkpt lat="23.43871" lon="53.67466"/><trkpt lat="23.43867" lon="53.67413"/><trkpt lat="23.43806" lon="53.67316"/><trkpt lat="23.43753" lon="53.67345"/><trkpt lat="23.43732" lon="53.67399"/><trkpt lat="23.43707" lon="53.67419"/><trkpt lat="23.43663" lon="53.67429"/><trkpt lat="23.43663" lon="53.67453"/><trkpt lat="23.43687" lon="53.67462"/><trkpt lat="23.43813" lon="53.67442"/><trkpt lat="23.43856" lon="53.67469"/><trkpt lat="23.43916" lon="53.67459"/><trkpt lat="23.43975" lon="53.67497"/><trkpt lat="23.44123" lon="53.67413"/><trkpt lat="23.44177" lon="53.6735"/><trkpt lat="23.44217" lon="53.67324"/><trkpt lat="23.44375" lon="53.67373"/><trkpt lat="23.44469" lon="53.67373"/><trkpt lat="23.44479" lon="53.67402"/><trkpt lat="23.44439" lon="53.67442"/><trkpt lat="23.44306" lon="53.67508"/><trkpt lat="23.4419" lon="53.67529"/><trkpt lat="23.44147" lon="53.67549"/><trkpt lat="23.44129" lon="53.67591"/><trkpt lat="23.44138" lon="53.67607"/><trkpt lat="23.44244" lon="53.67666"/><trkpt lat="23.44264" lon="53.67648"/><trkpt lat="23.44252" lon="53.67605"/><trkpt lat="23.44267" lon="53.67566"/><trkpt lat="23.44422" lon="53.67589"/><trkpt lat="23.44548" lon="53.67572"/><trkpt lat="23.44584" lon="53.67543"/><trkpt lat="23.44635" lon="53.67541"/><trkpt lat="23.44701" lon="53.67376"/><trkpt lat="23.44803" lon="53.67282"/><trkpt lat="23.44875" lon="53.67171"/><trkpt lat="23.4496" lon="53.67096"/><trkpt lat="23.45022" lon="53.67016"/><trkpt lat="23.45068" lon="53.66818"/><trkpt lat="23.4511" lon="53.66739"/><trkpt lat="23.45141" lon="53.66711"/><trkpt lat="23.45132" lon="53.66657"/><trkpt lat="23.4508" lon="53.66545"/><trkpt lat="23.45092" lon="53.66474"/><trkpt lat="23.4513" lon="53.66385"/><trkpt lat="23.45134" lon="53.66305"/><trkpt lat="23.45076" lon="53.66019"/><trkpt lat="23.45096" lon="53.65981"/><trkpt lat="23.45097" lon="53.65943"/><trkpt lat="23.45044" lon="53.65788"/><trkpt lat="23.45057" lon="53.65705"/><trkpt lat="23.45074" lon="53.65669"/><trkpt lat="23.451" lon="53.65673"/><trkpt lat="23.45098" lon="53.65657"/><trkpt lat="23.45016" lon="53.65596"/><trkpt lat="23.44963" lon="53.65516"/><trkpt lat="23.44962" lon="53.65475"/><trkpt lat="23.44988" lon="53.65416"/><trkpt lat="23.45054" lon="53.65349"/><trkpt lat="23.45066" lon="53.65318"/><trkpt lat="23.45065" lon="53.65228"/><trkpt lat="23.45054" lon="53.65218"/><trkpt lat="23.45006" lon="53.65223"/><trkpt lat="23.45002" lon="53.65212"/><trkpt lat="23.45035" lon="53.65141"/><trkpt lat="23.45065" lon="53.64991"/><trkpt lat="23.4514" lon="53.64907"/><trkpt lat="23.45209" lon="53.64776"/><trkpt lat="23.45232" lon="53.64754"/><trkpt lat="23.45299" lon="53.64721"/><trkpt lat="23.45509" lon="53.64696"/><trkpt lat="23.45731" lon="53.64719"/><trkpt lat="23.45788" lon="53.64705"/><trkpt lat="23.45825" lon="53.64666"/><trkpt lat="23.45818" lon="53.64616"/><trkpt lat="23.45793" lon="53.64609"/><trkpt lat="23.45743" lon="53.64638"/><trkpt lat="23.45689" lon="53.64641"/><trkpt lat="23.45648" lon="53.64623"/><trkpt lat="23.45616" lon="53.64575"/><trkpt lat="23.45611" lon="53.64537"/><trkpt lat="23.4564" lon="53.64461"/><trkpt lat="23.45641" lon="53.64382"/><trkpt lat="23.45665" lon="53.643"/><trkpt lat="23.45651" lon="53.64163"/><trkpt lat="23.45671" lon="53.64091"/><trkpt lat="23.45618" lon="53.63771"/><trkpt lat="23.45653" lon="53.63724"/><trkpt lat="23.45692" lon="53.63722"/><trkpt lat="23.45712" lon="53.63704"/><trkpt lat="23.45734" lon="53.63588"/><trkpt lat="23.45833" lon="53.63456"/><trkpt lat="23.45885" lon="53.6329"/><trkpt lat="23.45936" lon="53.63263"/><trkpt lat="23.46066" lon="53.63225"/><trkpt lat="23.46062" lon="53.6319"/><trkpt lat="23.46046" lon="53.63183"/><trkpt lat="23.4597" lon="53.63193"/><trkpt lat="23.45925" lon="53.63185"/><trkpt lat="23.45915" lon="53.63139"/><trkpt lat="23.45926" lon="53.63089"/><trkpt lat="23.4592" lon="53.63048"/><trkpt lat="23.45976" lon="53.6299"/><trkpt lat="23.46" lon="53.62895"/><trkpt lat="23.46096" lon="53.62828"/><trkpt lat="23.46118" lon="53.62788"/><trkpt lat="23.46113" lon="53.62776"/><trkpt lat="23.46014" lon="53.628"/><trkpt lat="23.45991" lon="53.62787"/><trkpt lat="23.45983" lon="53.62743"/><trkpt lat="23.46025" lon="53.62691"/><trkpt lat="23.46008" lon="53.62615"/><trkpt lat="23.46034" lon="53.62585"/><trkpt lat="23.46147" lon="53.62555"/><trkpt lat="23.46168" lon="53.62544"/><trkpt lat="23.46171" lon="53.62529"/><trkpt lat="23.46148" lon="53.62518"/><trkpt lat="23.46066" lon="53.62546"/><trkpt lat="23.45938" lon="53.62545"/><trkpt lat="23.45915" lon="53.62534"/><trkpt lat="23.45872" lon="53.62475"/><trkpt lat="23.45866" lon="53.62434"/><trkpt lat="23.45887" lon="53.62395"/><trkpt lat="23.45919" lon="53.62394"/><trkpt lat="23.45946" lon="53.62375"/><trkpt lat="23.4598" lon="53.62262"/><trkpt lat="23.46065" lon="53.62053"/><trkpt lat="23.46149" lon="53.62013"/><trkpt lat="23.46233" lon="53.61891"/><trkpt lat="23.46239" lon="53.61875"/><trkpt lat="23.46227" lon="53.61824"/><trkpt lat="23.46292" lon="53.61751"/><trkpt lat="23.46301" lon="53.61635"/><trkpt lat="23.46352" lon="53.61606"/><trkpt lat="23.46396" lon="53.61559"/><trkpt lat="23.46419" lon="53.61556"/><trkpt lat="23.46409" lon="53.61542"/><trkpt lat="23.46317" lon="53.61533"/><trkpt lat="23.46109" lon="53.61529"/><trkpt lat="23.45981" lon="53.61371"/><trkpt lat="23.45879" lon="53.61292"/><trkpt lat="23.45803" lon="53.61251"/><trkpt lat="23.45634" lon="53.61071"/><trkpt lat="23.45399" lon="53.60991"/><trkpt lat="23.45364" lon="53.60941"/><trkpt lat="23.45246" lon="53.60987"/><trkpt lat="23.45154" lon="53.60976"/><trkpt lat="23.45047" lon="53.60987"/><trkpt lat="23.45004" lon="53.61008"/><trkpt lat="23.44973" lon="53.60998"/><trkpt lat="23.44907" lon="53.60926"/><trkpt lat="23.44859" lon="53.60848"/><trkpt lat="23.4476" lon="53.6078"/><trkpt lat="23.44732" lon="53.60733"/><trkpt lat="23.44711" lon="53.60718"/><trkpt lat="23.44656" lon="53.60751"/><trkpt lat="23.44597" lon="53.60722"/><trkpt lat="23.44531" lon="53.60654"/><trkpt lat="23.44519" lon="53.60612"/><trkpt lat="23.4458" lon="53.60515"/><trkpt lat="23.44566" lon="53.60488"/><trkpt lat="23.44519" lon="53.60535"/><trkpt lat="23.4445" lon="53.60661"/><trkpt lat="23.44392" lon="53.60699"/><trkpt lat="23.44344" lon="53.60701"/><trkpt lat="23.44295" lon="53.6065"/><trkpt lat="23.44269" lon="53.60601"/><trkpt lat="23.44274" lon="53.6054"/><trkpt lat="23.44296" lon="53.60488"/><trkpt lat="23.4425" lon="53.60455"/><trkpt lat="23.44202" lon="53.60354"/><trkpt lat="23.44172" lon="53.60336"/><trkpt lat="23.44101" lon="53.60355"/><trkpt lat="23.44086" lon="53.60373"/><trkpt lat="23.44085" lon="53.60399"/><trkpt lat="23.44143" lon="53.6045"/><trkpt lat="23.44266" lon="53.60467"/><trkpt lat="23.44326" lon="53.60447"/><trkpt lat="23.44337" lon="53.60423"/><trkpt lat="23.44319" lon="53.60384"/><trkpt lat="23.4426" lon="53.6041"/><trkpt lat="23.44194" lon="53.60411"/><trkpt lat="23.44088" lon="53.60348"/><trkpt lat="23.44062" lon="53.60365"/><trkpt lat="23.44034" lon="53.60457"/><trkpt lat="23.44273" lon="53.60473"/><trkpt lat="23.44328" lon="53.60439"/><trkpt lat="23.44335" lon="53.60413"/><trkpt lat="23.44319" lon="53.60372"/><trkpt lat="23.44246" lon="53.60356"/><trkpt lat="23.44175" lon="53.60422"/><trkpt lat="23.44036" lon="53.60445"/><trkpt lat="23.44023" lon="53.60457"/><trkpt lat="23.44026" lon="53.60469"/><trkpt lat="23.44051" lon="53.60474"/><trkpt lat="23.44056" lon="53.60462"/><trkpt lat="23.44032" lon="53.60442"/><trkpt lat="23.44032" lon="53.60467"/><trkpt lat="23.44054" lon="53.60477"/><trkpt lat="23.44283" lon="53.60465"/><trkpt lat="23.44318" lon="53.60449"/><trkpt lat="23.44344" lon="53.60398"/><trkpt lat="23.44301" lon="53.60359"/><trkpt lat="23.44256" lon="53.60349"/><trkpt lat="23.44159" lon="53.60436"/><trkpt lat="23.44047" lon="53.60461"/><trkpt lat="23.44031" lon="53.60449"/><trkpt lat="23.44016" lon="53.60369"/><trkpt lat="23.43993" lon="53.60337"/><trkpt lat="23.439" lon="53.60327"/><trkpt lat="23.43897" lon="53.60293"/><trkpt lat="23.43911" lon="53.60271"/><trkpt lat="23.43977" lon="53.6028"/><trkpt lat="23.43985" lon="53.60257"/><trkpt lat="23.43964" lon="53.60227"/><trkpt lat="23.43927" lon="53.60218"/><trkpt lat="23.4392" lon="53.60171"/><trkpt lat="23.43823" lon="53.60053"/><trkpt lat="23.43816" lon="53.59927"/><trkpt lat="23.4382" lon="53.59831"/><trkpt lat="23.4385" lon="53.59676"/><trkpt lat="23.43934" lon="53.59546"/><trkpt lat="23.43926" lon="53.59464"/><trkpt lat="23.43921" lon="53.59447"/><trkpt lat="23.43873" lon="53.59459"/><trkpt lat="23.43795" lon="53.59386"/><trkpt lat="23.43758" lon="53.59373"/><trkpt lat="23.43728" lon="53.5926"/><trkpt lat="23.43746" lon="53.59219"/><trkpt lat="23.43772" lon="53.59302"/><trkpt lat="23.43769" lon="53.59345"/><trkpt lat="23.43759" lon="53.59359"/><trkpt lat="23.43731" lon="53.59356"/><trkpt lat="23.43688" lon="53.59336"/><trkpt lat="23.43661" lon="53.59257"/><trkpt lat="23.43631" lon="53.59225"/><trkpt lat="23.43645" lon="53.59175"/><trkpt lat="23.43602" lon="53.59127"/><trkpt lat="23.43522" lon="53.58972"/><trkpt lat="23.4352" lon="53.58939"/><trkpt lat="23.43552" lon="53.58868"/><trkpt lat="23.43557" lon="53.58802"/><trkpt lat="23.43542" lon="53.58752"/><trkpt lat="23.4346" lon="53.58707"/><trkpt lat="23.43473" lon="53.58653"/><trkpt lat="23.43396" lon="53.58681"/><trkpt lat="23.43329" lon="53.58681"/><trkpt lat="23.43287" lon="53.58695"/><trkpt lat="23.43263" lon="53.58732"/><trkpt lat="23.43105" lon="53.58742"/><trkpt lat="23.43032" lon="53.58733"/><trkpt lat="23.42915" lon="53.58706"/><trkpt lat="23.42835" lon="53.58665"/><trkpt lat="23.42814" lon="53.58635"/><trkpt lat="23.42796" lon="53.58558"/><trkpt lat="23.42777" lon="53.58528"/><trkpt lat="23.42751" lon="53.58516"/><trkpt lat="23.42625" lon="53.58549"/><trkpt lat="23.42621" lon="53.58663"/><trkpt lat="23.42594" lon="53.58718"/><trkpt lat="23.42546" lon="53.58747"/><trkpt lat="23.42549" lon="53.58759"/><trkpt lat="23.42602" lon="53.58774"/><trkpt lat="23.42701" lon="53.58782"/><trkpt lat="23.42738" lon="53.58772"/><trkpt lat="23.42759" lon="53.58726"/><trkpt lat="23.42754" lon="53.58697"/><trkpt lat="23.4272" lon="53.58666"/><trkpt lat="23.42608" lon="53.58694"/><trkpt lat="23.42579" lon="53.58758"/><trkpt lat="23.42602" lon="53.58781"/><trkpt lat="23.42701" lon="53.58783"/><trkpt lat="23.42739" lon="53.58764"/><trkpt lat="23.42754" lon="53.58743"/><trkpt lat="23.42767" lon="53.58688"/><trkpt lat="23.42759" lon="53.58632"/><trkpt lat="23.42733" lon="53.58581"/><trkpt lat="23.42692" lon="53.58551"/><trkpt lat="23.42675" lon="53.58559"/><trkpt lat="23.42655" lon="53.58648"/><trkpt lat="23.42595" lon="53.58729"/><trkpt lat="23.42624" lon="53.58742"/><trkpt lat="23.42696" lon="53.58722"/><trkpt lat="23.42521" lon="53.58833"/><trkpt lat="23.42524" lon="53.58846"/><trkpt lat="23.42537" lon="53.58848"/><trkpt lat="23.42662" lon="53.58806"/><trkpt lat="23.42705" lon="53.58778"/><trkpt lat="23.4274" lon="53.58727"/><trkpt lat="23.4276" lon="53.58649"/><trkpt lat="23.4273" lon="53.58578"/><trkpt lat="23.42693" lon="53.58552"/><trkpt lat="23.42677" lon="53.58557"/><trkpt lat="23.42645" lon="53.58588"/><trkpt lat="23.42573" lon="53.58751"/><trkpt lat="23.4253" lon="53.58782"/><trkpt lat="23.42454" lon="53.5881"/><trkpt lat="23.42418" lon="53.58849"/><trkpt lat="23.42426" lon="53.58875"/><trkpt lat="23.42458" lon="53.58889"/><trkpt lat="23.42567" lon="53.58873"/><trkpt lat="23.42725" lon="53.58754"/><trkpt lat="23.42766" lon="53.58701"/><trkpt lat="23.42786" lon="53.58631"/><trkpt lat="23.42744" lon="53.58584"/><trkpt lat="23.42704" lon="53.58573"/><trkpt lat="23.42675" lon="53.58595"/><trkpt lat="23.42644" lon="53.58666"/><trkpt lat="23.42652" lon="53.58693"/><trkpt lat="23.42702" lon="53.58728"/><trkpt lat="23.42686" lon="53.58742"/><trkpt lat="23.42605" lon="53.58758"/><trkpt lat="23.42544" lon="53.58743"/><trkpt lat="23.42508" lon="53.58787"/><trkpt lat="23.42268" lon="53.58942"/><trkpt lat="23.42238" lon="53.58932"/><trkpt lat="23.42137" lon="53.5879"/><trkpt lat="23.42098" lon="53.58802"/><trkpt lat="23.42035" lon="53.5879"/><trkpt lat="23.41982" lon="53.58802"/><trkpt lat="23.41915" lon="53.58786"/><trkpt lat="23.41852" lon="53.58821"/><trkpt lat="23.41721" lon="53.58961"/><trkpt lat="23.41657" lon="53.58991"/><trkpt lat="23.41506" lon="53.58976"/><trkpt lat="23.41433" lon="53.58943"/><trkpt lat="23.41415" lon="53.58884"/><trkpt lat="23.41391" lon="53.58863"/><trkpt lat="23.41284" lon="53.5891"/><trkpt lat="23.41249" lon="53.58909"/><trkpt lat="23.4122" lon="53.58935"/><trkpt lat="23.41009" lon="53.58933"/><trkpt lat="23.40965" lon="53.58964"/><trkpt lat="23.40953" lon="53.59007"/><trkpt lat="23.4091" lon="53.59004"/><trkpt lat="23.40885" lon="53.58975"/><trkpt lat="23.40844" lon="53.59002"/><trkpt lat="23.40818" lon="53.59003"/><trkpt lat="23.40745" lon="53.58994"/><trkpt lat="23.40714" lon="53.5897"/><trkpt lat="23.40696" lon="53.58978"/><trkpt lat="23.40665" lon="53.59032"/><trkpt lat="23.4053" lon="53.5904"/><trkpt lat="23.4046" lon="53.59019"/><trkpt lat="23.40419" lon="53.58909"/><trkpt lat="23.40379" lon="53.58879"/><trkpt lat="23.40343" lon="53.58879"/><trkpt lat="23.40201" lon="53.58946"/><trkpt lat="23.40133" lon="53.58933"/><trkpt lat="23.39991" lon="53.58864"/><trkpt lat="23.39977" lon="53.58864"/><trkpt lat="23.3994" lon="53.58903"/><trkpt lat="23.39903" lon="53.58893"/><trkpt lat="23.39855" lon="53.58901"/><trkpt lat="23.39725" lon="53.58847"/><trkpt lat="23.39704" lon="53.58855"/><trkpt lat="23.39701" lon="53.58899"/><trkpt lat="23.39679" lon="53.58932"/><trkpt lat="23.39573" lon="53.58972"/><trkpt lat="23.39519" lon="53.58889"/><trkpt lat="23.39498" lon="53.58891"/><trkpt lat="23.39499" lon="53.58916"/><trkpt lat="23.39551" lon="53.5898"/><trkpt lat="23.39567" lon="53.5903"/><trkpt lat="23.39476" lon="53.59026"/><trkpt lat="23.39325" lon="53.59062"/><trkpt lat="23.39267" lon="53.59014"/><trkpt lat="23.39278" lon="53.58992"/><trkpt lat="23.39312" lon="53.5898"/><trkpt lat="23.39368" lon="53.58933"/><trkpt lat="23.39382" lon="53.58914"/><trkpt lat="23.39387" lon="53.58874"/><trkpt lat="23.39341" lon="53.58834"/><trkpt lat="23.39315" lon="53.58839"/><trkpt lat="23.39319" lon="53.58821"/><trkpt lat="23.39278" lon="53.58736"/><trkpt lat="23.39291" lon="53.58701"/><trkpt lat="23.39357" lon="53.58671"/><trkpt lat="23.3937" lon="53.5864"/><trkpt lat="23.39363" lon="53.58552"/><trkpt lat="23.39337" lon="53.58454"/><trkpt lat="23.39349" lon="53.58408"/><trkpt lat="23.39327" lon="53.58399"/><trkpt lat="23.39241" lon="53.58418"/><trkpt lat="23.39216" lon="53.58392"/><trkpt lat="23.39258" lon="53.58341"/><trkpt lat="23.39273" lon="53.58198"/><trkpt lat="23.39316" lon="53.58134"/><trkpt lat="23.39322" lon="53.58106"/><trkpt lat="23.39303" lon="53.58082"/><trkpt lat="23.39268" lon="53.58117"/><trkpt lat="23.39235" lon="53.58115"/><trkpt lat="23.39208" lon="53.58094"/><trkpt lat="23.39209" lon="53.58057"/><trkpt lat="23.39305" lon="53.57988"/><trkpt lat="23.39321" lon="53.57964"/><trkpt lat="23.39306" lon="53.57941"/><trkpt lat="23.39161" lon="53.57837"/><trkpt lat="23.39152" lon="53.57811"/><trkpt lat="23.39177" lon="53.57766"/><trkpt lat="23.39177" lon="53.57741"/><trkpt lat="23.39118" lon="53.57601"/><trkpt lat="23.39106" lon="53.57528"/><trkpt lat="23.39142" lon="53.57485"/><trkpt lat="23.39147" lon="53.57417"/><trkpt lat="23.39177" lon="53.57373"/><trkpt lat="23.39191" lon="53.57381"/><trkpt lat="23.39146" lon="53.57387"/><trkpt lat="23.39051" lon="53.57366"/><trkpt lat="23.3895" lon="53.57381"/><trkpt lat="23.38869" lon="53.57355"/><trkpt lat="23.38863" lon="53.57325"/><trkpt lat="23.38889" lon="53.57273"/><trkpt lat="23.39012" lon="53.57191"/><trkpt lat="23.39063" lon="53.57197"/><trkpt lat="23.39136" lon="53.57181"/><trkpt lat="23.39247" lon="53.57102"/><trkpt lat="23.39342" lon="53.57106"/><trkpt lat="23.39454" lon="53.57146"/><trkpt lat="23.39532" lon="53.5713"/><trkpt lat="23.39567" lon="53.57151"/><trkpt lat="23.39542" lon="53.57351"/><trkpt lat="23.39565" lon="53.5745"/><trkpt lat="23.39557" lon="53.57516"/><trkpt lat="23.39372" lon="53.57554"/><trkpt lat="23.39334" lon="53.57475"/><trkpt lat="23.39342" lon="53.57446"/><trkpt lat="23.39333" lon="53.5742"/><trkpt lat="23.39191" lon="53.57329"/><trkpt lat="23.3907" lon="53.57307"/><trkpt lat="23.38991" lon="53.57269"/><trkpt lat="23.38928" lon="53.57288"/><trkpt lat="23.38852" lon="53.57238"/><trkpt lat="23.38648" lon="53.57143"/><trkpt lat="23.38593" lon="53.5713"/><trkpt lat="23.3855" lon="53.57136"/><trkpt lat="23.38334" lon="53.56976"/><trkpt lat="23.3827" lon="53.56983"/><trkpt lat="23.38152" lon="53.57029"/><trkpt lat="23.38133" lon="53.57054"/><trkpt lat="23.38139" lon="53.57079"/><trkpt lat="23.38155" lon="53.57091"/><trkpt lat="23.38273" lon="53.57078"/><trkpt lat="23.38272" lon="53.57068"/><trkpt lat="23.38178" lon="53.57076"/><trkpt lat="23.38183" lon="53.57099"/><trkpt lat="23.38258" lon="53.57104"/><trkpt lat="23.38306" lon="53.57091"/><trkpt lat="23.38321" lon="53.5708"/><trkpt lat="23.3832" lon="53.57065"/><trkpt lat="23.38301" lon="53.57024"/><trkpt lat="23.38279" lon="53.57015"/><trkpt lat="23.38253" lon="53.57038"/><trkpt lat="23.38276" lon="53.57056"/><trkpt lat="23.38267" lon="53.57077"/><trkpt lat="23.38187" lon="53.57034"/><trkpt lat="23.38014" lon="53.57038"/><trkpt lat="23.3796" lon="53.56958"/><trkpt lat="23.37846" lon="53.56867"/><trkpt lat="23.37827" lon="53.56833"/><trkpt lat="23.37805" lon="53.56743"/><trkpt lat="23.37828" lon="53.56676"/><trkpt lat="23.37816" lon="53.5662"/><trkpt lat="23.37761" lon="53.5652"/><trkpt lat="23.37702" lon="53.56469"/><trkpt lat="23.3764" lon="53.56381"/><trkpt lat="23.37578" lon="53.56168"/><trkpt lat="23.37566" lon="53.56064"/><trkpt lat="23.37579" lon="53.5596"/><trkpt lat="23.37574" lon="53.55839"/><trkpt lat="23.37612" lon="53.55768"/><trkpt lat="23.37683" lon="53.55737"/><trkpt lat="23.37689" lon="53.55686"/><trkpt lat="23.37598" lon="53.55679"/><trkpt lat="23.37544" lon="53.55639"/><trkpt lat="23.37533" lon="53.55613"/><trkpt lat="23.37551" lon="53.55536"/><trkpt lat="23.3755" lon="53.55463"/><trkpt lat="23.37515" lon="53.55348"/><trkpt lat="23.37626" lon="53.55141"/><trkpt lat="23.37767" lon="53.55071"/><trkpt lat="23.37805" lon="53.54999"/><trkpt lat="23.3789" lon="53.54942"/><trkpt lat="23.37896" lon="53.54895"/><trkpt lat="23.3789" lon="53.54871"/><trkpt lat="23.37786" lon="53.54863"/><trkpt lat="23.37777" lon="53.54832"/><trkpt lat="23.37808" lon="53.54768"/><trkpt lat="23.3774" lon="53.54781"/><trkpt lat="23.37719" lon="53.54757"/><trkpt lat="23.37579" lon="53.54714"/><trkpt lat="23.37556" lon="53.54677"/><trkpt lat="23.37553" lon="53.54599"/><trkpt lat="23.3759" lon="53.54375"/><trkpt lat="23.37622" lon="53.54291"/><trkpt lat="23.37617" lon="53.54269"/><trkpt lat="23.37549" lon="53.54274"/><trkpt lat="23.37455" lon="53.5434"/><trkpt lat="23.37416" lon="53.54324"/><trkpt lat="23.37441" lon="53.54294"/><trkpt lat="23.37463" lon="53.54292"/><trkpt lat="23.37533" lon="53.54327"/><trkpt lat="23.37542" lon="53.54371"/><trkpt lat="23.37532" lon="53.54441"/><trkpt lat="23.37551" lon="53.54445"/><trkpt lat="23.37583" lon="53.54411"/><trkpt lat="23.37616" lon="53.54309"/><trkpt lat="23.37683" lon="53.54218"/><trkpt lat="23.3766" lon="53.54224"/><trkpt lat="23.37607" lon="53.54274"/><trkpt lat="23.37533" lon="53.54375"/><trkpt lat="23.37544" lon="53.54396"/><trkpt lat="23.37564" lon="53.54385"/><trkpt lat="23.37681" lon="53.54229"/><trkpt lat="23.37685" lon="53.54209"/><trkpt lat="23.37674" lon="53.54202"/><trkpt lat="23.37464" lon="53.5434"/><trkpt lat="23.37445" lon="53.54344"/><trkpt lat="23.37417" lon="53.54325"/><trkpt lat="23.37424" lon="53.54296"/><trkpt lat="23.37531" lon="53.54247"/><trkpt lat="23.3752" lon="53.54094"/><trkpt lat="23.37529" lon="53.54051"/><trkpt lat="23.37554" lon="53.54007"/><trkpt lat="23.37495" lon="53.54004"/><trkpt lat="23.37452" lon="53.53978"/><trkpt lat="23.37393" lon="53.53911"/><trkpt lat="23.37331" lon="53.53809"/><trkpt lat="23.3731" lon="53.53733"/><trkpt lat="23.37312" lon="53.53617"/><trkpt lat="23.37298" lon="53.53527"/><trkpt lat="23.37198" lon="53.53283"/><trkpt lat="23.3708" lon="53.53068"/><trkpt lat="23.37085" lon="53.53043"/><trkpt lat="23.37123" lon="53.53036"/><trkpt lat="23.37128" lon="53.53071"/><trkpt lat="23.37096" lon="53.53079"/><trkpt lat="23.37057" lon="53.52957"/><trkpt lat="23.37068" lon="53.52928"/><trkpt lat="23.3711" lon="53.52929"/><trkpt lat="23.37135" lon="53.52908"/><trkpt lat="23.37109" lon="53.5288"/><trkpt lat="23.37099" lon="53.52837"/><trkpt lat="23.37077" lon="53.52806"/><trkpt lat="23.37096" lon="53.52693"/><trkpt lat="23.37077" lon="53.52556"/><trkpt lat="23.37083" lon="53.52533"/><trkpt lat="23.37108" lon="53.52517"/><trkpt lat="23.37112" lon="53.52449"/><trkpt lat="23.37076" lon="53.52232"/><trkpt lat="23.37102" lon="53.5219"/><trkpt lat="23.37149" lon="53.52159"/><trkpt lat="23.37172" lon="53.52115"/><trkpt lat="23.37174" lon="53.52084"/><trkpt lat="23.37133" lon="53.51998"/><trkpt lat="23.37072" lon="53.51966"/><trkpt lat="23.37031" lon="53.51916"/><trkpt lat="23.37011" lon="53.51826"/><trkpt lat="23.37074" lon="53.51748"/><trkpt lat="23.37056" lon="53.51737"/><trkpt lat="23.37027" lon="53.51761"/><trkpt lat="23.36986" lon="53.51735"/><trkpt lat="23.36994" lon="53.5165"/><trkpt lat="23.36987" lon="53.51636"/><trkpt lat="23.36926" lon="53.51609"/><trkpt lat="23.36964" lon="53.51557"/><trkpt lat="23.36962" lon="53.5152"/><trkpt lat="23.36879" lon="53.51476"/><trkpt lat="23.36849" lon="53.51402"/><trkpt lat="23.36748" lon="53.51292"/><trkpt lat="23.3672" lon="53.51232"/><trkpt lat="23.36718" lon="53.51057"/><trkpt lat="23.36779" lon="53.50966"/><trkpt lat="23.36794" lon="53.50889"/><trkpt lat="23.36853" lon="53.50876"/><trkpt lat="23.36912" lon="53.5084"/><trkpt lat="23.36985" lon="53.50762"/><trkpt lat="23.37018" lon="53.50656"/><trkpt lat="23.37184" lon="53.50578"/><trkpt lat="23.37204" lon="53.50514"/><trkpt lat="23.37166" lon="53.50486"/><trkpt lat="23.37032" lon="53.50452"/><trkpt lat="23.36986" lon="53.50419"/><trkpt lat="23.36952" lon="53.5037"/><trkpt lat="23.36948" lon="53.50327"/><trkpt lat="23.36957" lon="53.50305"/><trkpt lat="23.37015" lon="53.50257"/><trkpt lat="23.37147" lon="53.50207"/><trkpt lat="23.37172" lon="53.50217"/><trkpt lat="23.37191" lon="53.5024"/><trkpt lat="23.37199" lon="53.50294"/><trkpt lat="23.37054" lon="53.5037"/><trkpt lat="23.37008" lon="53.50381"/><trkpt lat="23.36985" lon="53.50378"/><trkpt lat="23.36946" lon="53.5035"/><trkpt lat="23.36934" lon="53.50263"/><trkpt lat="23.36903" lon="53.50265"/><trkpt lat="23.36858" lon="53.50227"/><trkpt lat="23.36854" lon="53.50212"/><trkpt lat="23.36925" lon="53.50148"/><trkpt lat="23.37005" lon="53.50118"/><trkpt lat="23.37042" lon="53.50087"/><trkpt lat="23.37096" lon="53.49936"/><trkpt lat="23.37082" lon="53.49906"/><trkpt lat="23.37019" lon="53.49883"/><trkpt lat="23.37015" lon="53.49865"/><trkpt lat="23.37065" lon="53.49879"/><trkpt lat="23.37064" lon="53.49899"/><trkpt lat="23.37027" lon="53.49902"/><trkpt lat="23.37009" lon="53.49916"/><trkpt lat="23.37006" lon="53.49929"/><trkpt lat="23.3702" lon="53.49935"/><trkpt lat="23.37132" lon="53.49903"/><trkpt lat="23.37166" lon="53.49867"/><trkpt lat="23.37169" lon="53.49813"/><trkpt lat="23.37149" lon="53.49763"/><trkpt lat="23.37105" lon="53.49733"/><trkpt lat="23.37082" lon="53.49742"/><trkpt lat="23.37058" lon="53.49799"/><trkpt lat="23.3706" lon="53.49835"/><trkpt lat="23.37079" lon="53.4987"/><trkpt lat="23.37057" lon="53.49894"/><trkpt lat="23.37079" lon="53.4991"/><trkpt lat="23.36947" lon="53.49932"/><trkpt lat="23.36921" lon="53.49951"/><trkpt lat="23.3693" lon="53.49973"/><trkpt lat="23.37004" lon="53.49938"/><trkpt lat="23.37004" lon="53.49916"/><trkpt lat="23.36981" lon="53.49914"/><trkpt lat="23.36927" lon="53.49951"/><trkpt lat="23.3692" lon="53.49965"/><trkpt lat="23.36934" lon="53.49978"/><trkpt lat="23.37163" lon="53.49882"/><trkpt lat="23.37192" lon="53.49822"/><trkpt lat="23.37147" lon="53.49765"/><trkpt lat="23.371" lon="53.49748"/><trkpt lat="23.37069" lon="53.49757"/><trkpt lat="23.37056" lon="53.4978"/><trkpt lat="23.37059" lon="53.49839"/><trkpt lat="23.37064" lon="53.49828"/><trkpt lat="23.37052" lon="53.49823"/><trkpt lat="23.36981" lon="53.49809"/><trkpt lat="23.36933" lon="53.49852"/><trkpt lat="23.36911" lon="53.49888"/><trkpt lat="23.36889" lon="53.49975"/><trkpt lat="23.36904" lon="53.49988"/><trkpt lat="23.36915" lon="53.49974"/><trkpt lat="23.36872" lon="53.49842"/><trkpt lat="23.36867" lon="53.49777"/><trkpt lat="23.37023" lon="53.4967"/><trkpt lat="23.3706" lon="53.49613"/><trkpt lat="23.37076" lon="53.49507"/><trkpt lat="23.371" lon="53.49479"/><trkpt lat="23.37066" lon="53.49411"/><trkpt lat="23.37035" lon="53.49292"/><trkpt lat="23.36971" lon="53.49182"/><trkpt lat="23.3699" lon="53.49073"/><trkpt lat="23.37059" lon="53.49008"/><trkpt lat="23.37054" lon="53.48983"/><trkpt lat="23.36977" lon="53.48964"/><trkpt lat="23.36969" lon="53.48948"/><trkpt lat="23.36976" lon="53.48906"/><trkpt lat="23.37018" lon="53.48873"/><trkpt lat="23.37035" lon="53.48749"/><trkpt lat="23.37024" lon="53.48695"/><trkpt lat="23.37" lon="53.48679"/><trkpt lat="23.36977" lon="53.48699"/><trkpt lat="23.36967" lon="53.48747"/><trkpt lat="23.36966" lon="53.48791"/><trkpt lat="23.36974" lon="53.48795"/><trkpt lat="23.36982" lon="53.48775"/><trkpt lat="23.36972" lon="53.48764"/><trkpt lat="23.36911" lon="53.48745"/><trkpt lat="23.36866" lon="53.48716"/><trkpt lat="23.36876" lon="53.48692"/><trkpt lat="23.3698" lon="53.48689"/><trkpt lat="23.37011" lon="53.48715"/><trkpt lat="23.37012" lon="53.48749"/><trkpt lat="23.36993" lon="53.48758"/><trkpt lat="23.36933" lon="53.48732"/><trkpt lat="23.36909" lon="53.48708"/><trkpt lat="23.36897" lon="53.48673"/><trkpt lat="23.36904" lon="53.48655"/><trkpt lat="23.36952" lon="53.48628"/><trkpt lat="23.36999" lon="53.48574"/><trkpt lat="23.37022" lon="53.48499"/><trkpt lat="23.37019" lon="53.48473"/><trkpt lat="23.36992" lon="53.4844"/><trkpt lat="23.36929" lon="53.48415"/><trkpt lat="23.36897" lon="53.48361"/><trkpt lat="23.36883" lon="53.4832"/><trkpt lat="23.36907" lon="53.48256"/><trkpt lat="23.36847" lon="53.48139"/><trkpt lat="23.36792" lon="53.47988"/><trkpt lat="23.36804" lon="53.4797"/><trkpt lat="23.37027" lon="53.47903"/><trkpt lat="23.37122" lon="53.47795"/><trkpt lat="23.37148" lon="53.47816"/><trkpt lat="23.37149" lon="53.4785"/><trkpt lat="23.3717" lon="53.47863"/><trkpt lat="23.37301" lon="53.4785"/><trkpt lat="23.37401" lon="53.47858"/><trkpt lat="23.37432" lon="53.47884"/><trkpt lat="23.3745" lon="53.4787"/><trkpt lat="23.37458" lon="53.47839"/><trkpt lat="23.37436" lon="53.47822"/><trkpt lat="23.37432" lon="53.47794"/><trkpt lat="23.37466" lon="53.47716"/><trkpt lat="23.37516" lon="53.47651"/><trkpt lat="23.37557" lon="53.47634"/><trkpt lat="23.37514" lon="53.47571"/><trkpt lat="23.37514" lon="53.47538"/><trkpt lat="23.37431" lon="53.47477"/><trkpt lat="23.37414" lon="53.47498"/><trkpt lat="23.37394" lon="53.475"/><trkpt lat="23.37346" lon="53.47452"/><trkpt lat="23.37308" lon="53.47341"/><trkpt lat="23.37304" lon="53.47299"/><trkpt lat="23.37321" lon="53.47213"/><trkpt lat="23.37242" lon="53.47176"/><trkpt lat="23.37219" lon="53.47144"/><trkpt lat="23.37251" lon="53.47027"/><trkpt lat="23.37314" lon="53.46989"/><trkpt lat="23.37337" lon="53.47006"/><trkpt lat="23.37342" lon="53.47042"/><trkpt lat="23.37321" lon="53.4709"/><trkpt lat="23.37279" lon="53.47119"/><trkpt lat="23.37289" lon="53.47127"/><trkpt lat="23.37397" lon="53.4708"/><trkpt lat="23.37376" lon="53.47074"/><trkpt lat="23.37345" lon="53.47088"/><trkpt lat="23.37202" lon="53.47199"/><trkpt lat="23.37223" lon="53.47241"/><trkpt lat="23.37264" lon="53.47208"/><trkpt lat="23.37288" lon="53.47224"/><trkpt lat="23.37209" lon="53.47261"/><trkpt lat="23.37222" lon="53.47275"/><trkpt lat="23.37392" lon="53.4717"/><trkpt lat="23.37428" lon="53.4712"/><trkpt lat="23.37426" lon="53.47073"/><trkpt lat="23.37399" lon="53.47037"/><trkpt lat="23.37377" lon="53.47036"/><trkpt lat="23.37329" lon="53.47071"/><trkpt lat="23.37265" lon="53.47154"/><trkpt lat="23.37222" lon="53.47171"/><trkpt lat="23.37194" lon="53.4716"/><trkpt lat="23.37165" lon="53.4713"/><trkpt lat="23.37142" lon="53.47072"/><trkpt lat="23.37226" lon="53.46996"/><trkpt lat="23.37258" lon="53.46932"/><trkpt lat="23.37248" lon="53.46903"/><trkpt lat="23.37197" lon="53.46877"/><trkpt lat="23.37053" lon="53.46893"/><trkpt lat="23.36939" lon="53.46875"/><trkpt lat="23.36897" lon="53.46839"/><trkpt lat="23.36852" lon="53.46773"/><trkpt lat="23.36752" lon="53.46692"/><trkpt lat="23.36686" lon="53.46614"/><trkpt lat="23.36666" lon="53.46545"/><trkpt lat="23.36602" lon="53.46438"/><trkpt lat="23.36448" lon="53.4606"/><trkpt lat="23.36426" lon="53.46042"/><trkpt lat="23.36392" lon="53.46036"/><trkpt lat="23.36353" lon="53.45976"/><trkpt lat="23.36279" lon="53.45818"/><trkpt lat="23.36272" lon="53.45716"/><trkpt lat="23.36233" lon="53.45661"/><trkpt lat="23.36161" lon="53.45609"/><trkpt lat="23.36102" lon="53.45524"/><trkpt lat="23.36017" lon="53.45524"/><trkpt lat="23.36011" lon="53.45571"/><trkpt lat="23.35866" lon="53.45607"/><trkpt lat="23.35785" lon="53.45575"/><trkpt lat="23.35735" lon="53.45601"/><trkpt lat="23.35625" lon="53.45583"/><trkpt lat="23.35463" lon="53.45591"/><trkpt lat="23.35339" lon="53.45616"/><trkpt lat="23.35242" lon="53.45607"/><trkpt lat="23.35177" lon="53.45626"/><trkpt lat="23.35171" lon="53.45658"/><trkpt lat="23.35249" lon="53.45672"/><trkpt lat="23.35305" lon="53.45704"/><trkpt lat="23.35428" lon="53.45846"/><trkpt lat="23.35461" lon="53.459"/><trkpt lat="23.3547" lon="53.45945"/><trkpt lat="23.35368" lon="53.45963"/><trkpt lat="23.353" lon="53.46121"/><trkpt lat="23.3523" lon="53.46171"/><trkpt lat="23.35125" lon="53.4619"/><trkpt lat="23.35049" lon="53.46136"/><trkpt lat="23.34967" lon="53.46123"/><trkpt lat="23.34917" lon="53.46139"/><trkpt lat="23.34841" lon="53.46202"/><trkpt lat="23.34778" lon="53.46294"/><trkpt lat="23.34761" lon="53.46344"/><trkpt lat="23.34728" lon="53.46365"/><trkpt lat="23.34713" lon="53.46423"/><trkpt lat="23.34637" lon="53.46425"/><trkpt lat="23.34613" lon="53.46405"/><trkpt lat="23.34526" lon="53.46393"/><trkpt lat="23.34479" lon="53.46348"/><trkpt lat="23.34339" lon="53.46433"/><trkpt lat="23.3431" lon="53.46476"/><trkpt lat="23.34314" lon="53.46512"/><trkpt lat="23.34258" lon="53.46513"/><trkpt lat="23.34245" lon="53.46551"/><trkpt lat="23.34227" lon="53.46558"/><trkpt lat="23.34175" lon="53.46542"/><trkpt lat="23.34119" lon="53.46578"/><trkpt lat="23.34122" lon="53.46608"/><trkpt lat="23.342" lon="53.46743"/><trkpt lat="23.34234" lon="53.46753"/><trkpt lat="23.34329" lon="53.46745"/><trkpt lat="23.34348" lon="53.46752"/><trkpt lat="23.34367" lon="53.46782"/><trkpt lat="23.34313" lon="53.46826"/><trkpt lat="23.34303" lon="53.46897"/><trkpt lat="23.3418" lon="53.4702"/><trkpt lat="23.34083" lon="53.47166"/><trkpt lat="23.34047" lon="53.47198"/><trkpt lat="23.33989" lon="53.47218"/><trkpt lat="23.33988" lon="53.47229"/><trkpt lat="23.34007" lon="53.47234"/><trkpt lat="23.34022" lon="53.47215"/><trkpt lat="23.34011" lon="53.47185"/><trkpt lat="23.33965" lon="53.47181"/><trkpt lat="23.33928" lon="53.47205"/><trkpt lat="23.33875" lon="53.47194"/><trkpt lat="23.33826" lon="53.47147"/><trkpt lat="23.3382" lon="53.47111"/><trkpt lat="23.33866" lon="53.47029"/><trkpt lat="23.33943" lon="53.46959"/><trkpt lat="23.34031" lon="53.46942"/><trkpt lat="23.34081" lon="53.4697"/><trkpt lat="23.34096" lon="53.46997"/><trkpt lat="23.341" lon="53.47028"/><trkpt lat="23.3409" lon="53.4705"/><trkpt lat="23.34004" lon="53.47073"/><trkpt lat="23.33987" lon="53.47058"/><trkpt lat="23.34006" lon="53.47036"/><trkpt lat="23.34017" lon="53.47051"/><trkpt lat="23.33997" lon="53.47065"/><trkpt lat="23.33898" lon="53.47079"/><trkpt lat="23.33873" lon="53.47095"/><trkpt lat="23.33864" lon="53.47119"/><trkpt lat="23.33872" lon="53.47142"/><trkpt lat="23.33891" lon="53.47145"/><trkpt lat="23.34053" lon="53.47093"/><trkpt lat="23.34091" lon="53.47053"/><trkpt lat="23.34088" lon="53.47009"/><trkpt lat="23.3405" lon="53.46972"/><trkpt lat="23.33923" lon="53.46956"/><trkpt lat="23.33878" lon="53.4697"/><trkpt lat="23.3383" lon="53.47029"/><trkpt lat="23.33818" lon="53.47057"/><trkpt lat="23.33852" lon="53.47093"/><trkpt lat="23.33862" lon="53.47204"/><trkpt lat="23.3394" lon="53.47227"/><trkpt lat="23.33948" lon="53.47244"/><trkpt lat="23.3394" lon="53.47257"/><trkpt lat="23.33906" lon="53.47264"/><trkpt lat="23.33846" lon="53.47246"/><trkpt lat="23.33803" lon="53.4726"/><trkpt lat="23.3378" lon="53.47286"/><trkpt lat="23.3375" lon="53.4736"/><trkpt lat="23.33724" lon="53.4738"/><trkpt lat="23.33684" lon="53.47373"/><trkpt lat="23.33644" lon="53.47396"/><trkpt lat="23.33622" lon="53.4742"/><trkpt lat="23.33613" lon="53.47466"/><trkpt lat="23.33643" lon="53.47534"/><trkpt lat="23.33641" lon="53.47568"/><trkpt lat="23.33666" lon="53.47577"/><trkpt lat="23.33761" lon="53.47504"/><trkpt lat="23.33726" lon="53.47544"/><trkpt lat="23.33803" lon="53.47434"/><trkpt lat="23.3381" lon="53.47398"/><trkpt lat="23.33747" lon="53.47436"/><trkpt lat="23.33697" lon="53.47427"/><trkpt lat="23.33674" lon="53.47457"/><trkpt lat="23.33672" lon="53.4749"/><trkpt lat="23.33682" lon="53.47524"/><trkpt lat="23.33712" lon="53.47539"/><trkpt lat="23.33777" lon="53.47474"/><trkpt lat="23.33806" lon="53.47413"/><trkpt lat="23.33737" lon="53.47438"/><trkpt lat="23.33699" lon="53.47436"/><trkpt lat="23.33686" lon="53.47501"/><trkpt lat="23.33752" lon="53.47521"/><trkpt lat="23.33824" lon="53.47574"/><trkpt lat="23.33826" lon="53.47622"/><trkpt lat="23.33793" lon="53.47619"/><trkpt lat="23.33737" lon="53.47561"/><trkpt lat="23.33722" lon="53.47504"/><trkpt lat="23.33728" lon="53.47494"/><trkpt lat="23.33748" lon="53.47498"/><trkpt lat="23.33759" lon="53.47479"/><trkpt lat="23.3374" lon="53.47474"/><trkpt lat="23.33692" lon="53.47512"/><trkpt lat="23.33701" lon="53.47543"/><trkpt lat="23.3368" lon="53.47558"/><trkpt lat="23.33676" lon="53.47577"/><trkpt lat="23.33726" lon="53.47656"/><trkpt lat="23.33693" lon="53.47709"/><trkpt lat="23.33522" lon="53.47772"/><trkpt lat="23.33425" lon="53.47779"/><trkpt lat="23.33341" lon="53.47831"/><trkpt lat="23.33321" lon="53.47862"/><trkpt lat="23.33325" lon="53.47893"/><trkpt lat="23.33361" lon="53.47946"/><trkpt lat="23.33371" lon="53.47998"/><trkpt lat="23.33302" lon="53.48039"/><trkpt lat="23.33256" lon="53.48117"/><trkpt lat="23.33267" lon="53.48136"/><trkpt lat="23.33302" lon="53.48097"/><trkpt lat="23.33324" lon="53.48098"/><trkpt lat="23.33341" lon="53.48114"/><trkpt lat="23.33335" lon="53.48135"/><trkpt lat="23.33302" lon="53.48159"/><trkpt lat="23.33264" lon="53.4821"/><trkpt lat="23.33199" lon="53.48257"/><trkpt lat="23.33121" lon="53.48261"/><trkpt lat="23.33029" lon="53.48207"/><trkpt lat="23.32995" lon="53.48138"/><trkpt lat="23.33005" lon="53.48073"/><trkpt lat="23.33061" lon="53.48013"/><trkpt lat="23.33107" lon="53.48009"/><trkpt lat="23.33126" lon="53.48021"/><trkpt lat="23.33134" lon="53.48039"/><trkpt lat="23.33126" lon="53.48053"/><trkpt lat="23.33077" lon="53.48094"/><trkpt lat="23.33058" lon="53.48126"/><trkpt lat="23.3306" lon="53.48195"/><trkpt lat="23.33074" lon="53.4824"/><trkpt lat="23.33141" lon="53.48326"/><trkpt lat="23.33312" lon="53.48338"/><trkpt lat="23.33339" lon="53.48348"/><trkpt lat="23.33348" lon="53.48391"/><trkpt lat="23.33322" lon="53.48422"/><trkpt lat="23.33271" lon="53.48437"/><trkpt lat="23.33237" lon="53.48463"/><trkpt lat="23.33143" lon="53.48586"/><trkpt lat="23.33106" lon="53.48669"/><trkpt lat="23.3311" lon="53.48711"/><trkpt lat="23.33053" lon="53.48831"/><trkpt lat="23.33014" lon="53.48992"/><trkpt lat="23.33015" lon="53.49024"/><trkpt lat="23.33001" lon="53.49041"/><trkpt lat="23.32948" lon="53.48892"/><trkpt lat="23.32923" lon="53.48852"/><trkpt lat="23.32939" lon="53.48802"/><trkpt lat="23.32936" lon="53.48742"/><trkpt lat="23.32923" lon="53.48717"/><trkpt lat="23.32906" lon="53.48727"/><trkpt lat="23.32869" lon="53.48832"/><trkpt lat="23.32798" lon="53.48854"/><trkpt lat="23.32684" lon="53.4894"/><trkpt lat="23.32564" lon="53.4911"/><trkpt lat="23.32546" lon="53.49154"/><trkpt lat="23.3255" lon="53.49176"/><trkpt lat="23.32623" lon="53.4929"/><trkpt lat="23.32633" lon="53.4938"/><trkpt lat="23.32653" lon="53.49412"/><trkpt lat="23.32684" lon="53.49415"/><trkpt lat="23.32778" lon="53.49335"/><trkpt lat="23.32888" lon="53.49275"/><trkpt lat="23.32916" lon="53.49287"/><trkpt lat="23.32918" lon="53.49329"/><trkpt lat="23.32936" lon="53.49357"/><trkpt lat="23.32976" lon="53.49376"/><trkpt lat="23.3306" lon="53.49451"/><trkpt lat="23.33072" lon="53.49526"/><trkpt lat="23.33081" lon="53.49535"/><trkpt lat="23.33118" lon="53.49529"/><trkpt lat="23.33137" lon="53.49537"/><trkpt lat="23.33184" lon="53.4961"/><trkpt lat="23.33191" lon="53.49696"/><trkpt lat="23.33234" lon="53.4979"/><trkpt lat="23.33235" lon="53.49877"/><trkpt lat="23.3321" lon="53.49925"/><trkpt lat="23.33219" lon="53.49989"/><trkpt lat="23.33166" lon="53.49979"/><trkpt lat="23.33091" lon="53.50018"/><trkpt lat="23.33015" lon="53.50034"/><trkpt lat="23.3298" lon="53.50061"/><trkpt lat="23.329" lon="53.50168"/><trkpt lat="23.32884" lon="53.50212"/><trkpt lat="23.32884" lon="53.50258"/><trkpt lat="23.32909" lon="53.50372"/><trkpt lat="23.32937" lon="53.50425"/><trkpt lat="23.32908" lon="53.5044"/><trkpt lat="23.3286" lon="53.50433"/><trkpt lat="23.32696" lon="53.50365"/><trkpt lat="23.32687" lon="53.50388"/><trkpt lat="23.32625" lon="53.50403"/><trkpt lat="23.32601" lon="53.50432"/><trkpt lat="23.3259" lon="53.50479"/><trkpt lat="23.32556" lon="53.50516"/><trkpt lat="23.32555" lon="53.50627"/><trkpt lat="23.32543" lon="53.50644"/><trkpt lat="23.32473" lon="53.50671"/><trkpt lat="23.32487" lon="53.50716"/><trkpt lat="23.32483" lon="53.50776"/><trkpt lat="23.32432" lon="53.50852"/><trkpt lat="23.32398" lon="53.50877"/><trkpt lat="23.32341" lon="53.50824"/><trkpt lat="23.32318" lon="53.50778"/><trkpt lat="23.32241" lon="53.50705"/><trkpt lat="23.32186" lon="53.50692"/><trkpt lat="23.32124" lon="53.50698"/><trkpt lat="23.3211" lon="53.50711"/><trkpt lat="23.32113" lon="53.5074"/><trkpt lat="23.32164" lon="53.50811"/><trkpt lat="23.32125" lon="53.50906"/><trkpt lat="23.32135" lon="53.5097"/><trkpt lat="23.3219" lon="53.5099"/><trkpt lat="23.32221" lon="53.50978"/><trkpt lat="23.32298" lon="53.50876"/><trkpt lat="23.3232" lon="53.50866"/><trkpt lat="23.32366" lon="53.50865"/><trkpt lat="23.32389" lon="53.50901"/><trkpt lat="23.32367" lon="53.50932"/><trkpt lat="23.32339" lon="53.50948"/><trkpt lat="23.32291" lon="53.50949"/><trkpt lat="23.32224" lon="53.51003"/><trkpt lat="23.32148" lon="53.51028"/><trkpt lat="23.32128" lon="53.51047"/><trkpt lat="23.32126" lon="53.51069"/><trkpt lat="23.32161" lon="53.51123"/><trkpt lat="23.32157" lon="53.51141"/><trkpt lat="23.32088" lon="53.512"/><trkpt lat="23.32015" lon="53.512"/><trkpt lat="23.31972" lon="53.51177"/><trkpt lat="23.31966" lon="53.51186"/><trkpt lat="23.32019" lon="53.512"/><trkpt lat="23.32027" lon="53.51181"/><trkpt lat="23.32021" lon="53.51165"/><trkpt lat="23.32" lon="53.51153"/><trkpt lat="23.31982" lon="53.51115"/><trkpt lat="23.3193" lon="53.511"/><trkpt lat="23.31908" lon="53.51061"/><trkpt lat="23.31863" lon="53.51071"/><trkpt lat="23.31838" lon="53.51108"/><trkpt lat="23.31764" lon="53.51114"/><trkpt lat="23.31713" lon="53.51102"/><trkpt lat="23.31694" lon="53.51115"/><trkpt lat="23.31652" lon="53.51105"/><trkpt lat="23.31619" lon="53.51132"/><trkpt lat="23.31577" lon="53.51114"/><trkpt lat="23.31273" lon="53.5119"/><trkpt lat="23.31179" lon="53.51282"/><trkpt lat="23.31157" lon="53.51351"/><trkpt lat="23.31139" lon="53.51367"/><trkpt lat="23.31114" lon="53.51361"/><trkpt lat="23.31058" lon="53.51319"/><trkpt lat="23.30953" lon="53.51399"/><trkpt lat="23.30914" lon="53.51444"/><trkpt lat="23.30894" lon="53.51481"/><trkpt lat="23.30891" lon="53.51522"/><trkpt lat="23.30865" lon="53.51551"/><trkpt lat="23.30825" lon="53.51553"/><trkpt lat="23.30777" lon="53.51575"/><trkpt lat="23.30729" lon="53.51566"/><trkpt lat="23.30682" lon="53.51573"/><trkpt lat="23.30654" lon="53.5162"/><trkpt lat="23.30655" lon="53.51685"/><trkpt lat="23.30689" lon="53.51698"/><trkpt lat="23.30685" lon="53.51764"/><trkpt lat="23.30763" lon="53.51775"/><trkpt lat="23.30761" lon="53.51788"/><trkpt lat="23.30726" lon="53.51823"/><trkpt lat="23.30682" lon="53.5196"/><trkpt lat="23.30608" lon="53.52059"/><trkpt lat="23.30612" lon="53.52126"/><trkpt lat="23.3065" lon="53.52172"/><trkpt lat="23.30644" lon="53.52239"/><trkpt lat="23.30609" lon="53.52337"/><trkpt lat="23.30582" lon="53.52355"/><trkpt lat="23.30521" lon="53.52341"/><trkpt lat="23.30562" lon="53.52383"/><trkpt lat="23.30562" lon="53.52412"/><trkpt lat="23.30531" lon="53.52445"/><trkpt lat="23.30491" lon="53.52425"/><trkpt lat="23.30477" lon="53.52453"/><trkpt lat="23.30487" lon="53.52621"/><trkpt lat="23.30513" lon="53.52645"/><trkpt lat="23.30485" lon="53.52715"/><trkpt lat="23.30411" lon="53.52817"/><trkpt lat="23.30313" lon="53.52923"/><trkpt lat="23.30292" lon="53.52931"/><trkpt lat="23.30243" lon="53.52917"/><trkpt lat="23.3019" lon="53.52938"/><trkpt lat="23.30126" lon="53.52883"/><trkpt lat="23.30087" lon="53.52879"/><trkpt lat="23.30051" lon="53.52907"/><trkpt lat="23.29994" lon="53.5299"/><trkpt lat="23.29972" lon="53.53025"/><trkpt lat="23.29975" lon="53.53044"/><trkpt lat="23.29999" lon="53.53018"/><trkpt lat="23.29976" lon="53.52996"/><trkpt lat="23.29977" lon="53.52984"/><trkpt lat="23.30055" lon="53.52928"/><trkpt lat="23.30131" lon="53.52903"/><trkpt lat="23.30208" lon="53.52895"/><trkpt lat="23.30253" lon="53.52859"/><trkpt lat="23.3025" lon="53.52815"/><trkpt lat="23.30232" lon="53.52801"/><trkpt lat="23.30185" lon="53.52793"/><trkpt lat="23.3001" lon="53.52906"/><trkpt lat="23.30003" lon="53.52929"/><trkpt lat="23.30028" lon="53.52942"/><trkpt lat="23.3003" lon="53.52955"/><trkpt lat="23.29974" lon="53.52958"/><trkpt lat="23.29949" lon="53.52972"/><trkpt lat="23.29941" lon="53.53039"/><trkpt lat="23.29905" lon="53.53123"/><trkpt lat="23.29878" lon="53.53136"/><trkpt lat="23.29795" lon="53.53125"/><trkpt lat="23.29788" lon="53.53134"/><trkpt lat="23.29821" lon="53.53226"/><trkpt lat="23.29852" lon="53.53264"/><trkpt lat="23.29825" lon="53.53272"/><trkpt lat="23.29815" lon="53.53382"/><trkpt lat="23.29759" lon="53.53393"/><trkpt lat="23.29681" lon="53.53431"/><trkpt lat="23.29622" lon="53.53422"/><trkpt lat="23.29498" lon="53.53437"/><trkpt lat="23.29489" lon="53.53455"/><trkpt lat="23.29508" lon="53.53514"/><trkpt lat="23.29548" lon="53.53549"/><trkpt lat="23.29529" lon="53.53592"/><trkpt lat="23.29501" lon="53.53598"/><trkpt lat="23.29487" lon="53.53685"/><trkpt lat="23.29459" lon="53.53686"/><trkpt lat="23.29426" lon="53.53651"/><trkpt lat="23.29411" lon="53.53652"/><trkpt lat="23.29374" lon="53.53714"/><trkpt lat="23.29293" lon="53.53712"/><trkpt lat="23.29263" lon="53.53726"/><trkpt lat="23.29254" lon="53.53812"/><trkpt lat="23.29273" lon="53.53832"/><trkpt lat="23.29278" lon="53.5382"/><trkpt lat="23.29267" lon="53.53815"/><trkpt lat="23.29231" lon="53.5384"/><trkpt lat="23.29141" lon="53.53984"/><trkpt lat="23.29056" lon="53.53994"/><trkpt lat="23.28954" lon="53.53977"/><trkpt lat="23.28858" lon="53.54034"/><trkpt lat="23.28813" lon="53.54091"/><trkpt lat="23.28764" lon="53.54066"/><trkpt lat="23.28709" lon="53.54083"/><trkpt lat="23.28683" lon="53.54104"/><trkpt lat="23.28632" lon="53.54165"/><trkpt lat="23.28611" lon="53.54211"/><trkpt lat="23.28604" lon="53.54256"/><trkpt lat="23.28622" lon="53.54341"/><trkpt lat="23.28595" lon="53.54373"/><trkpt lat="23.2854" lon="53.54517"/><trkpt lat="23.28504" lon="53.54525"/><trkpt lat="23.28485" lon="53.54516"/><trkpt lat="23.28496" lon="53.54481"/><trkpt lat="23.2849" lon="53.54466"/><trkpt lat="23.28449" lon="53.5448"/><trkpt lat="23.2841" lon="53.54519"/><trkpt lat="23.284" lon="53.54583"/><trkpt lat="23.2836" lon="53.54603"/><trkpt lat="23.28322" lon="53.54654"/><trkpt lat="23.28294" lon="53.54728"/><trkpt lat="23.28262" lon="53.54753"/><trkpt lat="23.28271" lon="53.54778"/><trkpt lat="23.28241" lon="53.54812"/><trkpt lat="23.28201" lon="53.54848"/><trkpt lat="23.28152" lon="53.54829"/><trkpt lat="23.28137" lon="53.54843"/><trkpt lat="23.28079" lon="53.54849"/><trkpt lat="23.28048" lon="53.54873"/><trkpt lat="23.28049" lon="53.54886"/><trkpt lat="23.28096" lon="53.54889"/><trkpt lat="23.2809" lon="53.54909"/><trkpt lat="23.28111" lon="53.54968"/><trkpt lat="23.28141" lon="53.54954"/><trkpt lat="23.2815" lon="53.54961"/><trkpt lat="23.28121" lon="53.54998"/><trkpt lat="23.28147" lon="53.55018"/><trkpt lat="23.2815" lon="53.55081"/><trkpt lat="23.28164" lon="53.55106"/><trkpt lat="23.28083" lon="53.55124"/><trkpt lat="23.28019" lon="53.55172"/><trkpt lat="23.27938" lon="53.5531"/><trkpt lat="23.27926" lon="53.5536"/><trkpt lat="23.27975" lon="53.55395"/><trkpt lat="23.27987" lon="53.55451"/><trkpt lat="23.27954" lon="53.55508"/><trkpt lat="23.27876" lon="53.55573"/><trkpt lat="23.27859" lon="53.55615"/><trkpt lat="23.27866" lon="53.55652"/><trkpt lat="23.27952" lon="53.55681"/><trkpt lat="23.27949" lon="53.55705"/><trkpt lat="23.27872" lon="53.55733"/><trkpt lat="23.27817" lon="53.55794"/><trkpt lat="23.2776" lon="53.55789"/><trkpt lat="23.27723" lon="53.55845"/><trkpt lat="23.27736" lon="53.55867"/><trkpt lat="23.27784" lon="53.55883"/><trkpt lat="23.27898" lon="53.55849"/><trkpt lat="23.27955" lon="53.55862"/><trkpt lat="23.27971" lon="53.5595"/><trkpt lat="23.27941" lon="53.56035"/><trkpt lat="23.27957" lon="53.56074"/><trkpt lat="23.28013" lon="53.56138"/><trkpt lat="23.28054" lon="53.56139"/><trkpt lat="23.28205" lon="53.56088"/><trkpt lat="23.28275" lon="53.56117"/><trkpt lat="23.28351" lon="53.56214"/><trkpt lat="23.28449" lon="53.56221"/><trkpt lat="23.28522" lon="53.56241"/><trkpt lat="23.28616" lon="53.56309"/><trkpt lat="23.28736" lon="53.56316"/><trkpt lat="23.28762" lon="53.56329"/><trkpt lat="23.28771" lon="53.56352"/><trkpt lat="23.28766" lon="53.56375"/><trkpt lat="23.2869" lon="53.56474"/><trkpt lat="23.2869" lon="53.56586"/><trkpt lat="23.28627" lon="53.567"/><trkpt lat="23.28614" lon="53.56871"/><trkpt lat="23.28729" lon="53.56931"/><trkpt lat="23.28793" lon="53.56934"/><trkpt lat="23.28817" lon="53.57023"/><trkpt lat="23.28839" lon="53.57056"/><trkpt lat="23.28833" lon="53.57095"/><trkpt lat="23.28795" lon="53.57169"/><trkpt lat="23.28831" lon="53.57257"/><trkpt lat="23.28861" lon="53.57278"/><trkpt lat="23.289" lon="53.57244"/><trkpt lat="23.28931" lon="53.57235"/><trkpt lat="23.29005" lon="53.57263"/><trkpt lat="23.29033" lon="53.57299"/><trkpt lat="23.29047" lon="53.57354"/><trkpt lat="23.29026" lon="53.57503"/><trkpt lat="23.29022" lon="53.57515"/><trkpt lat="23.28955" lon="53.57536"/><trkpt lat="23.28948" lon="53.57598"/><trkpt lat="23.28955" lon="53.5765"/><trkpt lat="23.28975" lon="53.57682"/><trkpt lat="23.2908" lon="53.57692"/><trkpt lat="23.29091" lon="53.57767"/><trkpt lat="23.29081" lon="53.57686"/><trkpt lat="23.28936" lon="53.5768"/><trkpt lat="23.28907" lon="53.577"/><trkpt lat="23.28841" lon="53.57833"/><trkpt lat="23.28713" lon="53.57884"/><trkpt lat="23.28664" lon="53.57926"/><trkpt lat="23.28696" lon="53.58141"/><trkpt lat="23.28739" lon="53.58303"/><trkpt lat="23.28841" lon="53.58844"/><trkpt lat="23.28827" lon="53.59049"/><trkpt lat="23.28879" lon="53.5903"/><trkpt lat="23.28951" lon="53.59082"/><trkpt lat="23.2899" lon="53.59067"/><trkpt lat="23.28999" lon="53.59049"/><trkpt lat="23.29037" lon="53.59065"/><trkpt lat="23.29095" lon="53.59025"/><trkpt lat="23.29154" lon="53.59017"/><trkpt lat="23.29191" lon="53.59056"/><trkpt lat="23.29183" lon="53.59098"/><trkpt lat="23.29203" lon="53.59136"/><trkpt lat="23.29175" lon="53.59165"/><trkpt lat="23.29179" lon="53.59175"/><trkpt lat="23.29224" lon="53.59164"/><trkpt lat="23.29284" lon="53.59206"/><trkpt lat="23.29304" lon="53.59199"/><trkpt lat="23.29366" lon="53.59138"/><trkpt lat="23.29409" lon="53.59141"/><trkpt lat="23.29527" lon="53.59094"/><trkpt lat="23.29558" lon="53.59061"/><trkpt lat="23.29561" lon="53.59049"/><trkpt lat="23.29547" lon="53.59038"/><trkpt lat="23.29406" lon="53.59082"/><trkpt lat="23.29381" lon="53.59076"/><trkpt lat="23.29381" lon="53.59065"/><trkpt lat="23.29409" lon="53.59033"/><trkpt lat="23.29592" lon="53.58957"/><trkpt lat="23.29577" lon="53.5894"/><trkpt lat="23.29553" lon="53.58938"/><trkpt lat="23.29343" lon="53.58973"/><trkpt lat="23.29213" lon="53.58971"/><trkpt lat="23.29184" lon="53.58949"/><trkpt lat="23.2917" lon="53.58953"/><trkpt lat="23.29138" lon="53.59072"/><trkpt lat="23.29084" lon="53.59084"/><trkpt lat="23.29051" lon="53.59135"/><trkpt lat="23.28962" lon="53.59189"/><trkpt lat="23.28951" lon="53.59312"/><trkpt lat="23.28911" lon="53.59304"/><trkpt lat="23.28858" lon="53.59344"/><trkpt lat="23.28855" lon="53.59368"/><trkpt lat="23.2888" lon="53.59411"/><trkpt lat="23.28878" lon="53.59437"/><trkpt lat="23.28862" lon="53.59452"/><trkpt lat="23.28788" lon="53.59379"/><trkpt lat="23.28733" lon="53.59395"/><trkpt lat="23.28713" lon="53.59295"/><trkpt lat="23.28681" lon="53.59277"/><trkpt lat="23.28616" lon="53.59285"/><trkpt lat="23.28513" lon="53.59371"/><trkpt lat="23.28511" lon="53.59394"/><trkpt lat="23.28538" lon="53.59437"/><trkpt lat="23.28634" lon="53.59462"/><trkpt lat="23.28651" lon="53.59481"/><trkpt lat="23.28686" lon="53.59477"/><trkpt lat="23.28708" lon="53.59493"/><trkpt lat="23.2872" lon="53.59545"/><trkpt lat="23.2865" lon="53.59604"/><trkpt lat="23.28664" lon="53.59633"/><trkpt lat="23.28707" lon="53.59639"/><trkpt lat="23.28693" lon="53.59679"/><trkpt lat="23.28713" lon="53.59724"/><trkpt lat="23.28762" lon="53.59754"/><trkpt lat="23.28775" lon="53.59789"/><trkpt lat="23.28827" lon="53.59801"/><trkpt lat="23.28862" lon="53.59791"/><trkpt lat="23.28886" lon="53.59835"/><trkpt lat="23.28952" lon="53.59857"/><trkpt lat="23.2895" lon="53.59925"/><trkpt lat="23.29064" lon="53.60005"/><trkpt lat="23.29075" lon="53.60063"/><trkpt lat="23.29092" lon="53.60069"/><trkpt lat="23.29107" lon="53.60042"/><trkpt lat="23.29051" lon="53.5993"/><trkpt lat="23.29005" lon="53.59922"/><trkpt lat="23.28988" lon="53.59941"/><trkpt lat="23.29022" lon="53.59971"/><trkpt lat="23.29143" lon="53.59962"/><trkpt lat="23.29156" lon="53.59948"/><trkpt lat="23.29163" lon="53.59902"/><trkpt lat="23.29126" lon="53.59881"/><trkpt lat="23.2908" lon="53.59918"/><trkpt lat="23.28994" lon="53.59958"/><trkpt lat="23.29001" lon="53.59977"/><trkpt lat="23.29019" lon="53.59966"/><trkpt lat="23.29032" lon="53.59875"/><trkpt lat="23.29082" lon="53.59819"/><trkpt lat="23.29121" lon="53.59799"/><trkpt lat="23.29149" lon="53.59816"/><trkpt lat="23.29157" lon="53.59796"/><trkpt lat="23.29124" lon="53.59771"/><trkpt lat="23.29095" lon="53.59769"/><trkpt lat="23.2898" lon="53.59812"/><trkpt lat="23.28926" lon="53.59752"/><trkpt lat="23.28851" lon="53.59703"/><trkpt lat="23.28848" lon="53.59682"/><trkpt lat="23.2888" lon="53.59622"/><trkpt lat="23.28886" lon="53.59578"/><trkpt lat="23.28882" lon="53.59559"/><trkpt lat="23.28842" lon="53.59531"/><trkpt lat="23.2887" lon="53.59505"/><trkpt lat="23.28858" lon="53.59498"/><trkpt lat="23.28797" lon="53.5953"/><trkpt lat="23.28748" lon="53.59643"/><trkpt lat="23.28635" lon="53.59636"/><trkpt lat="23.28551" lon="53.59662"/><trkpt lat="23.28427" lon="53.59632"/><trkpt lat="23.28419" lon="53.59574"/><trkpt lat="23.28427" lon="53.59551"/><trkpt lat="23.28416" lon="53.59543"/><trkpt lat="23.2838" lon="53.5955"/><trkpt lat="23.28351" lon="53.59537"/><trkpt lat="23.28308" lon="53.59553"/><trkpt lat="23.28293" lon="53.59573"/><trkpt lat="23.28359" lon="53.59625"/><trkpt lat="23.28406" lon="53.59684"/><trkpt lat="23.28487" lon="53.59669"/><trkpt lat="23.28604" lon="53.59752"/><trkpt lat="23.2863" lon="53.59814"/><trkpt lat="23.28654" lon="53.5999"/><trkpt lat="23.28722" lon="53.6013"/><trkpt lat="23.28697" lon="53.602"/><trkpt lat="23.28711" lon="53.6027"/><trkpt lat="23.28739" lon="53.60287"/><trkpt lat="23.28769" lon="53.60338"/><trkpt lat="23.28818" lon="53.60368"/><trkpt lat="23.28858" lon="53.60438"/><trkpt lat="23.28886" lon="53.60456"/><trkpt lat="23.28999" lon="53.60471"/><trkpt lat="23.29045" lon="53.60493"/><trkpt lat="23.29177" lon="53.6047"/><trkpt lat="23.29181" lon="53.60496"/><trkpt lat="23.29109" lon="53.60583"/><trkpt lat="23.29089" lon="53.60591"/><trkpt lat="23.2908" lon="53.6055"/><trkpt lat="23.29003" lon="53.60506"/><trkpt lat="23.28978" lon="53.60514"/><trkpt lat="23.28979" lon="53.60527"/><trkpt lat="23.29002" lon="53.60528"/><trkpt lat="23.29176" lon="53.60464"/><trkpt lat="23.2917" lon="53.60487"/><trkpt lat="23.29045" lon="53.60609"/><trkpt lat="23.29051" lon="53.60632"/><trkpt lat="23.29061" lon="53.60628"/><trkpt lat="23.2908" lon="53.60581"/><trkpt lat="23.29149" lon="53.60505"/><trkpt lat="23.29166" lon="53.60503"/><trkpt lat="23.29177" lon="53.6054"/><trkpt lat="23.29171" lon="53.60556"/><trkpt lat="23.2913" lon="53.6057"/><trkpt lat="23.29105" lon="53.60598"/><trkpt lat="23.29063" lon="53.60722"/><trkpt lat="23.29069" lon="53.60758"/><trkpt lat="23.29089" lon="53.60755"/><trkpt lat="23.29142" lon="53.60699"/><trkpt lat="23.29131" lon="53.60719"/><trkpt lat="23.29144" lon="53.60717"/><trkpt lat="23.29104" lon="53.60734"/><trkpt lat="23.29157" lon="53.60712"/><trkpt lat="23.2914" lon="53.60736"/><trkpt lat="23.29147" lon="53.60719"/><trkpt lat="23.29129" lon="53.60713"/><trkpt lat="23.29127" lon="53.60731"/><trkpt lat="23.29197" lon="53.60798"/><trkpt lat="23.29259" lon="53.60792"/><trkpt lat="23.29303" lon="53.60822"/><trkpt lat="23.29348" lon="53.60833"/><trkpt lat="23.29404" lon="53.60948"/><trkpt lat="23.29423" lon="53.60953"/><trkpt lat="23.29432" lon="53.60937"/><trkpt lat="23.29402" lon="53.60901"/><trkpt lat="23.29402" lon="53.60876"/><trkpt lat="23.29359" lon="53.60833"/><trkpt lat="23.29315" lon="53.60822"/><trkpt lat="23.29259" lon="53.60784"/><trkpt lat="23.29214" lon="53.60799"/><trkpt lat="23.29192" lon="53.6079"/><trkpt lat="23.29126" lon="53.60727"/><trkpt lat="23.29094" lon="53.60712"/><trkpt lat="23.28956" lon="53.60683"/><trkpt lat="23.28928" lon="53.60616"/><trkpt lat="23.28924" lon="53.60573"/><trkpt lat="23.28939" lon="53.6054"/><trkpt lat="23.29116" lon="53.60474"/><trkpt lat="23.29105" lon="53.60446"/><trkpt lat="23.29048" lon="53.60397"/><trkpt lat="23.28998" lon="53.60286"/><trkpt lat="23.29008" lon="53.60271"/><trkpt lat="23.29047" lon="53.60292"/><trkpt lat="23.29097" lon="53.60277"/><trkpt lat="23.29084" lon="53.60232"/><trkpt lat="23.2905" lon="53.6019"/><trkpt lat="23.29035" lon="53.60192"/><trkpt lat="23.29076" lon="53.60237"/><trkpt lat="23.29038" lon="53.60202"/><trkpt lat="23.29039" lon="53.60184"/><trkpt lat="23.29073" lon="53.60157"/><trkpt lat="23.29055" lon="53.60129"/><trkpt lat="23.2906" lon="53.60119"/><trkpt lat="23.29163" lon="53.60078"/><trkpt lat="23.29214" lon="53.60045"/><trkpt lat="23.29238" lon="53.60009"/><trkpt lat="23.29254" lon="53.60015"/><trkpt lat="23.29321" lon="53.60113"/><trkpt lat="23.29472" lon="53.60391"/><trkpt lat="23.29842" lon="53.61542"/><trkpt lat="23.30302" lon="53.62451"/><trkpt lat="23.30581" lon="53.63518"/><trkpt lat="23.30561" lon="53.6362"/><trkpt lat="23.30485" lon="53.63709"/><trkpt lat="23.30452" lon="53.63771"/><trkpt lat="23.30392" lon="53.64149"/><trkpt lat="23.30466" lon="53.64971"/><trkpt lat="23.30567" lon="53.65842"/><trkpt lat="23.30632" lon="53.66265"/><trkpt lat="23.30958" lon="53.67358"/><trkpt lat="23.30942" lon="53.67909"/><trkpt lat="23.3095" lon="53.67952"/><trkpt lat="23.31095" lon="53.68384"/><trkpt lat="23.31241" lon="53.68642"/><trkpt lat="23.31317" lon="53.68916"/><trkpt lat="23.31202" lon="53.69187"/><trkpt lat="23.31206" lon="53.69225"/><trkpt lat="23.31568" lon="53.70098"/><trkpt lat="23.31816" lon="53.70798"/><trkpt lat="23.32045" lon="53.71299"/><trkpt lat="23.32101" lon="53.714"/><trkpt lat="23.32345" lon="53.71557"/><trkpt lat="23.32853" lon="53.72054"/><trkpt lat="23.33076" lon="53.72566"/><trkpt lat="23.33193" lon="53.7288"/><trkpt lat="23.33256" lon="53.73056"/><trkpt lat="23.33303" lon="53.73296"/><trkpt lat="23.33403" lon="53.73608"/><trkpt lat="23.33648" lon="53.74187"/><trkpt lat="23.33777" lon="53.74602"/><trkpt lat="23.33822" lon="53.74669"/><trkpt lat="23.34155" lon="53.74986"/><trkpt lat="23.34168" lon="53.75011"/><trkpt lat="23.34172" lon="53.75062"/><trkpt lat="23.34125" lon="53.75123"/><trkpt lat="23.34118" lon="53.75192"/><trkpt lat="23.34101" lon="53.7523"/><trkpt lat="23.34022" lon="53.75262"/><trkpt lat="23.33959" lon="53.75231"/><trkpt lat="23.33885" lon="53.75322"/><trkpt lat="23.33852" lon="53.75345"/><trkpt lat="23.33757" lon="53.75368"/><trkpt lat="23.3369" lon="53.75399"/><trkpt lat="23.33636" lon="53.75472"/><trkpt lat="23.33617" lon="53.75516"/><trkpt lat="23.3361" lon="53.75572"/><trkpt lat="23.33526" lon="53.75594"/><trkpt lat="23.33433" lon="53.75647"/><trkpt lat="23.33315" lon="53.75736"/><trkpt lat="23.33231" lon="53.75826"/><trkpt lat="23.33169" lon="53.75923"/><trkpt lat="23.33119" lon="53.7591"/><trkpt lat="23.33075" lon="53.75921"/><trkpt lat="23.33047" lon="53.75909"/><trkpt lat="23.32961" lon="53.75929"/><trkpt lat="23.3294" lon="53.75955"/><trkpt lat="23.32852" lon="53.75953"/><trkpt lat="23.32792" lon="53.75965"/><trkpt lat="23.32776" lon="53.75842"/><trkpt lat="23.32747" lon="53.75837"/><trkpt lat="23.32779" lon="53.7595"/><trkpt lat="23.3279" lon="53.76028"/><trkpt lat="23.32783" lon="53.76036"/><trkpt lat="23.328" lon="53.76058"/><trkpt lat="23.3286" lon="53.76324"/><trkpt lat="23.32982" lon="53.76617"/><trkpt lat="23.32987" lon="53.76607"/><trkpt lat="23.32969" lon="53.76579"/><trkpt lat="23.32933" lon="53.76561"/><trkpt lat="23.32942" lon="53.76508"/><trkpt lat="23.32852" lon="53.76277"/><trkpt lat="23.32797" lon="53.76033"/><trkpt lat="23.32611" lon="53.76096"/><trkpt lat="23.32564" lon="53.76065"/><trkpt lat="23.32497" lon="53.76047"/><trkpt lat="23.32462" lon="53.76079"/><trkpt lat="23.32449" lon="53.76112"/><trkpt lat="23.32438" lon="53.7611"/><trkpt lat="23.32417" lon="53.76068"/><trkpt lat="23.32429" lon="53.7604"/><trkpt lat="23.32407" lon="53.76008"/><trkpt lat="23.32402" lon="53.75978"/><trkpt lat="23.32415" lon="53.75959"/><trkpt lat="23.32448" lon="53.75948"/><trkpt lat="23.3245" lon="53.75928"/><trkpt lat="23.32425" lon="53.75889"/><trkpt lat="23.3237" lon="53.7589"/><trkpt lat="23.32319" lon="53.75927"/><trkpt lat="23.32294" lon="53.75996"/><trkpt lat="23.32314" lon="53.76064"/><trkpt lat="23.32381" lon="53.76136"/><trkpt lat="23.32426" lon="53.76042"/><trkpt lat="23.32415" lon="53.75993"/></trkseg></trk></gpx>
