<?xml version="1.0" encoding="UTF-8"?>
<gpx version="1.1" creator="Nomad Outdoors" xmlns="http://www.topografix.com/GPX/1/1"><metadata><name>Fossil Rock and Maleiha, May 2020</name><link href="https://www.nomadoutdoors.org/routes/2020-05-29-fossil-rock-and-maleiha"/></metadata><trk><name>Fossil Rock and Maleiha, May 2020</name><trkseg><trkpt lat="25.1544" lon="55.74711"/><trkpt lat="25.15404" lon="55.74958"/><trkpt lat="25.15404" lon="55.75032"/><trkpt lat="25.15376" lon="55.75161"/><trkpt lat="25.15404" lon="55.75214"/><trkpt lat="25.15403" lon="55.75317"/><trkpt lat="25.15431" lon="55.75357"/><trkpt lat="25.15452" lon="55.75434"/><trkpt lat="25.15421" lon="55.75554"/><trkpt lat="25.15422" lon="55.75618"/><trkpt lat="25.15405" lon="55.75643"/><trkpt lat="25.15415" lon="55.7566"/><trkpt lat="25.15382" lon="55.757"/><trkpt lat="25.15374" lon="55.75809"/><trkpt lat="25.15335" lon="55.7595"/><trkpt lat="25.15335" lon="55.76049"/><trkpt lat="25.15311" lon="55.76064"/><trkpt lat="25.15333" lon="55.76129"/><trkpt lat="25.15368" lon="55.76182"/><trkpt lat="25.1537" lon="55.76297"/><trkpt lat="25.15394" lon="55.76364"/><trkpt lat="25.15392" lon="55.76405"/><trkpt lat="25.15336" lon="55.76513"/><trkpt lat="25.15351" lon="55.76632"/><trkpt lat="25.15342" lon="55.76771"/><trkpt lat="25.15372" lon="55.76859"/><trkpt lat="25.15376" lon="55.7697"/><trkpt lat="25.15391" lon="55.77014"/><trkpt lat="25.15374" lon="55.77049"/><trkpt lat="25.15402" lon="55.77141"/><trkpt lat="25.15369" lon="55.77185"/><trkpt lat="25.15384" lon="55.77244"/><trkpt lat="25.15355" lon="55.77317"/><trkpt lat="25.15371" lon="55.77412"/><trkpt lat="25.15487" lon="55.77406"/><trkpt lat="25.15519" lon="55.77374"/><trkpt lat="25.15563" lon="55.77363"/><trkpt lat="25.15579" lon="55.77342"/><trkpt lat="25.15591" lon="55.77367"/><trkpt lat="25.15582" lon="55.77441"/><trkpt lat="25.15621" lon="55.77467"/><trkpt lat="25.15631" lon="55.77515"/><trkpt lat="25.15627" lon="55.77559"/><trkpt lat="25.15595" lon="55.77581"/><trkpt lat="25.1556" lon="55.77588"/><trkpt lat="25.15586" lon="55.77654"/><trkpt lat="25.15577" lon="55.7774"/><trkpt lat="25.15603" lon="55.77851"/><trkpt lat="25.1553" lon="55.77951"/><trkpt lat="25.15492" lon="55.78054"/><trkpt lat="25.15515" lon="55.78125"/><trkpt lat="25.15512" lon="55.78159"/><trkpt lat="25.15495" lon="55.78169"/><trkpt lat="25.15478" lon="55.78204"/><trkpt lat="25.15475" lon="55.78316"/><trkpt lat="25.15478" lon="55.78334"/><trkpt lat="25.15508" lon="55.78347"/><trkpt lat="25.15525" lon="55.78389"/><trkpt lat="25.1553" lon="55.7849"/><trkpt lat="25.15528" lon="55.78518"/><trkpt lat="25.15512" lon="55.7853"/><trkpt lat="25.15516" lon="55.78607"/><trkpt lat="25.1544" lon="55.78675"/><trkpt lat="25.15403" lon="55.78788"/><trkpt lat="25.15414" lon="55.78894"/><trkpt lat="25.15427" lon="55.7891"/><trkpt lat="25.15464" lon="55.78894"/><trkpt lat="25.15472" lon="55.78865"/><trkpt lat="25.15491" lon="55.78846"/><trkpt lat="25.15527" lon="55.78876"/><trkpt lat="25.15555" lon="55.7888"/><trkpt lat="25.15595" lon="55.78845"/><trkpt lat="25.15613" lon="55.78857"/><trkpt lat="25.15607" lon="55.78895"/><trkpt lat="25.15641" lon="55.79019"/><trkpt lat="25.15671" lon="55.79005"/><trkpt lat="25.15685" lon="55.78975"/><trkpt lat="25.15673" lon="55.78927"/></trkseg></trk></gpx>
