<?xml version="1.0" encoding="UTF-8"?>
<gpx version="1.1" creator="Nomad Outdoors" xmlns="http://www.topografix.com/GPX/1/1"><metadata><name>Mahafiz - Fossil - Faya</name><link href="https://www.nomadoutdoors.org/routes/2020-03-20-fewbie-mahafiz-fossil-faya"/></metadata><trk><name>Mahafiz - Fossil - Faya</name><trkseg><trkpt lat="25.13779" lon="55.7749"/><trkpt lat="25.13768" lon="55.77569"/><trkpt lat="25.13728" lon="55.7762"/><trkpt lat="25.13717" lon="55.77687"/><trkpt lat="25.13693" lon="55.77705"/><trkpt lat="25.13671" lon="55.77681"/><trkpt lat="25.13574" lon="55.77654"/><trkpt lat="25.13557" lon="55.77619"/><trkpt lat="25.13504" lon="55.77569"/><trkpt lat="25.13465" lon="55.77483"/><trkpt lat="25.13407" lon="55.77455"/><trkpt lat="25.13432" lon="55.77387"/><trkpt lat="25.13408" lon="55.77361"/><trkpt lat="25.1341" lon="55.77328"/><trkpt lat="25.13392" lon="55.77286"/><trkpt lat="25.13361" lon="55.7729"/><trkpt lat="25.1337" lon="55.77269"/><trkpt lat="25.13384" lon="55.77271"/><trkpt lat="25.13404" lon="55.77336"/><trkpt lat="25.13396" lon="55.77285"/><trkpt lat="25.13405" lon="55.77256"/><trkpt lat="25.13393" lon="55.77231"/><trkpt lat="25.13372" lon="55.77222"/><trkpt lat="25.13362" lon="55.77255"/><trkpt lat="25.1329" lon="55.77298"/><trkpt lat="25.13261" lon="55.77298"/><trkpt lat="25.13215" lon="55.7727"/><trkpt lat="25.13183" lon="55.77298"/><trkpt lat="25.13149" lon="55.77304"/><trkpt lat="25.13158" lon="55.77372"/><trkpt lat="25.13146" lon="55.77399"/><trkpt lat="25.13161" lon="55.77442"/><trkpt lat="25.13189" lon="55.77475"/><trkpt lat="25.13177" lon="55.77519"/><trkpt lat="25.13197" lon="55.77598"/><trkpt lat="25.13182" lon="55.77613"/><trkpt lat="25.13179" lon="55.77655"/><trkpt lat="25.13196" lon="55.77671"/><trkpt lat="25.13237" lon="55.77663"/><trkpt lat="25.13249" lon="55.77732"/><trkpt lat="25.13275" lon="55.77758"/><trkpt lat="25.13327" lon="55.77762"/><trkpt lat="25.1335" lon="55.7783"/><trkpt lat="25.13354" lon="55.77928"/><trkpt lat="25.13341" lon="55.77944"/><trkpt lat="25.13349" lon="55.78082"/><trkpt lat="25.13398" lon="55.78159"/><trkpt lat="25.13373" lon="55.78253"/><trkpt lat="25.13379" lon="55.78273"/><trkpt lat="25.13409" lon="55.78306"/><trkpt lat="25.13494" lon="55.78321"/><trkpt lat="25.13544" lon="55.78381"/><trkpt lat="25.13581" lon="55.78395"/><trkpt lat="25.13592" lon="55.78434"/><trkpt lat="25.13624" lon="55.78435"/><trkpt lat="25.13641" lon="55.78448"/><trkpt lat="25.13659" lon="55.78507"/><trkpt lat="25.13692" lon="55.78508"/><trkpt lat="25.13729" lon="55.78535"/><trkpt lat="25.13745" lon="55.78639"/><trkpt lat="25.13781" lon="55.78647"/><trkpt lat="25.13775" lon="55.78597"/><trkpt lat="25.13803" lon="55.78568"/><trkpt lat="25.13804" lon="55.78611"/><trkpt lat="25.13842" lon="55.78614"/><trkpt lat="25.13838" lon="55.78588"/><trkpt lat="25.13849" lon="55.78582"/><trkpt lat="25.1387" lon="55.78624"/><trkpt lat="25.13844" lon="55.7867"/><trkpt lat="25.13922" lon="55.78695"/><trkpt lat="25.13941" lon="55.78714"/><trkpt lat="25.13946" lon="55.78745"/><trkpt lat="25.13982" lon="55.78757"/><trkpt lat="25.14015" lon="55.78726"/><trkpt lat="25.14072" lon="55.7874"/><trkpt lat="25.14091" lon="55.78786"/><trkpt lat="25.14154" lon="55.78835"/><trkpt lat="25.14126" lon="55.78913"/><trkpt lat="25.14141" lon="55.78981"/><trkpt lat="25.14161" lon="55.78973"/><trkpt lat="25.14215" lon="55.78891"/><trkpt lat="25.14256" lon="55.7888"/><trkpt lat="25.14253" lon="55.78672"/><trkpt lat="25.14276" lon="55.78628"/><trkpt lat="25.14298" lon="55.78627"/><trkpt lat="25.1431" lon="55.78656"/><trkpt lat="25.1429" lon="55.78701"/><trkpt lat="25.14337" lon="55.78734"/><trkpt lat="25.14323" lon="55.78794"/><trkpt lat="25.14342" lon="55.78811"/><trkpt lat="25.14349" lon="55.78768"/><trkpt lat="25.14339" lon="55.78781"/><trkpt lat="25.14354" lon="55.78804"/><trkpt lat="25.14367" lon="55.7891"/><trkpt lat="25.144" lon="55.78974"/><trkpt lat="25.14399" lon="55.79004"/><trkpt lat="25.14424" lon="55.79039"/><trkpt lat="25.14493" lon="55.79003"/><trkpt lat="25.14554" lon="55.78839"/><trkpt lat="25.14438" lon="55.78731"/><trkpt lat="25.14471" lon="55.78712"/><trkpt lat="25.14511" lon="55.78713"/><trkpt lat="25.14499" lon="55.78657"/><trkpt lat="25.14513" lon="55.78572"/><trkpt lat="25.14557" lon="55.78525"/><trkpt lat="25.14619" lon="55.78527"/><trkpt lat="25.14644" lon="55.78486"/><trkpt lat="25.14639" lon="55.78439"/><trkpt lat="25.14663" lon="55.78426"/><trkpt lat="25.14685" lon="55.78474"/><trkpt lat="25.14681" lon="55.78505"/><trkpt lat="25.14698" lon="55.78587"/><trkpt lat="25.14681" lon="55.78644"/><trkpt lat="25.14697" lon="55.78663"/><trkpt lat="25.14724" lon="55.78667"/><trkpt lat="25.1475" lon="55.78602"/><trkpt lat="25.14723" lon="55.78584"/><trkpt lat="25.14697" lon="55.78586"/><trkpt lat="25.14686" lon="55.78572"/><trkpt lat="25.14695" lon="55.78563"/><trkpt lat="25.14692" lon="55.78595"/><trkpt lat="25.14669" lon="55.78583"/><trkpt lat="25.14664" lon="55.78568"/><trkpt lat="25.14679" lon="55.78565"/><trkpt lat="25.14687" lon="55.78577"/><trkpt lat="25.14673" lon="55.78629"/><trkpt lat="25.14693" lon="55.78685"/><trkpt lat="25.14712" lon="55.78685"/><trkpt lat="25.14726" lon="55.78651"/><trkpt lat="25.14735" lon="55.78659"/><trkpt lat="25.14712" lon="55.78658"/><trkpt lat="25.14673" lon="55.78718"/><trkpt lat="25.1473" lon="55.78737"/><trkpt lat="25.14769" lon="55.78728"/><trkpt lat="25.14762" lon="55.7875"/><trkpt lat="25.14712" lon="55.78776"/><trkpt lat="25.1471" lon="55.78789"/><trkpt lat="25.14738" lon="55.78794"/><trkpt lat="25.14795" lon="55.78778"/><trkpt lat="25.14808" lon="55.78824"/><trkpt lat="25.14798" lon="55.78856"/><trkpt lat="25.14855" lon="55.78866"/><trkpt lat="25.14886" lon="55.78892"/><trkpt lat="25.14869" lon="55.78957"/><trkpt lat="25.14866" lon="55.79141"/><trkpt lat="25.14875" lon="55.79176"/><trkpt lat="25.14928" lon="55.79222"/><trkpt lat="25.14903" lon="55.7929"/><trkpt lat="25.14908" lon="55.79355"/><trkpt lat="25.14896" lon="55.79372"/><trkpt lat="25.14936" lon="55.79452"/><trkpt lat="25.1494" lon="55.79509"/><trkpt lat="25.14906" lon="55.79548"/><trkpt lat="25.14899" lon="55.79634"/><trkpt lat="25.14911" lon="55.7965"/><trkpt lat="25.1493" lon="55.7964"/><trkpt lat="25.14947" lon="55.79607"/><trkpt lat="25.14946" lon="55.79571"/><trkpt lat="25.14964" lon="55.79554"/><trkpt lat="25.14998" lon="55.79661"/><trkpt lat="25.15018" lon="55.79677"/><trkpt lat="25.15034" lon="55.79658"/><trkpt lat="25.15046" lon="55.79669"/><trkpt lat="25.15004" lon="55.79714"/><trkpt lat="25.15014" lon="55.7974"/><trkpt lat="25.1501" lon="55.79855"/><trkpt lat="25.15032" lon="55.79906"/><trkpt lat="25.15022" lon="55.7996"/><trkpt lat="25.14996" lon="55.79961"/><trkpt lat="25.15004" lon="55.79972"/><trkpt lat="25.15035" lon="55.7994"/><trkpt lat="25.15005" lon="55.79991"/><trkpt lat="25.14966" lon="55.79973"/><trkpt lat="25.15013" lon="55.7996"/><trkpt lat="25.15029" lon="55.79918"/><trkpt lat="25.15047" lon="55.79941"/><trkpt lat="25.15028" lon="55.79947"/><trkpt lat="25.15019" lon="55.79996"/><trkpt lat="25.14982" lon="55.80024"/><trkpt lat="25.14969" lon="55.80067"/><trkpt lat="25.14981" lon="55.80099"/><trkpt lat="25.1491" lon="55.80213"/><trkpt lat="25.14904" lon="55.80274"/><trkpt lat="25.14923" lon="55.80297"/><trkpt lat="25.14953" lon="55.80306"/><trkpt lat="25.14966" lon="55.80331"/><trkpt lat="25.1496" lon="55.80318"/><trkpt lat="25.14988" lon="55.80241"/><trkpt lat="25.15024" lon="55.80226"/><trkpt lat="25.15044" lon="55.80231"/><trkpt lat="25.15068" lon="55.80267"/><trkpt lat="25.1509" lon="55.80393"/><trkpt lat="25.15105" lon="55.80402"/><trkpt lat="25.15155" lon="55.80385"/><trkpt lat="25.15173" lon="55.80396"/><trkpt lat="25.15178" lon="55.80418"/><trkpt lat="25.15163" lon="55.80462"/><trkpt lat="25.15259" lon="55.80419"/><trkpt lat="25.15304" lon="55.8043"/><trkpt lat="25.15337" lon="55.80481"/><trkpt lat="25.15346" lon="55.80527"/><trkpt lat="25.15336" lon="55.80572"/><trkpt lat="25.15294" lon="55.80575"/><trkpt lat="25.15302" lon="55.80609"/><trkpt lat="25.15317" lon="55.80624"/><trkpt lat="25.15346" lon="55.80624"/><trkpt lat="25.15359" lon="55.80606"/><trkpt lat="25.1535" lon="55.80586"/><trkpt lat="25.15327" lon="55.80607"/><trkpt lat="25.15333" lon="55.80637"/><trkpt lat="25.15374" lon="55.8065"/><trkpt lat="25.15385" lon="55.80626"/><trkpt lat="25.154" lon="55.80632"/><trkpt lat="25.15379" lon="55.80543"/><trkpt lat="25.15351" lon="55.80555"/><trkpt lat="25.15348" lon="55.80614"/><trkpt lat="25.15404" lon="55.8066"/><trkpt lat="25.15457" lon="55.80681"/><trkpt lat="25.15481" lon="55.8074"/><trkpt lat="25.15548" lon="55.80781"/><trkpt lat="25.15588" lon="55.80848"/><trkpt lat="25.15572" lon="55.80938"/><trkpt lat="25.15577" lon="55.81054"/><trkpt lat="25.15554" lon="55.81067"/><trkpt lat="25.15525" lon="55.81138"/><trkpt lat="25.15498" lon="55.81113"/><trkpt lat="25.15434" lon="55.81115"/><trkpt lat="25.15406" lon="55.81197"/><trkpt lat="25.15351" lon="55.81272"/><trkpt lat="25.15452" lon="55.81333"/><trkpt lat="25.15445" lon="55.81457"/><trkpt lat="25.15505" lon="55.81515"/><trkpt lat="25.15534" lon="55.81608"/><trkpt lat="25.15471" lon="55.81683"/><trkpt lat="25.15466" lon="55.81718"/><trkpt lat="25.1545" lon="55.81663"/><trkpt lat="25.15436" lon="55.81664"/><trkpt lat="25.15449" lon="55.81739"/><trkpt lat="25.1538" lon="55.81728"/><trkpt lat="25.15357" lon="55.81708"/><trkpt lat="25.15335" lon="55.81658"/><trkpt lat="25.15299" lon="55.81649"/><trkpt lat="25.15267" lon="55.81666"/><trkpt lat="25.15267" lon="55.81703"/><trkpt lat="25.15244" lon="55.81713"/><trkpt lat="25.15221" lon="55.81775"/><trkpt lat="25.15199" lon="55.81782"/><trkpt lat="25.15158" lon="55.81757"/><trkpt lat="25.15105" lon="55.81672"/><trkpt lat="25.15068" lon="55.81675"/><trkpt lat="25.15054" lon="55.81718"/><trkpt lat="25.15034" lon="55.81719"/><trkpt lat="25.15001" lon="55.81681"/><trkpt lat="25.14959" lon="55.81578"/><trkpt lat="25.14915" lon="55.81544"/><trkpt lat="25.14848" lon="55.81568"/><trkpt lat="25.14807" lon="55.81648"/><trkpt lat="25.1479" lon="55.81858"/><trkpt lat="25.14704" lon="55.81973"/><trkpt lat="25.14668" lon="55.82069"/><trkpt lat="25.1462" lon="55.82271"/><trkpt lat="25.14634" lon="55.8234"/><trkpt lat="25.14626" lon="55.82403"/><trkpt lat="25.14567" lon="55.82524"/><trkpt lat="25.14554" lon="55.82583"/><trkpt lat="25.1456" lon="55.82735"/><trkpt lat="25.14541" lon="55.82806"/><trkpt lat="25.14522" lon="55.82828"/><trkpt lat="25.14464" lon="55.8297"/><trkpt lat="25.1445" lon="55.83306"/><trkpt lat="25.14396" lon="55.83507"/><trkpt lat="25.14404" lon="55.83521"/><trkpt lat="25.14441" lon="55.83524"/><trkpt lat="25.14451" lon="55.83515"/><trkpt lat="25.14433" lon="55.83507"/><trkpt lat="25.14442" lon="55.83492"/><trkpt lat="25.14434" lon="55.83481"/><trkpt lat="25.14411" lon="55.83467"/><trkpt lat="25.14387" lon="55.83374"/><trkpt lat="25.14348" lon="55.83317"/><trkpt lat="25.14316" lon="55.83212"/><trkpt lat="25.14263" lon="55.83218"/><trkpt lat="25.14181" lon="55.83308"/><trkpt lat="25.14122" lon="55.83344"/><trkpt lat="25.14095" lon="55.834"/><trkpt lat="25.14069" lon="55.83424"/><trkpt lat="25.1395" lon="55.83488"/><trkpt lat="25.13906" lon="55.83482"/><trkpt lat="25.13788" lon="55.8338"/><trkpt lat="25.13645" lon="55.83357"/><trkpt lat="25.13541" lon="55.83251"/><trkpt lat="25.13477" lon="55.83228"/><trkpt lat="25.13447" lon="55.83184"/><trkpt lat="25.13386" lon="55.8316"/><trkpt lat="25.13234" lon="55.83037"/><trkpt lat="25.13189" lon="55.82986"/><trkpt lat="25.13067" lon="55.82973"/><trkpt lat="25.13003" lon="55.82998"/><trkpt lat="25.12944" lon="55.82968"/><trkpt lat="25.12851" lon="55.82967"/><trkpt lat="25.12837" lon="55.82936"/><trkpt lat="25.12905" lon="55.82945"/><trkpt lat="25.12915" lon="55.82932"/><trkpt lat="25.12901" lon="55.82934"/><trkpt lat="25.12892" lon="55.82962"/><trkpt lat="25.12878" lon="55.82966"/><trkpt lat="25.12773" lon="55.82934"/><trkpt lat="25.12736" lon="55.82909"/><trkpt lat="25.12704" lon="55.82869"/><trkpt lat="25.12661" lon="55.82852"/><trkpt lat="25.12565" lon="55.82776"/><trkpt lat="25.12505" lon="55.82777"/><trkpt lat="25.12492" lon="55.82804"/><trkpt lat="25.1245" lon="55.82818"/><trkpt lat="25.12408" lon="55.82777"/><trkpt lat="25.12255" lon="55.82803"/><trkpt lat="25.12213" lon="55.82787"/><trkpt lat="25.12205" lon="55.82768"/><trkpt lat="25.12219" lon="55.82762"/><trkpt lat="25.12199" lon="55.82725"/><trkpt lat="25.12135" lon="55.82686"/><trkpt lat="25.12142" lon="55.82675"/><trkpt lat="25.12199" lon="55.82684"/><trkpt lat="25.12185" lon="55.82695"/><trkpt lat="25.12175" lon="55.82688"/><trkpt lat="25.12169" lon="55.82648"/><trkpt lat="25.12143" lon="55.82612"/><trkpt lat="25.12111" lon="55.82626"/><trkpt lat="25.12118" lon="55.82677"/><trkpt lat="25.12096" lon="55.82686"/><trkpt lat="25.1212" lon="55.82677"/><trkpt lat="25.12156" lon="55.82733"/><trkpt lat="25.12139" lon="55.82755"/><trkpt lat="25.12124" lon="55.82716"/><trkpt lat="25.12112" lon="55.82719"/><trkpt lat="25.12131" lon="55.82756"/><trkpt lat="25.12127" lon="55.82784"/><trkpt lat="25.12095" lon="55.82779"/><trkpt lat="25.12055" lon="55.82805"/><trkpt lat="25.12013" lon="55.82781"/><trkpt lat="25.1198" lon="55.82782"/><trkpt lat="25.11932" lon="55.82733"/><trkpt lat="25.11873" lon="55.82717"/><trkpt lat="25.11881" lon="55.8267"/><trkpt lat="25.11907" lon="55.8265"/><trkpt lat="25.11875" lon="55.82617"/><trkpt lat="25.11854" lon="55.82621"/><trkpt lat="25.11802" lon="55.82589"/><trkpt lat="25.11793" lon="55.82555"/><trkpt lat="25.11769" lon="55.82536"/><trkpt lat="25.11745" lon="55.8248"/><trkpt lat="25.11666" lon="55.82368"/><trkpt lat="25.11638" lon="55.82374"/><trkpt lat="25.11594" lon="55.8233"/><trkpt lat="25.11531" lon="55.82291"/><trkpt lat="25.11508" lon="55.82287"/><trkpt lat="25.11503" lon="55.82296"/><trkpt lat="25.1151" lon="55.82362"/><trkpt lat="25.11547" lon="55.824"/><trkpt lat="25.11537" lon="55.82445"/><trkpt lat="25.11543" lon="55.82469"/><trkpt lat="25.11514" lon="55.82494"/><trkpt lat="25.11486" lon="55.82497"/><trkpt lat="25.1143" lon="55.82476"/><trkpt lat="25.11383" lon="55.82426"/><trkpt lat="25.11372" lon="55.82388"/><trkpt lat="25.11337" lon="55.8237"/><trkpt lat="25.11303" lon="55.8238"/><trkpt lat="25.11246" lon="55.82349"/><trkpt lat="25.11118" lon="55.82394"/><trkpt lat="25.11026" lon="55.82367"/><trkpt lat="25.10977" lon="55.82377"/><trkpt lat="25.10938" lon="55.82355"/><trkpt lat="25.10888" lon="55.82352"/><trkpt lat="25.10843" lon="55.82318"/><trkpt lat="25.10821" lon="55.82327"/><trkpt lat="25.1071" lon="55.82282"/><trkpt lat="25.10555" lon="55.82175"/><trkpt lat="25.10497" lon="55.8207"/><trkpt lat="25.1047" lon="55.82091"/><trkpt lat="25.1049" lon="55.82146"/><trkpt lat="25.10466" lon="55.82166"/><trkpt lat="25.1039" lon="55.82143"/><trkpt lat="25.10314" lon="55.82149"/><trkpt lat="25.10217" lon="55.82135"/><trkpt lat="25.0994" lon="55.81952"/><trkpt lat="25.09758" lon="55.81769"/><trkpt lat="25.09706" lon="55.81709"/><trkpt lat="25.09693" lon="55.81657"/><trkpt lat="25.09617" lon="55.81556"/><trkpt lat="25.09582" lon="55.81549"/><trkpt lat="25.09568" lon="55.81525"/><trkpt lat="25.09545" lon="55.81524"/><trkpt lat="25.09547" lon="55.81507"/><trkpt lat="25.09584" lon="55.81491"/><trkpt lat="25.09581" lon="55.81476"/><trkpt lat="25.09571" lon="55.8152"/><trkpt lat="25.09604" lon="55.81541"/><trkpt lat="25.09614" lon="55.81526"/><trkpt lat="25.09612" lon="55.81493"/><trkpt lat="25.09587" lon="55.81458"/><trkpt lat="25.09545" lon="55.81436"/><trkpt lat="25.09515" lon="55.81446"/><trkpt lat="25.09504" lon="55.81492"/><trkpt lat="25.09528" lon="55.81509"/><trkpt lat="25.09608" lon="55.81497"/><trkpt lat="25.09619" lon="55.81512"/><trkpt lat="25.09618" lon="55.81544"/><trkpt lat="25.09654" lon="55.81568"/><trkpt lat="25.09648" lon="55.81594"/><trkpt lat="25.09605" lon="55.81593"/><trkpt lat="25.09598" lon="55.8158"/><trkpt lat="25.09597" lon="55.8159"/><trkpt lat="25.09607" lon="55.81568"/><trkpt lat="25.09601" lon="55.81553"/><trkpt lat="25.09574" lon="55.81548"/><trkpt lat="25.09566" lon="55.81524"/><trkpt lat="25.09548" lon="55.81532"/><trkpt lat="25.0954" lon="55.81521"/><trkpt lat="25.09577" lon="55.81485"/><trkpt lat="25.09561" lon="55.81513"/><trkpt lat="25.09582" lon="55.81475"/><trkpt lat="25.09565" lon="55.81491"/><trkpt lat="25.09571" lon="55.81483"/><trkpt lat="25.09606" lon="55.81488"/><trkpt lat="25.09614" lon="55.81502"/><trkpt lat="25.0964" lon="55.81506"/><trkpt lat="25.09662" lon="55.81563"/><trkpt lat="25.09711" lon="55.81553"/><trkpt lat="25.0977" lon="55.81607"/><trkpt lat="25.09783" lon="55.81642"/><trkpt lat="25.09756" lon="55.81689"/><trkpt lat="25.09724" lon="55.81661"/><trkpt lat="25.09696" lon="55.81605"/><trkpt lat="25.09658" lon="55.81585"/><trkpt lat="25.09642" lon="55.81598"/><trkpt lat="25.09658" lon="55.81678"/><trkpt lat="25.09706" lon="55.81675"/><trkpt lat="25.09756" lon="55.81704"/><trkpt lat="25.09781" lon="55.81771"/><trkpt lat="25.0977" lon="55.81795"/><trkpt lat="25.09734" lon="55.81788"/><trkpt lat="25.09681" lon="55.81712"/><trkpt lat="25.09647" lon="55.81713"/><trkpt lat="25.09534" lon="55.81629"/><trkpt lat="25.09488" lon="55.81627"/><trkpt lat="25.09402" lon="55.81593"/><trkpt lat="25.09221" lon="55.81556"/><trkpt lat="25.09152" lon="55.81416"/><trkpt lat="25.09194" lon="55.81417"/><trkpt lat="25.09225" lon="55.81403"/><trkpt lat="25.09289" lon="55.81348"/><trkpt lat="25.09307" lon="55.81317"/><trkpt lat="25.09293" lon="55.81285"/><trkpt lat="25.09267" lon="55.81285"/><trkpt lat="25.0924" lon="55.81316"/><trkpt lat="25.09171" lon="55.81358"/><trkpt lat="25.09157" lon="55.81387"/><trkpt lat="25.0917" lon="55.81396"/><trkpt lat="25.09182" lon="55.81375"/><trkpt lat="25.09154" lon="55.8131"/><trkpt lat="25.09125" lon="55.81314"/><trkpt lat="25.09128" lon="55.81341"/><trkpt lat="25.09141" lon="55.81332"/><trkpt lat="25.0914" lon="55.81309"/><trkpt lat="25.09082" lon="55.81196"/><trkpt lat="25.09119" lon="55.81018"/><trkpt lat="25.09153" lon="55.81031"/><trkpt lat="25.09157" lon="55.80984"/><trkpt lat="25.09191" lon="55.80969"/><trkpt lat="25.09213" lon="55.80978"/><trkpt lat="25.09231" lon="55.8101"/><trkpt lat="25.09261" lon="55.81004"/><trkpt lat="25.09276" lon="55.80949"/><trkpt lat="25.09293" lon="55.80935"/><trkpt lat="25.09356" lon="55.80962"/><trkpt lat="25.09378" lon="55.80999"/><trkpt lat="25.0941" lon="55.80989"/><trkpt lat="25.09417" lon="55.80941"/><trkpt lat="25.09374" lon="55.80928"/><trkpt lat="25.09371" lon="55.80879"/><trkpt lat="25.09387" lon="55.80875"/><trkpt lat="25.09401" lon="55.80888"/><trkpt lat="25.09411" lon="55.80935"/><trkpt lat="25.09435" lon="55.80898"/><trkpt lat="25.09426" lon="55.80852"/><trkpt lat="25.0944" lon="55.80842"/><trkpt lat="25.0946" lon="55.80845"/><trkpt lat="25.09523" lon="55.80931"/><trkpt lat="25.09552" lon="55.80937"/><trkpt lat="25.09553" lon="55.80887"/><trkpt lat="25.09585" lon="55.80873"/><trkpt lat="25.09571" lon="55.80853"/><trkpt lat="25.09532" lon="55.80841"/><trkpt lat="25.09522" lon="55.80821"/><trkpt lat="25.09551" lon="55.80798"/><trkpt lat="25.09556" lon="55.8073"/><trkpt lat="25.09584" lon="55.80744"/><trkpt lat="25.09592" lon="55.80815"/><trkpt lat="25.09584" lon="55.80835"/><trkpt lat="25.09628" lon="55.80895"/><trkpt lat="25.09647" lon="55.80898"/><trkpt lat="25.09657" lon="55.80859"/><trkpt lat="25.09681" lon="55.8086"/><trkpt lat="25.09688" lon="55.80915"/><trkpt lat="25.09675" lon="55.8096"/><trkpt lat="25.09745" lon="55.80958"/><trkpt lat="25.09816" lon="55.80933"/><trkpt lat="25.09805" lon="55.8089"/><trkpt lat="25.09751" lon="55.80861"/><trkpt lat="25.09733" lon="55.80835"/><trkpt lat="25.09711" lon="55.80776"/><trkpt lat="25.09687" lon="55.80755"/><trkpt lat="25.09679" lon="55.8072"/><trkpt lat="25.09658" lon="55.80695"/><trkpt lat="25.09539" lon="55.80625"/><trkpt lat="25.09506" lon="55.80576"/><trkpt lat="25.09481" lon="55.80617"/><trkpt lat="25.09485" lon="55.80631"/><trkpt lat="25.095" lon="55.80626"/><trkpt lat="25.09501" lon="55.80606"/><trkpt lat="25.09481" lon="55.80593"/><trkpt lat="25.09466" lon="55.80604"/><trkpt lat="25.09458" lon="55.80595"/><trkpt lat="25.09508" lon="55.80563"/><trkpt lat="25.09511" lon="55.8058"/><trkpt lat="25.09457" lon="55.80599"/><trkpt lat="25.0939" lon="55.80536"/><trkpt lat="25.09361" lon="55.80477"/><trkpt lat="25.09376" lon="55.80464"/><trkpt lat="25.09481" lon="55.80526"/><trkpt lat="25.095" lon="55.80507"/><trkpt lat="25.09475" lon="55.8047"/><trkpt lat="25.09474" lon="55.80443"/><trkpt lat="25.09421" lon="55.80394"/><trkpt lat="25.09419" lon="55.80349"/><trkpt lat="25.09371" lon="55.80268"/></trkseg></trk></gpx>
