<?xml version="1.0" encoding="UTF-8"?>
<gpx version="1.1" creator="Nomad Outdoors" xmlns="http://www.topografix.com/GPX/1/1"><metadata><name>Liwa Yellow Truck IM</name><link href="https://www.nomadoutdoors.org/routes/2020-02-28-liwa-yellow-truck-im"/></metadata><trk><name>Liwa Yellow Truck IM</name><trkseg><trkpt lat="23.58006" lon="53.71797"/><trkpt lat="23.57806" lon="53.70633"/><trkpt lat="23.57783" lon="53.70416"/><trkpt lat="23.57711" lon="53.69969"/><trkpt lat="23.57734" lon="53.69856"/><trkpt lat="23.57883" lon="53.69864"/><trkpt lat="23.57928" lon="53.69843"/><trkpt lat="23.57932" lon="53.69828"/><trkpt lat="23.57897" lon="53.69823"/><trkpt lat="23.5781" lon="53.69854"/><trkpt lat="23.57617" lon="53.69875"/><trkpt lat="23.57561" lon="53.69868"/><trkpt lat="23.57436" lon="53.69844"/><trkpt lat="23.57219" lon="53.69728"/><trkpt lat="23.57202" lon="53.69705"/><trkpt lat="23.57216" lon="53.69651"/><trkpt lat="23.57257" lon="53.69655"/><trkpt lat="23.57267" lon="53.69633"/><trkpt lat="23.57178" lon="53.69479"/><trkpt lat="23.57118" lon="53.69284"/><trkpt lat="23.57011" lon="53.69205"/><trkpt lat="23.56505" lon="53.68975"/><trkpt lat="23.55915" lon="53.69052"/><trkpt lat="23.55849" lon="53.69106"/><trkpt lat="23.5581" lon="53.69116"/><trkpt lat="23.52976" lon="53.69531"/><trkpt lat="23.50913" lon="53.69819"/><trkpt lat="23.50883" lon="53.69795"/><trkpt lat="23.50772" lon="53.69634"/><trkpt lat="23.5036" lon="53.68582"/><trkpt lat="23.50339" lon="53.68555"/><trkpt lat="23.50289" lon="53.68538"/><trkpt lat="23.49689" lon="53.68817"/><trkpt lat="23.49665" lon="53.68821"/><trkpt lat="23.49611" lon="53.68801"/><trkpt lat="23.49517" lon="53.68828"/><trkpt lat="23.49013" lon="53.69087"/><trkpt lat="23.48365" lon="53.69364"/><trkpt lat="23.48014" lon="53.69528"/><trkpt lat="23.4798" lon="53.69531"/><trkpt lat="23.47939" lon="53.69488"/><trkpt lat="23.47964" lon="53.69421"/><trkpt lat="23.47896" lon="53.69399"/><trkpt lat="23.47815" lon="53.69417"/><trkpt lat="23.47665" lon="53.69499"/><trkpt lat="23.47606" lon="53.6949"/><trkpt lat="23.47561" lon="53.69502"/><trkpt lat="23.47273" lon="53.69501"/><trkpt lat="23.47233" lon="53.69487"/><trkpt lat="23.47172" lon="53.69406"/><trkpt lat="23.4714" lon="53.69382"/><trkpt lat="23.46992" lon="53.69322"/><trkpt lat="23.46784" lon="53.69269"/><trkpt lat="23.46547" lon="53.69125"/><trkpt lat="23.46465" lon="53.69042"/><trkpt lat="23.4634" lon="53.68954"/><trkpt lat="23.46287" lon="53.68931"/><trkpt lat="23.46099" lon="53.68899"/><trkpt lat="23.45907" lon="53.68675"/><trkpt lat="23.45939" lon="53.68572"/><trkpt lat="23.45931" lon="53.68556"/><trkpt lat="23.45695" lon="53.68602"/><trkpt lat="23.45406" lon="53.6852"/><trkpt lat="23.45317" lon="53.68432"/><trkpt lat="23.45272" lon="53.68348"/><trkpt lat="23.45296" lon="53.68277"/><trkpt lat="23.45343" lon="53.68268"/><trkpt lat="23.45346" lon="53.6824"/><trkpt lat="23.45325" lon="53.68213"/><trkpt lat="23.45217" lon="53.68159"/><trkpt lat="23.4519" lon="53.68129"/><trkpt lat="23.45195" lon="53.681"/><trkpt lat="23.4529" lon="53.68078"/><trkpt lat="23.45287" lon="53.68041"/><trkpt lat="23.45271" lon="53.68035"/><trkpt lat="23.45229" lon="53.68088"/><trkpt lat="23.45194" lon="53.68084"/><trkpt lat="23.45182" lon="53.68097"/><trkpt lat="23.45205" lon="53.68114"/><trkpt lat="23.45221" lon="53.68108"/><trkpt lat="23.45205" lon="53.68068"/><trkpt lat="23.45237" lon="53.68007"/><trkpt lat="23.45248" lon="53.67891"/><trkpt lat="23.45259" lon="53.67866"/><trkpt lat="23.4531" lon="53.67824"/><trkpt lat="23.45269" lon="53.67764"/><trkpt lat="23.45212" lon="53.67712"/><trkpt lat="23.45189" lon="53.67706"/><trkpt lat="23.45108" lon="53.67743"/><trkpt lat="23.45078" lon="53.67741"/><trkpt lat="23.45078" lon="53.67661"/><trkpt lat="23.45027" lon="53.67524"/><trkpt lat="23.44999" lon="53.67479"/><trkpt lat="23.44977" lon="53.674"/><trkpt lat="23.44947" lon="53.67356"/><trkpt lat="23.44822" lon="53.67309"/><trkpt lat="23.44579" lon="53.67359"/><trkpt lat="23.44502" lon="53.67356"/><trkpt lat="23.44491" lon="53.67294"/><trkpt lat="23.4445" lon="53.6727"/><trkpt lat="23.44419" lon="53.67226"/><trkpt lat="23.44313" lon="53.67237"/><trkpt lat="23.44218" lon="53.67303"/><trkpt lat="23.44177" lon="53.67365"/><trkpt lat="23.44176" lon="53.67388"/><trkpt lat="23.44191" lon="53.67409"/><trkpt lat="23.44252" lon="53.67431"/><trkpt lat="23.44366" lon="53.67429"/><trkpt lat="23.44426" lon="53.674"/><trkpt lat="23.44479" lon="53.6735"/><trkpt lat="23.44478" lon="53.67335"/><trkpt lat="23.44382" lon="53.67321"/><trkpt lat="23.44317" lon="53.67334"/><trkpt lat="23.44291" lon="53.67312"/><trkpt lat="23.44272" lon="53.67284"/><trkpt lat="23.44273" lon="53.67256"/><trkpt lat="23.44324" lon="53.67221"/><trkpt lat="23.44321" lon="53.67211"/><trkpt lat="23.44242" lon="53.67177"/><trkpt lat="23.44147" lon="53.67098"/><trkpt lat="23.44118" lon="53.6705"/><trkpt lat="23.4412" lon="53.67016"/><trkpt lat="23.44059" lon="53.66945"/><trkpt lat="23.44108" lon="53.66825"/><trkpt lat="23.44116" lon="53.66732"/><trkpt lat="23.44112" lon="53.66679"/><trkpt lat="23.44055" lon="53.66486"/><trkpt lat="23.44098" lon="53.6642"/><trkpt lat="23.44206" lon="53.66402"/><trkpt lat="23.4421" lon="53.66392"/><trkpt lat="23.44099" lon="53.66323"/><trkpt lat="23.44112" lon="53.66276"/><trkpt lat="23.44134" lon="53.66257"/><trkpt lat="23.44161" lon="53.66255"/><trkpt lat="23.44186" lon="53.66282"/><trkpt lat="23.44215" lon="53.66355"/><trkpt lat="23.44232" lon="53.66366"/><trkpt lat="23.44269" lon="53.66336"/><trkpt lat="23.44273" lon="53.66309"/><trkpt lat="23.44251" lon="53.66249"/><trkpt lat="23.44266" lon="53.66175"/><trkpt lat="23.44245" lon="53.66041"/><trkpt lat="23.44259" lon="53.66001"/><trkpt lat="23.44442" lon="53.65877"/><trkpt lat="23.44477" lon="53.65886"/><trkpt lat="23.44478" lon="53.65897"/><trkpt lat="23.44433" lon="53.65972"/><trkpt lat="23.44447" lon="53.65999"/><trkpt lat="23.44478" lon="53.65991"/><trkpt lat="23.44515" lon="53.6594"/><trkpt lat="23.44538" lon="53.65928"/><trkpt lat="23.44567" lon="53.65946"/><trkpt lat="23.44688" lon="53.65972"/><trkpt lat="23.44761" lon="53.65962"/><trkpt lat="23.44802" lon="53.65924"/><trkpt lat="23.44816" lon="53.6593"/><trkpt lat="23.44813" lon="53.65979"/><trkpt lat="23.44786" lon="53.66012"/><trkpt lat="23.44764" lon="53.6602"/><trkpt lat="23.44745" lon="53.66092"/><trkpt lat="23.44764" lon="53.66101"/><trkpt lat="23.44837" lon="53.66078"/><trkpt lat="23.44913" lon="53.66122"/><trkpt lat="23.45066" lon="53.66147"/><trkpt lat="23.45154" lon="53.66078"/><trkpt lat="23.45301" lon="53.65928"/><trkpt lat="23.45322" lon="53.65893"/><trkpt lat="23.45336" lon="53.65831"/><trkpt lat="23.4539" lon="53.65755"/><trkpt lat="23.45406" lon="53.65684"/><trkpt lat="23.45452" lon="53.65604"/><trkpt lat="23.45549" lon="53.65497"/><trkpt lat="23.45614" lon="53.65376"/><trkpt lat="23.45735" lon="53.65278"/><trkpt lat="23.45736" lon="53.65268"/><trkpt lat="23.45697" lon="53.65268"/><trkpt lat="23.45635" lon="53.65304"/><trkpt lat="23.45616" lon="53.65335"/><trkpt lat="23.45631" lon="53.65368"/><trkpt lat="23.4565" lon="53.65347"/><trkpt lat="23.45642" lon="53.65248"/><trkpt lat="23.45657" lon="53.6521"/><trkpt lat="23.45762" lon="53.65176"/><trkpt lat="23.45845" lon="53.65179"/><trkpt lat="23.4589" lon="53.65153"/><trkpt lat="23.45923" lon="53.65107"/><trkpt lat="23.45986" lon="53.65087"/><trkpt lat="23.45996" lon="53.65099"/><trkpt lat="23.45991" lon="53.65118"/><trkpt lat="23.45949" lon="53.65152"/><trkpt lat="23.45936" lon="53.65183"/><trkpt lat="23.45943" lon="53.65192"/><trkpt lat="23.46022" lon="53.65191"/><trkpt lat="23.46123" lon="53.65089"/><trkpt lat="23.46169" lon="53.64995"/><trkpt lat="23.46282" lon="53.64853"/><trkpt lat="23.4631" lon="53.64743"/><trkpt lat="23.46374" lon="53.64689"/><trkpt lat="23.46365" lon="53.64664"/><trkpt lat="23.46304" lon="53.6469"/><trkpt lat="23.46276" lon="53.64686"/><trkpt lat="23.46277" lon="53.64673"/><trkpt lat="23.46375" lon="53.64568"/><trkpt lat="23.46397" lon="53.64523"/><trkpt lat="23.46404" lon="53.64386"/><trkpt lat="23.46385" lon="53.64246"/><trkpt lat="23.46406" lon="53.63965"/><trkpt lat="23.46386" lon="53.63885"/><trkpt lat="23.46458" lon="53.63828"/><trkpt lat="23.46489" lon="53.63748"/><trkpt lat="23.46541" lon="53.63658"/><trkpt lat="23.46612" lon="53.63626"/><trkpt lat="23.46702" lon="53.63543"/><trkpt lat="23.46803" lon="53.63473"/><trkpt lat="23.46846" lon="53.63427"/><trkpt lat="23.46873" lon="53.63372"/><trkpt lat="23.46892" lon="53.63223"/><trkpt lat="23.46869" lon="53.63071"/><trkpt lat="23.46873" lon="53.62904"/><trkpt lat="23.4685" lon="53.62806"/><trkpt lat="23.46838" lon="53.6268"/><trkpt lat="23.46843" lon="53.6262"/><trkpt lat="23.46804" lon="53.62556"/><trkpt lat="23.4681" lon="53.62541"/><trkpt lat="23.46983" lon="53.62418"/><trkpt lat="23.46993" lon="53.62393"/><trkpt lat="23.46963" lon="53.62299"/><trkpt lat="23.46971" lon="53.6228"/><trkpt lat="23.47011" lon="53.62258"/><trkpt lat="23.47021" lon="53.62242"/><trkpt lat="23.47021" lon="53.62197"/><trkpt lat="23.47061" lon="53.62165"/><trkpt lat="23.47086" lon="53.62121"/><trkpt lat="23.47088" lon="53.62059"/><trkpt lat="23.47071" lon="53.61997"/><trkpt lat="23.46998" lon="53.61939"/><trkpt lat="23.46963" lon="53.61893"/><trkpt lat="23.4698" lon="53.61848"/><trkpt lat="23.46961" lon="53.61804"/><trkpt lat="23.46969" lon="53.61786"/><trkpt lat="23.4699" lon="53.61787"/><trkpt lat="23.47002" lon="53.61773"/><trkpt lat="23.4697" lon="53.61738"/><trkpt lat="23.46976" lon="53.61729"/><trkpt lat="23.47009" lon="53.61735"/><trkpt lat="23.47027" lon="53.61715"/><trkpt lat="23.47017" lon="53.61638"/><trkpt lat="23.46991" lon="53.61595"/><trkpt lat="23.4694" lon="53.61574"/><trkpt lat="23.46844" lon="53.61502"/><trkpt lat="23.46612" lon="53.61493"/><trkpt lat="23.46568" lon="53.61469"/><trkpt lat="23.46555" lon="53.61474"/><trkpt lat="23.46556" lon="53.61499"/><trkpt lat="23.46467" lon="53.61527"/><trkpt lat="23.4642" lon="53.61557"/><trkpt lat="23.4641" lon="53.6158"/><trkpt lat="23.46331" lon="53.61639"/><trkpt lat="23.46316" lon="53.61689"/><trkpt lat="23.46291" lon="53.61727"/><trkpt lat="23.46266" lon="53.61732"/><trkpt lat="23.46245" lon="53.61692"/><trkpt lat="23.46266" lon="53.6165"/><trkpt lat="23.46449" lon="53.61564"/><trkpt lat="23.46472" lon="53.61522"/><trkpt lat="23.46468" lon="53.61443"/><trkpt lat="23.46439" lon="53.61357"/><trkpt lat="23.4637" lon="53.61321"/><trkpt lat="23.46347" lon="53.6129"/><trkpt lat="23.46321" lon="53.61296"/><trkpt lat="23.46326" lon="53.61339"/><trkpt lat="23.46317" lon="53.61346"/><trkpt lat="23.46207" lon="53.61347"/><trkpt lat="23.4621" lon="53.61412"/><trkpt lat="23.46231" lon="53.61456"/><trkpt lat="23.46275" lon="53.6149"/><trkpt lat="23.46344" lon="53.61509"/><trkpt lat="23.46384" lon="53.61479"/><trkpt lat="23.46406" lon="53.61439"/><trkpt lat="23.46436" lon="53.61414"/><trkpt lat="23.46456" lon="53.61375"/><trkpt lat="23.46452" lon="53.61349"/><trkpt lat="23.46418" lon="53.61404"/><trkpt lat="23.46384" lon="53.61434"/><trkpt lat="23.46359" lon="53.61532"/><trkpt lat="23.46313" lon="53.6163"/><trkpt lat="23.46175" lon="53.6167"/><trkpt lat="23.46064" lon="53.61669"/><trkpt lat="23.46026" lon="53.61656"/><trkpt lat="23.46013" lon="53.61633"/><trkpt lat="23.45943" lon="53.61641"/><trkpt lat="23.45852" lon="53.61614"/><trkpt lat="23.45791" lon="53.61642"/><trkpt lat="23.45774" lon="53.61811"/><trkpt lat="23.45741" lon="53.61839"/><trkpt lat="23.457" lon="53.61843"/><trkpt lat="23.45625" lon="53.61827"/><trkpt lat="23.45568" lon="53.61789"/><trkpt lat="23.45566" lon="53.61752"/><trkpt lat="23.4558" lon="53.61692"/><trkpt lat="23.45666" lon="53.61564"/><trkpt lat="23.45691" lon="53.61478"/><trkpt lat="23.45686" lon="53.61464"/><trkpt lat="23.45656" lon="53.61471"/><trkpt lat="23.45607" lon="53.61507"/><trkpt lat="23.4559" lon="53.61554"/><trkpt lat="23.45568" lon="53.61574"/><trkpt lat="23.45541" lon="53.61574"/><trkpt lat="23.45476" lon="53.61619"/><trkpt lat="23.45488" lon="53.61636"/><trkpt lat="23.4549" lon="53.61605"/><trkpt lat="23.45466" lon="53.61595"/><trkpt lat="23.45396" lon="53.61629"/><trkpt lat="23.45381" lon="53.61607"/><trkpt lat="23.45383" lon="53.61582"/><trkpt lat="23.45337" lon="53.61514"/><trkpt lat="23.4532" lon="53.61463"/><trkpt lat="23.4525" lon="53.6142"/><trkpt lat="23.45132" lon="53.61308"/><trkpt lat="23.4497" lon="53.61114"/><trkpt lat="23.44937" lon="53.61092"/><trkpt lat="23.44876" lon="53.61082"/><trkpt lat="23.44862" lon="53.61067"/><trkpt lat="23.44881" lon="53.60991"/><trkpt lat="23.4493" lon="53.60964"/><trkpt lat="23.44935" lon="53.60925"/><trkpt lat="23.44913" lon="53.60921"/><trkpt lat="23.44906" lon="53.60931"/><trkpt lat="23.44927" lon="53.60963"/><trkpt lat="23.4491" lon="53.60997"/><trkpt lat="23.44919" lon="53.61039"/><trkpt lat="23.44905" lon="53.61075"/><trkpt lat="23.44824" lon="53.61056"/><trkpt lat="23.44714" lon="53.6107"/><trkpt lat="23.44677" lon="53.60979"/><trkpt lat="23.44588" lon="53.61013"/><trkpt lat="23.44536" lon="53.6099"/><trkpt lat="23.44525" lon="53.60962"/><trkpt lat="23.44527" lon="53.60893"/><trkpt lat="23.44553" lon="53.6079"/><trkpt lat="23.44535" lon="53.60745"/><trkpt lat="23.44513" lon="53.6073"/><trkpt lat="23.44387" lon="53.60761"/><trkpt lat="23.4433" lon="53.60835"/><trkpt lat="23.44324" lon="53.60877"/><trkpt lat="23.44351" lon="53.60925"/><trkpt lat="23.44336" lon="53.61124"/><trkpt lat="23.44291" lon="53.61239"/><trkpt lat="23.44283" lon="53.61348"/><trkpt lat="23.4421" lon="53.61384"/><trkpt lat="23.44148" lon="53.61503"/><trkpt lat="23.44121" lon="53.61516"/><trkpt lat="23.44078" lon="53.61468"/><trkpt lat="23.44035" lon="53.61463"/><trkpt lat="23.43977" lon="53.61511"/><trkpt lat="23.43951" lon="53.61556"/><trkpt lat="23.43927" lon="53.61633"/><trkpt lat="23.43919" lon="53.61769"/><trkpt lat="23.43941" lon="53.61841"/><trkpt lat="23.4398" lon="53.6187"/><trkpt lat="23.44032" lon="53.61873"/><trkpt lat="23.44237" lon="53.61795"/><trkpt lat="23.44361" lon="53.61766"/><trkpt lat="23.44375" lon="53.61756"/><trkpt lat="23.44369" lon="53.61738"/><trkpt lat="23.44337" lon="53.6173"/><trkpt lat="23.44183" lon="53.61794"/><trkpt lat="23.4412" lon="53.61797"/><trkpt lat="23.44119" lon="53.61821"/><trkpt lat="23.44173" lon="53.61819"/><trkpt lat="23.44273" lon="53.61781"/><trkpt lat="23.44296" lon="53.61738"/><trkpt lat="23.44283" lon="53.61687"/><trkpt lat="23.4423" lon="53.61646"/><trkpt lat="23.44209" lon="53.61564"/><trkpt lat="23.44183" lon="53.61527"/><trkpt lat="23.44149" lon="53.61504"/><trkpt lat="23.441" lon="53.61494"/><trkpt lat="23.4406" lon="53.61459"/><trkpt lat="23.44022" lon="53.61465"/><trkpt lat="23.43979" lon="53.61491"/><trkpt lat="23.43958" lon="53.61488"/><trkpt lat="23.43774" lon="53.61446"/><trkpt lat="23.43726" lon="53.61423"/><trkpt lat="23.43675" lon="53.61355"/><trkpt lat="23.4364" lon="53.61333"/><trkpt lat="23.4364" lon="53.61275"/><trkpt lat="23.43617" lon="53.61269"/><trkpt lat="23.43635" lon="53.61288"/><trkpt lat="23.43655" lon="53.6128"/><trkpt lat="23.43611" lon="53.6123"/><trkpt lat="23.43504" lon="53.61032"/><trkpt lat="23.43414" lon="53.61008"/><trkpt lat="23.43367" lon="53.6102"/><trkpt lat="23.43275" lon="53.61077"/><trkpt lat="23.43232" lon="53.61085"/><trkpt lat="23.43125" lon="53.61069"/><trkpt lat="23.43053" lon="53.61107"/><trkpt lat="23.4288" lon="53.61149"/><trkpt lat="23.42788" lon="53.61129"/><trkpt lat="23.42736" lon="53.61072"/><trkpt lat="23.42701" lon="53.61052"/><trkpt lat="23.42686" lon="53.61064"/><trkpt lat="23.42707" lon="53.61083"/><trkpt lat="23.42719" lon="53.6108"/><trkpt lat="23.427" lon="53.61087"/><trkpt lat="23.42698" lon="53.61124"/><trkpt lat="23.42737" lon="53.61135"/><trkpt lat="23.42788" lon="53.61106"/><trkpt lat="23.42741" lon="53.60926"/><trkpt lat="23.42655" lon="53.60774"/><trkpt lat="23.42635" lon="53.60669"/><trkpt lat="23.42609" lon="53.60646"/><trkpt lat="23.42554" lon="53.60631"/><trkpt lat="23.42524" lon="53.60608"/><trkpt lat="23.42556" lon="53.60539"/><trkpt lat="23.42582" lon="53.60444"/><trkpt lat="23.42565" lon="53.60329"/><trkpt lat="23.42579" lon="53.6029"/><trkpt lat="23.42567" lon="53.60227"/><trkpt lat="23.42485" lon="53.60122"/><trkpt lat="23.42483" lon="53.60097"/><trkpt lat="23.42501" lon="53.60069"/><trkpt lat="23.4246" lon="53.5995"/><trkpt lat="23.42365" lon="53.59947"/><trkpt lat="23.42354" lon="53.59981"/><trkpt lat="23.4234" lon="53.5999"/><trkpt lat="23.42309" lon="53.59985"/><trkpt lat="23.42329" lon="53.60003"/><trkpt lat="23.42362" lon="53.59943"/><trkpt lat="23.42405" lon="53.59958"/><trkpt lat="23.42463" lon="53.59946"/><trkpt lat="23.42464" lon="53.59926"/><trkpt lat="23.42373" lon="53.59922"/><trkpt lat="23.42333" lon="53.59956"/><trkpt lat="23.42336" lon="53.59995"/><trkpt lat="23.42328" lon="53.60001"/><trkpt lat="23.42298" lon="53.60004"/><trkpt lat="23.42256" lon="53.60035"/><trkpt lat="23.42165" lon="53.60067"/><trkpt lat="23.42044" lon="53.60132"/><trkpt lat="23.41986" lon="53.60111"/><trkpt lat="23.41976" lon="53.60097"/><trkpt lat="23.41979" lon="53.60053"/><trkpt lat="23.4196" lon="53.60037"/><trkpt lat="23.41896" lon="53.60033"/><trkpt lat="23.41872" lon="53.60069"/><trkpt lat="23.41849" lon="53.60074"/><trkpt lat="23.41765" lon="53.60022"/><trkpt lat="23.41751" lon="53.59994"/><trkpt lat="23.41772" lon="53.59957"/><trkpt lat="23.41746" lon="53.59883"/><trkpt lat="23.41715" lon="53.59866"/><trkpt lat="23.41707" lon="53.59872"/><trkpt lat="23.41714" lon="53.59906"/><trkpt lat="23.41786" lon="53.59969"/><trkpt lat="23.41745" lon="53.59996"/><trkpt lat="23.41741" lon="53.60007"/><trkpt lat="23.41755" lon="53.60012"/><trkpt lat="23.41774" lon="53.59992"/><trkpt lat="23.41775" lon="53.59968"/><trkpt lat="23.41763" lon="53.59989"/><trkpt lat="23.41757" lon="53.59974"/><trkpt lat="23.41738" lon="53.59982"/><trkpt lat="23.41733" lon="53.60056"/><trkpt lat="23.41744" lon="53.60053"/><trkpt lat="23.41769" lon="53.5996"/><trkpt lat="23.41737" lon="53.59864"/><trkpt lat="23.41708" lon="53.59869"/><trkpt lat="23.41718" lon="53.59884"/><trkpt lat="23.41736" lon="53.5987"/><trkpt lat="23.41777" lon="53.59959"/><trkpt lat="23.41741" lon="53.60007"/><trkpt lat="23.41761" lon="53.60014"/><trkpt lat="23.41771" lon="53.59946"/><trkpt lat="23.41727" lon="53.59871"/><trkpt lat="23.41708" lon="53.59863"/><trkpt lat="23.4168" lon="53.59826"/><trkpt lat="23.41666" lon="53.5979"/><trkpt lat="23.41667" lon="53.59751"/><trkpt lat="23.41684" lon="53.59663"/><trkpt lat="23.41701" lon="53.59653"/><trkpt lat="23.41745" lon="53.59665"/><trkpt lat="23.41782" lon="53.5966"/><trkpt lat="23.41844" lon="53.59622"/><trkpt lat="23.41839" lon="53.59598"/><trkpt lat="23.41816" lon="53.59579"/><trkpt lat="23.41755" lon="53.5958"/><trkpt lat="23.4174" lon="53.59683"/><trkpt lat="23.41727" lon="53.597"/><trkpt lat="23.41694" lon="53.5971"/><trkpt lat="23.41675" lon="53.59694"/><trkpt lat="23.41681" lon="53.59672"/><trkpt lat="23.41794" lon="53.59655"/><trkpt lat="23.41842" lon="53.59626"/><trkpt lat="23.4185" lon="53.5961"/><trkpt lat="23.41832" lon="53.59575"/><trkpt lat="23.41793" lon="53.59559"/><trkpt lat="23.4177" lon="53.59586"/><trkpt lat="23.41744" lon="53.5967"/><trkpt lat="23.41699" lon="53.59696"/><trkpt lat="23.41661" lon="53.59693"/><trkpt lat="23.4165" lon="53.59678"/><trkpt lat="23.41656" lon="53.59657"/><trkpt lat="23.41681" lon="53.59679"/><trkpt lat="23.41703" lon="53.59668"/><trkpt lat="23.41679" lon="53.59589"/><trkpt lat="23.41666" lon="53.59579"/><trkpt lat="23.41566" lon="53.59631"/><trkpt lat="23.41537" lon="53.5969"/><trkpt lat="23.41538" lon="53.59726"/><trkpt lat="23.4149" lon="53.59768"/><trkpt lat="23.41481" lon="53.59752"/><trkpt lat="23.41529" lon="53.59724"/><trkpt lat="23.41527" lon="53.59644"/><trkpt lat="23.41563" lon="53.59572"/><trkpt lat="23.41599" lon="53.59554"/><trkpt lat="23.41626" lon="53.5958"/><trkpt lat="23.41622" lon="53.59598"/><trkpt lat="23.41542" lon="53.59699"/><trkpt lat="23.41555" lon="53.59728"/><trkpt lat="23.41567" lon="53.59715"/><trkpt lat="23.41559" lon="53.5973"/><trkpt lat="23.41574" lon="53.59705"/><trkpt lat="23.41571" lon="53.59675"/><trkpt lat="23.41561" lon="53.59665"/><trkpt lat="23.41543" lon="53.59674"/><trkpt lat="23.41557" lon="53.5968"/><trkpt lat="23.41561" lon="53.59665"/><trkpt lat="23.41547" lon="53.59639"/><trkpt lat="23.41521" lon="53.59649"/><trkpt lat="23.41512" lon="53.59672"/><trkpt lat="23.41515" lon="53.59742"/><trkpt lat="23.41461" lon="53.59873"/><trkpt lat="23.41476" lon="53.59889"/><trkpt lat="23.41517" lon="53.59897"/><trkpt lat="23.41565" lon="53.59879"/><trkpt lat="23.4157" lon="53.5985"/><trkpt lat="23.41551" lon="53.59825"/><trkpt lat="23.41554" lon="53.59795"/><trkpt lat="23.41517" lon="53.5979"/><trkpt lat="23.4148" lon="53.59822"/><trkpt lat="23.4147" lon="53.59845"/><trkpt lat="23.4149" lon="53.59896"/><trkpt lat="23.4157" lon="53.59887"/><trkpt lat="23.41595" lon="53.59857"/><trkpt lat="23.41598" lon="53.59818"/><trkpt lat="23.41581" lon="53.59782"/><trkpt lat="23.41549" lon="53.59779"/><trkpt lat="23.41539" lon="53.59795"/><trkpt lat="23.41502" lon="53.59795"/><trkpt lat="23.41493" lon="53.59815"/><trkpt lat="23.41508" lon="53.59803"/><trkpt lat="23.41493" lon="53.59756"/><trkpt lat="23.41455" lon="53.59706"/><trkpt lat="23.41427" lon="53.59636"/><trkpt lat="23.4137" lon="53.59548"/><trkpt lat="23.41368" lon="53.59513"/><trkpt lat="23.41409" lon="53.59447"/><trkpt lat="23.41378" lon="53.59379"/><trkpt lat="23.4139" lon="53.59344"/><trkpt lat="23.41411" lon="53.59338"/><trkpt lat="23.4146" lon="53.59369"/><trkpt lat="23.41479" lon="53.59364"/><trkpt lat="23.41509" lon="53.59337"/><trkpt lat="23.41522" lon="53.5927"/><trkpt lat="23.41564" lon="53.59221"/><trkpt lat="23.41783" lon="53.59317"/><trkpt lat="23.4193" lon="53.59327"/><trkpt lat="23.42028" lon="53.59289"/><trkpt lat="23.4205" lon="53.5925"/><trkpt lat="23.42071" lon="53.59138"/><trkpt lat="23.42051" lon="53.59069"/><trkpt lat="23.42069" lon="53.59041"/><trkpt lat="23.4218" lon="53.59035"/><trkpt lat="23.42214" lon="53.59016"/><trkpt lat="23.42265" lon="53.58962"/><trkpt lat="23.42428" lon="53.58859"/><trkpt lat="23.42534" lon="53.58817"/><trkpt lat="23.42654" lon="53.58808"/><trkpt lat="23.427" lon="53.58782"/><trkpt lat="23.42753" lon="53.58698"/><trkpt lat="23.42755" lon="53.58638"/><trkpt lat="23.42714" lon="53.58563"/><trkpt lat="23.42688" lon="53.58551"/><trkpt lat="23.42667" lon="53.58557"/><trkpt lat="23.4265" lon="53.58637"/><trkpt lat="23.42623" lon="53.58698"/><trkpt lat="23.42637" lon="53.58743"/><trkpt lat="23.42626" lon="53.58784"/><trkpt lat="23.42637" lon="53.58769"/><trkpt lat="23.42625" lon="53.58763"/><trkpt lat="23.42595" lon="53.58785"/><trkpt lat="23.42596" lon="53.58803"/><trkpt lat="23.42552" lon="53.58803"/><trkpt lat="23.42456" lon="53.58833"/><trkpt lat="23.42433" lon="53.58847"/><trkpt lat="23.42435" lon="53.58858"/><trkpt lat="23.42546" lon="53.58843"/><trkpt lat="23.42692" lon="53.58789"/><trkpt lat="23.42747" lon="53.58732"/><trkpt lat="23.42773" lon="53.58666"/><trkpt lat="23.42755" lon="53.58587"/><trkpt lat="23.42722" lon="53.58549"/><trkpt lat="23.427" lon="53.58542"/><trkpt lat="23.42568" lon="53.58564"/><trkpt lat="23.42562" lon="53.586"/><trkpt lat="23.42576" lon="53.58647"/><trkpt lat="23.42622" lon="53.58657"/><trkpt lat="23.42619" lon="53.58645"/><trkpt lat="23.42487" lon="53.58656"/><trkpt lat="23.42388" lon="53.58531"/><trkpt lat="23.42344" lon="53.58391"/><trkpt lat="23.42329" lon="53.58374"/><trkpt lat="23.42285" lon="53.58369"/><trkpt lat="23.42196" lon="53.58404"/><trkpt lat="23.42164" lon="53.58404"/><trkpt lat="23.42158" lon="53.58396"/><trkpt lat="23.4218" lon="53.58373"/><trkpt lat="23.42233" lon="53.58344"/><trkpt lat="23.42243" lon="53.58298"/><trkpt lat="23.42215" lon="53.58258"/><trkpt lat="23.42038" lon="53.5815"/><trkpt lat="23.41999" lon="53.58104"/><trkpt lat="23.41991" lon="53.58067"/><trkpt lat="23.41997" lon="53.57912"/><trkpt lat="23.42016" lon="53.57869"/><trkpt lat="23.42011" lon="53.57858"/><trkpt lat="23.41986" lon="53.57855"/><trkpt lat="23.41964" lon="53.5783"/><trkpt lat="23.41895" lon="53.57795"/><trkpt lat="23.41867" lon="53.57744"/><trkpt lat="23.41824" lon="53.57728"/><trkpt lat="23.418" lon="53.5774"/><trkpt lat="23.41792" lon="53.57727"/><trkpt lat="23.41809" lon="53.57703"/><trkpt lat="23.41949" lon="53.57667"/><trkpt lat="23.42002" lon="53.57534"/><trkpt lat="23.41958" lon="53.57294"/><trkpt lat="23.41969" lon="53.57091"/><trkpt lat="23.41956" lon="53.5694"/><trkpt lat="23.41961" lon="53.56886"/><trkpt lat="23.42006" lon="53.5682"/><trkpt lat="23.41999" lon="53.56799"/><trkpt lat="23.41969" lon="53.56788"/><trkpt lat="23.41964" lon="53.56773"/><trkpt lat="23.42034" lon="53.56672"/><trkpt lat="23.42086" lon="53.56643"/><trkpt lat="23.42153" lon="53.5657"/><trkpt lat="23.42193" lon="53.5649"/><trkpt lat="23.42231" lon="53.5633"/><trkpt lat="23.42161" lon="53.56187"/><trkpt lat="23.42173" lon="53.56151"/><trkpt lat="23.42159" lon="53.56093"/><trkpt lat="23.42061" lon="53.55827"/><trkpt lat="23.41991" lon="53.55827"/><trkpt lat="23.42027" lon="53.55767"/><trkpt lat="23.42037" lon="53.55772"/><trkpt lat="23.42011" lon="53.55804"/><trkpt lat="23.4198" lon="53.55816"/><trkpt lat="23.41872" lon="53.55781"/><trkpt lat="23.41845" lon="53.55871"/><trkpt lat="23.41856" lon="53.55889"/><trkpt lat="23.41894" lon="53.55894"/><trkpt lat="23.41913" lon="53.55875"/><trkpt lat="23.41906" lon="53.55765"/><trkpt lat="23.41879" lon="53.55799"/><trkpt lat="23.41865" lon="53.55795"/><trkpt lat="23.41854" lon="53.55765"/><trkpt lat="23.41844" lon="53.55762"/><trkpt lat="23.41843" lon="53.55776"/><trkpt lat="23.41858" lon="53.55778"/><trkpt lat="23.41849" lon="53.55789"/><trkpt lat="23.41867" lon="53.558"/><trkpt lat="23.41907" lon="53.55779"/><trkpt lat="23.41922" lon="53.55791"/><trkpt lat="23.41918" lon="53.55838"/><trkpt lat="23.4194" lon="53.55871"/><trkpt lat="23.41953" lon="53.55855"/><trkpt lat="23.41855" lon="53.55881"/><trkpt lat="23.41672" lon="53.55869"/><trkpt lat="23.41613" lon="53.55806"/><trkpt lat="23.41483" lon="53.55707"/><trkpt lat="23.41359" lon="53.55492"/><trkpt lat="23.41288" lon="53.55491"/><trkpt lat="23.41262" lon="53.55455"/><trkpt lat="23.41173" lon="53.55432"/><trkpt lat="23.41141" lon="53.55439"/><trkpt lat="23.41123" lon="53.55427"/><trkpt lat="23.41106" lon="53.55371"/><trkpt lat="23.41097" lon="53.55243"/><trkpt lat="23.41052" lon="53.55146"/><trkpt lat="23.40992" lon="53.55065"/><trkpt lat="23.40901" lon="53.55005"/><trkpt lat="23.40829" lon="53.54904"/><trkpt lat="23.40781" lon="53.54863"/><trkpt lat="23.40683" lon="53.54657"/><trkpt lat="23.40638" lon="53.54593"/><trkpt lat="23.40562" lon="53.54579"/><trkpt lat="23.40298" lon="53.54706"/><trkpt lat="23.40269" lon="53.54695"/><trkpt lat="23.40279" lon="53.54602"/><trkpt lat="23.40075" lon="53.54202"/><trkpt lat="23.40034" lon="53.5407"/><trkpt lat="23.39907" lon="53.53897"/><trkpt lat="23.39836" lon="53.53733"/><trkpt lat="23.39663" lon="53.53502"/><trkpt lat="23.39642" lon="53.53483"/><trkpt lat="23.39616" lon="53.53491"/><trkpt lat="23.39571" lon="53.53473"/><trkpt lat="23.39517" lon="53.53472"/><trkpt lat="23.3938" lon="53.53368"/><trkpt lat="23.39316" lon="53.53262"/><trkpt lat="23.3933" lon="53.53243"/><trkpt lat="23.39316" lon="53.53188"/><trkpt lat="23.39239" lon="53.53099"/><trkpt lat="23.3923" lon="53.52981"/><trkpt lat="23.39172" lon="53.52853"/><trkpt lat="23.39169" lon="53.52817"/><trkpt lat="23.3918" lon="53.52792"/><trkpt lat="23.39157" lon="53.52733"/><trkpt lat="23.3917" lon="53.52617"/><trkpt lat="23.3927" lon="53.52386"/><trkpt lat="23.39338" lon="53.5231"/><trkpt lat="23.39362" lon="53.52316"/><trkpt lat="23.39386" lon="53.52346"/><trkpt lat="23.3937" lon="53.52376"/><trkpt lat="23.39306" lon="53.52439"/><trkpt lat="23.3922" lon="53.52438"/><trkpt lat="23.39191" lon="53.52421"/><trkpt lat="23.39166" lon="53.52373"/><trkpt lat="23.39099" lon="53.52371"/><trkpt lat="23.39052" lon="53.52331"/><trkpt lat="23.39032" lon="53.52296"/><trkpt lat="23.3893" lon="53.52269"/><trkpt lat="23.38919" lon="53.52249"/><trkpt lat="23.38919" lon="53.52204"/><trkpt lat="23.38951" lon="53.52141"/><trkpt lat="23.38963" lon="53.52085"/><trkpt lat="23.39021" lon="53.52052"/><trkpt lat="23.39192" lon="53.51993"/><trkpt lat="23.39188" lon="53.51965"/><trkpt lat="23.39165" lon="53.5194"/><trkpt lat="23.39141" lon="53.51943"/><trkpt lat="23.39115" lon="53.5197"/><trkpt lat="23.39122" lon="53.52006"/><trkpt lat="23.39133" lon="53.51994"/><trkpt lat="23.39129" lon="53.51936"/><trkpt lat="23.39104" lon="53.51901"/><trkpt lat="23.39085" lon="53.51898"/><trkpt lat="23.39042" lon="53.51917"/><trkpt lat="23.38963" lon="53.51994"/><trkpt lat="23.38952" lon="53.52039"/><trkpt lat="23.38974" lon="53.52068"/><trkpt lat="23.38993" lon="53.52071"/><trkpt lat="23.39188" lon="53.51997"/><trkpt lat="23.39199" lon="53.51986"/><trkpt lat="23.39195" lon="53.51967"/><trkpt lat="23.39153" lon="53.51922"/><trkpt lat="23.39121" lon="53.51908"/><trkpt lat="23.39042" lon="53.51916"/><trkpt lat="23.3897" lon="53.51984"/><trkpt lat="23.38938" lon="53.52031"/><trkpt lat="23.38934" lon="53.52096"/><trkpt lat="23.38951" lon="53.52115"/><trkpt lat="23.38974" lon="53.52099"/><trkpt lat="23.38953" lon="53.52072"/><trkpt lat="23.3894" lon="53.52073"/><trkpt lat="23.38939" lon="53.52117"/><trkpt lat="23.38902" lon="53.52123"/><trkpt lat="23.38835" lon="53.51994"/><trkpt lat="23.38839" lon="53.51893"/><trkpt lat="23.38766" lon="53.51767"/><trkpt lat="23.38769" lon="53.5175"/><trkpt lat="23.38802" lon="53.51732"/><trkpt lat="23.38929" lon="53.51725"/><trkpt lat="23.38973" lon="53.51673"/><trkpt lat="23.38963" lon="53.51526"/><trkpt lat="23.38932" lon="53.51444"/><trkpt lat="23.38897" lon="53.51394"/><trkpt lat="23.38962" lon="53.51354"/><trkpt lat="23.39002" lon="53.51276"/><trkpt lat="23.39003" lon="53.51194"/><trkpt lat="23.38973" lon="53.51066"/><trkpt lat="23.39043" lon="53.51028"/><trkpt lat="23.39068" lon="53.50998"/><trkpt lat="23.3907" lon="53.50972"/><trkpt lat="23.39028" lon="53.50867"/><trkpt lat="23.38911" lon="53.5077"/><trkpt lat="23.38915" lon="53.5076"/><trkpt lat="23.38963" lon="53.50759"/><trkpt lat="23.38978" lon="53.50741"/><trkpt lat="23.3898" lon="53.50728"/><trkpt lat="23.38947" lon="53.50693"/><trkpt lat="23.3895" lon="53.50681"/><trkpt lat="23.38919" lon="53.50661"/><trkpt lat="23.38919" lon="53.50648"/><trkpt lat="23.38937" lon="53.50632"/><trkpt lat="23.38969" lon="53.50653"/><trkpt lat="23.38969" lon="53.50728"/><trkpt lat="23.38939" lon="53.50793"/><trkpt lat="23.3882" lon="53.50786"/><trkpt lat="23.38778" lon="53.50765"/><trkpt lat="23.38755" lon="53.5072"/><trkpt lat="23.38717" lon="53.50694"/><trkpt lat="23.38642" lon="53.50591"/><trkpt lat="23.38555" lon="53.50413"/><trkpt lat="23.38497" lon="53.50384"/><trkpt lat="23.38338" lon="53.50218"/><trkpt lat="23.38303" lon="53.50155"/><trkpt lat="23.38271" lon="53.50057"/><trkpt lat="23.38199" lon="53.5"/><trkpt lat="23.38067" lon="53.49846"/><trkpt lat="23.37951" lon="53.4967"/><trkpt lat="23.37928" lon="53.4965"/><trkpt lat="23.37896" lon="53.49675"/><trkpt lat="23.37861" lon="53.49662"/><trkpt lat="23.37853" lon="53.49641"/><trkpt lat="23.37859" lon="53.49617"/><trkpt lat="23.3774" lon="53.49469"/><trkpt lat="23.37694" lon="53.49382"/><trkpt lat="23.37557" lon="53.49294"/><trkpt lat="23.37497" lon="53.49224"/><trkpt lat="23.37443" lon="53.48964"/><trkpt lat="23.37454" lon="53.48658"/><trkpt lat="23.37389" lon="53.48526"/><trkpt lat="23.37349" lon="53.48498"/><trkpt lat="23.37305" lon="53.48517"/><trkpt lat="23.37273" lon="53.48513"/><trkpt lat="23.37228" lon="53.48464"/><trkpt lat="23.37168" lon="53.48436"/><trkpt lat="23.37121" lon="53.48384"/><trkpt lat="23.37083" lon="53.48279"/><trkpt lat="23.36996" lon="53.48207"/><trkpt lat="23.3691" lon="53.48224"/><trkpt lat="23.36882" lon="53.48256"/><trkpt lat="23.36885" lon="53.48266"/><trkpt lat="23.36909" lon="53.48254"/><trkpt lat="23.37036" lon="53.48131"/><trkpt lat="23.37038" lon="53.48107"/><trkpt lat="23.36968" lon="53.47873"/><trkpt lat="23.36985" lon="53.47861"/><trkpt lat="23.37038" lon="53.47879"/><trkpt lat="23.37065" lon="53.4786"/><trkpt lat="23.37129" lon="53.47773"/><trkpt lat="23.37112" lon="53.47708"/><trkpt lat="23.37164" lon="53.47729"/><trkpt lat="23.37195" lon="53.47726"/><trkpt lat="23.3722" lon="53.47685"/><trkpt lat="23.37289" lon="53.47663"/><trkpt lat="23.37379" lon="53.476"/><trkpt lat="23.374" lon="53.47593"/><trkpt lat="23.37446" lon="53.47608"/><trkpt lat="23.37448" lon="53.47592"/><trkpt lat="23.37387" lon="53.47596"/><trkpt lat="23.37184" lon="53.47722"/><trkpt lat="23.37165" lon="53.47717"/><trkpt lat="23.3716" lon="53.47699"/><trkpt lat="23.3717" lon="53.47685"/><trkpt lat="23.37373" lon="53.47597"/><trkpt lat="23.3741" lon="53.47594"/><trkpt lat="23.37448" lon="53.4761"/><trkpt lat="23.37502" lon="53.47599"/><trkpt lat="23.37513" lon="53.47594"/><trkpt lat="23.37532" lon="53.47538"/><trkpt lat="23.37505" lon="53.47437"/><trkpt lat="23.37447" lon="53.4749"/><trkpt lat="23.37383" lon="53.47372"/><trkpt lat="23.37324" lon="53.47305"/><trkpt lat="23.37317" lon="53.47273"/><trkpt lat="23.3734" lon="53.47195"/><trkpt lat="23.37309" lon="53.47084"/><trkpt lat="23.37236" lon="53.4709"/><trkpt lat="23.37233" lon="53.4713"/><trkpt lat="23.37269" lon="53.47159"/><trkpt lat="23.373" lon="53.47157"/><trkpt lat="23.37394" lon="53.47108"/><trkpt lat="23.37386" lon="53.47087"/><trkpt lat="23.37331" lon="53.47097"/><trkpt lat="23.37268" lon="53.47144"/><trkpt lat="23.37219" lon="53.47135"/><trkpt lat="23.37204" lon="53.47152"/><trkpt lat="23.37296" lon="53.47158"/><trkpt lat="23.37397" lon="53.47116"/><trkpt lat="23.37405" lon="53.47091"/><trkpt lat="23.373" lon="53.47101"/><trkpt lat="23.37254" lon="53.47074"/><trkpt lat="23.37221" lon="53.47078"/><trkpt lat="23.37193" lon="53.47111"/><trkpt lat="23.37199" lon="53.47138"/><trkpt lat="23.37224" lon="53.47161"/><trkpt lat="23.37281" lon="53.47163"/><trkpt lat="23.37389" lon="53.47131"/><trkpt lat="23.37413" lon="53.47112"/><trkpt lat="23.37393" lon="53.47087"/><trkpt lat="23.37234" lon="53.4708"/><trkpt lat="23.37194" lon="53.47112"/><trkpt lat="23.3719" lon="53.47164"/><trkpt lat="23.37208" lon="53.47185"/><trkpt lat="23.37244" lon="53.47186"/><trkpt lat="23.37406" lon="53.47124"/><trkpt lat="23.37425" lon="53.4711"/><trkpt lat="23.37419" lon="53.47098"/><trkpt lat="23.37312" lon="53.47108"/><trkpt lat="23.3727" lon="53.47079"/><trkpt lat="23.37207" lon="53.47078"/><trkpt lat="23.3712" lon="53.47178"/><trkpt lat="23.37122" lon="53.4721"/><trkpt lat="23.37148" lon="53.47215"/><trkpt lat="23.3724" lon="53.47189"/><trkpt lat="23.37419" lon="53.47115"/><trkpt lat="23.37416" lon="53.47089"/><trkpt lat="23.37375" lon="53.4707"/><trkpt lat="23.373" lon="53.47091"/><trkpt lat="23.37239" lon="53.47072"/><trkpt lat="23.37186" lon="53.47075"/><trkpt lat="23.37159" lon="53.47101"/><trkpt lat="23.37151" lon="53.47142"/><trkpt lat="23.37157" lon="53.47179"/><trkpt lat="23.37193" lon="53.47199"/><trkpt lat="23.37306" lon="53.47168"/><trkpt lat="23.37436" lon="53.47114"/><trkpt lat="23.37445" lon="53.47101"/><trkpt lat="23.37428" lon="53.4708"/><trkpt lat="23.37325" lon="53.47095"/><trkpt lat="23.37251" lon="53.47065"/><trkpt lat="23.37198" lon="53.47075"/><trkpt lat="23.37163" lon="53.47092"/><trkpt lat="23.37144" lon="53.47131"/><trkpt lat="23.37145" lon="53.47154"/><trkpt lat="23.37178" lon="53.4719"/><trkpt lat="23.37277" lon="53.47178"/><trkpt lat="23.37433" lon="53.47117"/><trkpt lat="23.37441" lon="53.47102"/><trkpt lat="23.3742" lon="53.47089"/><trkpt lat="23.37324" lon="53.47103"/><trkpt lat="23.3728" lon="53.47072"/><trkpt lat="23.37171" lon="53.47071"/><trkpt lat="23.37162" lon="53.4705"/><trkpt lat="23.37208" lon="53.47061"/><trkpt lat="23.37389" lon="53.47068"/><trkpt lat="23.37402" lon="53.4709"/><trkpt lat="23.37386" lon="53.47125"/><trkpt lat="23.37337" lon="53.4715"/><trkpt lat="23.37265" lon="53.47169"/><trkpt lat="23.37194" lon="53.47172"/><trkpt lat="23.37142" lon="53.47155"/><trkpt lat="23.37094" lon="53.47119"/><trkpt lat="23.37091" lon="53.47098"/><trkpt lat="23.3711" lon="53.471"/><trkpt lat="23.3717" lon="53.47141"/><trkpt lat="23.37272" lon="53.47167"/><trkpt lat="23.37427" lon="53.47116"/><trkpt lat="23.37406" lon="53.47098"/><trkpt lat="23.37324" lon="53.47112"/><trkpt lat="23.37267" lon="53.47148"/><trkpt lat="23.37118" lon="53.4714"/><trkpt lat="23.37109" lon="53.47163"/><trkpt lat="23.37171" lon="53.4719"/><trkpt lat="23.37243" lon="53.47186"/><trkpt lat="23.37428" lon="53.47113"/><trkpt lat="23.37405" lon="53.47099"/><trkpt lat="23.37344" lon="53.47114"/><trkpt lat="23.37281" lon="53.47163"/><trkpt lat="23.37226" lon="53.47156"/><trkpt lat="23.37096" lon="53.47106"/><trkpt lat="23.37091" lon="53.47076"/><trkpt lat="23.37135" lon="53.47071"/><trkpt lat="23.37165" lon="53.47053"/><trkpt lat="23.37296" lon="53.46933"/><trkpt lat="23.3725" lon="53.46866"/><trkpt lat="23.37248" lon="53.46763"/><trkpt lat="23.37233" lon="53.46721"/><trkpt lat="23.37119" lon="53.46615"/><trkpt lat="23.37024" lon="53.46503"/><trkpt lat="23.37015" lon="53.46477"/><trkpt lat="23.37017" lon="53.46458"/><trkpt lat="23.37034" lon="53.46445"/><trkpt lat="23.37095" lon="53.46427"/><trkpt lat="23.37142" lon="53.46383"/><trkpt lat="23.37075" lon="53.46309"/><trkpt lat="23.37066" lon="53.46271"/><trkpt lat="23.37077" lon="53.46232"/><trkpt lat="23.37231" lon="53.4608"/><trkpt lat="23.37367" lon="53.46043"/><trkpt lat="23.37366" lon="53.46009"/><trkpt lat="23.37349" lon="53.45994"/><trkpt lat="23.37256" lon="53.45987"/><trkpt lat="23.37247" lon="53.46018"/><trkpt lat="23.37286" lon="53.4606"/><trkpt lat="23.37343" lon="53.46063"/><trkpt lat="23.3736" lon="53.46047"/><trkpt lat="23.37338" lon="53.46019"/><trkpt lat="23.37293" lon="53.46012"/><trkpt lat="23.37258" lon="53.46032"/><trkpt lat="23.37251" lon="53.46069"/><trkpt lat="23.37357" lon="53.46064"/><trkpt lat="23.37375" lon="53.46042"/><trkpt lat="23.37372" lon="53.46026"/><trkpt lat="23.37339" lon="53.45996"/><trkpt lat="23.37251" lon="53.45966"/><trkpt lat="23.37228" lon="53.45989"/><trkpt lat="23.37218" lon="53.46039"/><trkpt lat="23.37137" lon="53.46074"/><trkpt lat="23.36959" lon="53.46079"/><trkpt lat="23.36918" lon="53.46065"/><trkpt lat="23.36874" lon="53.45949"/><trkpt lat="23.36901" lon="53.45795"/><trkpt lat="23.36895" lon="53.45722"/><trkpt lat="23.36848" lon="53.45728"/><trkpt lat="23.36828" lon="53.45713"/><trkpt lat="23.36832" lon="53.45645"/><trkpt lat="23.36807" lon="53.45524"/><trkpt lat="23.36812" lon="53.45468"/><trkpt lat="23.36737" lon="53.45405"/><trkpt lat="23.367" lon="53.4532"/><trkpt lat="23.366" lon="53.45228"/><trkpt lat="23.36562" lon="53.45159"/><trkpt lat="23.36541" lon="53.45159"/><trkpt lat="23.36482" lon="53.45213"/><trkpt lat="23.3642" lon="53.45221"/><trkpt lat="23.36397" lon="53.45211"/><trkpt lat="23.36384" lon="53.45165"/><trkpt lat="23.3644" lon="53.45119"/><trkpt lat="23.36431" lon="53.45104"/><trkpt lat="23.36388" lon="53.45113"/><trkpt lat="23.36374" lon="53.45073"/><trkpt lat="23.36325" lon="53.45052"/><trkpt lat="23.36317" lon="53.45038"/><trkpt lat="23.36328" lon="53.45006"/><trkpt lat="23.36375" lon="53.44946"/><trkpt lat="23.36385" lon="53.44889"/><trkpt lat="23.3645" lon="53.44875"/><trkpt lat="23.36466" lon="53.4484"/><trkpt lat="23.36448" lon="53.44807"/><trkpt lat="23.36411" lon="53.44796"/><trkpt lat="23.36341" lon="53.44832"/><trkpt lat="23.36329" lon="53.44869"/><trkpt lat="23.36344" lon="53.44894"/><trkpt lat="23.36404" lon="53.44893"/><trkpt lat="23.36518" lon="53.44825"/><trkpt lat="23.36534" lon="53.44806"/><trkpt lat="23.36538" lon="53.44769"/><trkpt lat="23.36506" lon="53.4474"/><trkpt lat="23.36479" lon="53.44737"/><trkpt lat="23.36454" lon="53.44753"/><trkpt lat="23.36412" lon="53.44807"/><trkpt lat="23.36407" lon="53.44863"/><trkpt lat="23.36337" lon="53.44906"/><trkpt lat="23.36337" lon="53.44926"/><trkpt lat="23.36356" lon="53.44931"/><trkpt lat="23.36529" lon="53.44819"/><trkpt lat="23.36545" lon="53.44783"/><trkpt lat="23.36539" lon="53.44764"/><trkpt lat="23.36503" lon="53.4473"/><trkpt lat="23.36476" lon="53.4473"/><trkpt lat="23.36424" lon="53.44788"/><trkpt lat="23.36404" lon="53.44853"/><trkpt lat="23.36345" lon="53.4487"/><trkpt lat="23.36357" lon="53.44885"/><trkpt lat="23.36368" lon="53.44866"/><trkpt lat="23.36362" lon="53.44848"/><trkpt lat="23.36338" lon="53.4485"/><trkpt lat="23.36327" lon="53.44864"/><trkpt lat="23.36328" lon="53.44904"/><trkpt lat="23.36355" lon="53.44952"/><trkpt lat="23.36419" lon="53.4496"/><trkpt lat="23.3652" lon="53.44884"/><trkpt lat="23.36549" lon="53.4484"/><trkpt lat="23.36557" lon="53.44762"/><trkpt lat="23.36537" lon="53.44734"/><trkpt lat="23.36499" lon="53.44726"/><trkpt lat="23.36455" lon="53.44738"/><trkpt lat="23.36416" lon="53.44795"/><trkpt lat="23.36415" lon="53.44848"/><trkpt lat="23.36373" lon="53.44876"/><trkpt lat="23.36332" lon="53.44873"/><trkpt lat="23.36201" lon="53.44801"/><trkpt lat="23.36092" lon="53.44774"/><trkpt lat="23.3606" lon="53.44756"/><trkpt lat="23.35992" lon="53.44673"/><trkpt lat="23.35936" lon="53.44675"/><trkpt lat="23.35826" lon="53.44637"/><trkpt lat="23.358" lon="53.44534"/><trkpt lat="23.35721" lon="53.44435"/><trkpt lat="23.35794" lon="53.44372"/><trkpt lat="23.35838" lon="53.44353"/><trkpt lat="23.35776" lon="53.44375"/><trkpt lat="23.35832" lon="53.44356"/><trkpt lat="23.35808" lon="53.44364"/><trkpt lat="23.35816" lon="53.44343"/><trkpt lat="23.35801" lon="53.4434"/><trkpt lat="23.35764" lon="53.44356"/><trkpt lat="23.35715" lon="53.44398"/><trkpt lat="23.35726" lon="53.44414"/><trkpt lat="23.35742" lon="53.44391"/><trkpt lat="23.35721" lon="53.4436"/><trkpt lat="23.35631" lon="53.44323"/><trkpt lat="23.3533" lon="53.44143"/><trkpt lat="23.35202" lon="53.44191"/><trkpt lat="23.3516" lon="53.44247"/><trkpt lat="23.35154" lon="53.44285"/><trkpt lat="23.3506" lon="53.44318"/><trkpt lat="23.34788" lon="53.44375"/><trkpt lat="23.34754" lon="53.44402"/><trkpt lat="23.34711" lon="53.44398"/><trkpt lat="23.34678" lon="53.44421"/><trkpt lat="23.34701" lon="53.44573"/><trkpt lat="23.34686" lon="53.44672"/><trkpt lat="23.34645" lon="53.44764"/><trkpt lat="23.34652" lon="53.44828"/><trkpt lat="23.3464" lon="53.4486"/><trkpt lat="23.34508" lon="53.44957"/><trkpt lat="23.34362" lon="53.44996"/><trkpt lat="23.34225" lon="53.45056"/><trkpt lat="23.34139" lon="53.45054"/><trkpt lat="23.34137" lon="53.45088"/><trkpt lat="23.34118" lon="53.45104"/><trkpt lat="23.34041" lon="53.45115"/><trkpt lat="23.34035" lon="53.45125"/><trkpt lat="23.34025" lon="53.45167"/><trkpt lat="23.34072" lon="53.45169"/><trkpt lat="23.34153" lon="53.45241"/><trkpt lat="23.34182" lon="53.45248"/><trkpt lat="23.34232" lon="53.45236"/><trkpt lat="23.3426" lon="53.45208"/><trkpt lat="23.34313" lon="53.45092"/><trkpt lat="23.34314" lon="53.45046"/><trkpt lat="23.34294" lon="53.45019"/><trkpt lat="23.34308" lon="53.45007"/><trkpt lat="23.34321" lon="53.45025"/><trkpt lat="23.34304" lon="53.45054"/><trkpt lat="23.34313" lon="53.45093"/><trkpt lat="23.34274" lon="53.45135"/><trkpt lat="23.34263" lon="53.45198"/><trkpt lat="23.34196" lon="53.45243"/><trkpt lat="23.33958" lon="53.45261"/><trkpt lat="23.33908" lon="53.45242"/><trkpt lat="23.33814" lon="53.45168"/><trkpt lat="23.33743" lon="53.45148"/><trkpt lat="23.33701" lon="53.45151"/><trkpt lat="23.33601" lon="53.45218"/><trkpt lat="23.33424" lon="53.45394"/><trkpt lat="23.33445" lon="53.45446"/><trkpt lat="23.33441" lon="53.45486"/><trkpt lat="23.33375" lon="53.45498"/><trkpt lat="23.33348" lon="53.45532"/><trkpt lat="23.33336" lon="53.45575"/><trkpt lat="23.33316" lon="53.45584"/><trkpt lat="23.3324" lon="53.45585"/><trkpt lat="23.33144" lon="53.45609"/><trkpt lat="23.33077" lon="53.45604"/><trkpt lat="23.33023" lon="53.45623"/><trkpt lat="23.32854" lon="53.45569"/><trkpt lat="23.32824" lon="53.45506"/><trkpt lat="23.32797" lon="53.45489"/><trkpt lat="23.32743" lon="53.45514"/><trkpt lat="23.32639" lon="53.45531"/><trkpt lat="23.3263" lon="53.45563"/><trkpt lat="23.32582" lon="53.45608"/><trkpt lat="23.32514" lon="53.45631"/><trkpt lat="23.32492" lon="53.45626"/><trkpt lat="23.32407" lon="53.4568"/><trkpt lat="23.32319" lon="53.45688"/><trkpt lat="23.32276" lon="53.45705"/><trkpt lat="23.32222" lon="53.45687"/><trkpt lat="23.32176" lon="53.45633"/><trkpt lat="23.32116" lon="53.45601"/><trkpt lat="23.31951" lon="53.45566"/><trkpt lat="23.31888" lon="53.45525"/><trkpt lat="23.31826" lon="53.45517"/><trkpt lat="23.317" lon="53.45547"/><trkpt lat="23.31658" lon="53.45542"/><trkpt lat="23.31646" lon="53.45559"/><trkpt lat="23.31678" lon="53.4565"/><trkpt lat="23.31681" lon="53.45777"/><trkpt lat="23.31669" lon="53.45823"/><trkpt lat="23.31622" lon="53.45885"/><trkpt lat="23.31552" lon="53.45893"/><trkpt lat="23.31523" lon="53.45868"/><trkpt lat="23.31492" lon="53.45861"/><trkpt lat="23.31469" lon="53.45883"/><trkpt lat="23.31387" lon="53.45908"/><trkpt lat="23.31299" lon="53.4597"/><trkpt lat="23.31222" lon="53.45999"/><trkpt lat="23.31146" lon="53.46007"/><trkpt lat="23.31076" lon="53.45975"/><trkpt lat="23.31004" lon="53.46031"/><trkpt lat="23.30932" lon="53.46003"/><trkpt lat="23.30749" lon="53.46063"/><trkpt lat="23.30626" lon="53.46071"/><trkpt lat="23.30529" lon="53.46072"/><trkpt lat="23.30455" lon="53.46022"/><trkpt lat="23.30389" lon="53.46004"/><trkpt lat="23.303" lon="53.46021"/><trkpt lat="23.29996" lon="53.46"/><trkpt lat="23.29973" lon="53.45974"/><trkpt lat="23.29973" lon="53.45946"/><trkpt lat="23.29989" lon="53.45926"/><trkpt lat="23.30076" lon="53.45879"/><trkpt lat="23.30078" lon="53.45856"/><trkpt lat="23.30065" lon="53.45834"/><trkpt lat="23.29936" lon="53.45774"/><trkpt lat="23.2986" lon="53.45722"/><trkpt lat="23.29844" lon="53.45741"/><trkpt lat="23.29825" lon="53.4585"/><trkpt lat="23.29787" lon="53.45876"/><trkpt lat="23.29743" lon="53.45872"/><trkpt lat="23.29694" lon="53.45806"/><trkpt lat="23.29673" lon="53.45751"/><trkpt lat="23.29706" lon="53.45712"/><trkpt lat="23.29739" lon="53.457"/><trkpt lat="23.29742" lon="53.45687"/><trkpt lat="23.29686" lon="53.45637"/><trkpt lat="23.2966" lon="53.45658"/><trkpt lat="23.29683" lon="53.45688"/><trkpt lat="23.29682" lon="53.45708"/><trkpt lat="23.29638" lon="53.45708"/><trkpt lat="23.29621" lon="53.45697"/><trkpt lat="23.29627" lon="53.45687"/><trkpt lat="23.29667" lon="53.45717"/><trkpt lat="23.2968" lon="53.45675"/><trkpt lat="23.2969" lon="53.45678"/><trkpt lat="23.29675" lon="53.45699"/><trkpt lat="23.29648" lon="53.45685"/><trkpt lat="23.2961" lon="53.45687"/><trkpt lat="23.2952" lon="53.45734"/><trkpt lat="23.29472" lon="53.45711"/><trkpt lat="23.29409" lon="53.45702"/><trkpt lat="23.29053" lon="53.45716"/><trkpt lat="23.29021" lon="53.45738"/><trkpt lat="23.28891" lon="53.45877"/><trkpt lat="23.28879" lon="53.45905"/><trkpt lat="23.28882" lon="53.45946"/><trkpt lat="23.28932" lon="53.45984"/><trkpt lat="23.28903" lon="53.46"/><trkpt lat="23.28724" lon="53.45967"/><trkpt lat="23.28656" lon="53.4597"/><trkpt lat="23.28621" lon="53.45951"/><trkpt lat="23.2853" lon="53.45945"/><trkpt lat="23.28478" lon="53.45929"/><trkpt lat="23.28457" lon="53.45918"/><trkpt lat="23.2845" lon="53.45877"/><trkpt lat="23.28425" lon="53.4584"/><trkpt lat="23.28368" lon="53.45805"/><trkpt lat="23.28272" lon="53.4583"/><trkpt lat="23.2823" lon="53.45829"/><trkpt lat="23.28063" lon="53.45769"/><trkpt lat="23.28055" lon="53.45796"/><trkpt lat="23.28028" lon="53.4581"/><trkpt lat="23.27968" lon="53.45798"/><trkpt lat="23.27908" lon="53.45749"/><trkpt lat="23.27843" lon="53.45733"/><trkpt lat="23.27774" lon="53.45744"/><trkpt lat="23.27663" lon="53.458"/><trkpt lat="23.27527" lon="53.45806"/><trkpt lat="23.27517" lon="53.45811"/><trkpt lat="23.27522" lon="53.45822"/><trkpt lat="23.27675" lon="53.45773"/><trkpt lat="23.27794" lon="53.4575"/><trkpt lat="23.2781" lon="53.45741"/><trkpt lat="23.27791" lon="53.45737"/><trkpt lat="23.27658" lon="53.45796"/><trkpt lat="23.2748" lon="53.45818"/><trkpt lat="23.27392" lon="53.45883"/><trkpt lat="23.27373" lon="53.45912"/><trkpt lat="23.2724" lon="53.45952"/><trkpt lat="23.27217" lon="53.4601"/><trkpt lat="23.27132" lon="53.46037"/><trkpt lat="23.2707" lon="53.46074"/><trkpt lat="23.27044" lon="53.46068"/><trkpt lat="23.27026" lon="53.46"/><trkpt lat="23.26991" lon="53.45954"/><trkpt lat="23.26973" lon="53.45964"/><trkpt lat="23.26989" lon="53.45994"/><trkpt lat="23.26976" lon="53.45998"/><trkpt lat="23.26818" lon="53.46028"/><trkpt lat="23.26761" lon="53.46022"/><trkpt lat="23.26729" lon="53.46052"/><trkpt lat="23.26677" lon="53.46141"/><trkpt lat="23.26617" lon="53.4617"/><trkpt lat="23.26614" lon="53.46184"/><trkpt lat="23.26634" lon="53.46236"/><trkpt lat="23.26669" lon="53.46267"/><trkpt lat="23.26695" lon="53.46309"/><trkpt lat="23.26694" lon="53.46332"/><trkpt lat="23.26668" lon="53.46363"/><trkpt lat="23.26689" lon="53.46365"/><trkpt lat="23.26697" lon="53.46346"/><trkpt lat="23.26674" lon="53.46234"/><trkpt lat="23.2662" lon="53.46194"/><trkpt lat="23.26636" lon="53.46164"/><trkpt lat="23.26628" lon="53.46155"/><trkpt lat="23.26616" lon="53.46169"/><trkpt lat="23.2661" lon="53.46247"/><trkpt lat="23.26685" lon="53.46329"/><trkpt lat="23.26674" lon="53.46373"/><trkpt lat="23.26712" lon="53.46418"/><trkpt lat="23.26726" lon="53.46468"/><trkpt lat="23.26702" lon="53.46556"/><trkpt lat="23.26623" lon="53.46684"/><trkpt lat="23.26591" lon="53.46712"/><trkpt lat="23.26551" lon="53.46722"/><trkpt lat="23.26542" lon="53.46759"/><trkpt lat="23.26512" lon="53.46768"/><trkpt lat="23.26438" lon="53.46758"/><trkpt lat="23.26414" lon="53.46735"/><trkpt lat="23.26368" lon="53.46722"/><trkpt lat="23.26362" lon="53.46704"/><trkpt lat="23.26401" lon="53.46715"/><trkpt lat="23.26384" lon="53.46699"/><trkpt lat="23.26353" lon="53.46698"/><trkpt lat="23.26358" lon="53.46709"/><trkpt lat="23.26421" lon="53.46722"/><trkpt lat="23.26434" lon="53.46749"/><trkpt lat="23.26439" lon="53.46734"/><trkpt lat="23.26409" lon="53.46711"/><trkpt lat="23.26398" lon="53.46722"/><trkpt lat="23.26408" lon="53.4673"/><trkpt lat="23.26396" lon="53.46728"/><trkpt lat="23.26408" lon="53.46731"/><trkpt lat="23.26352" lon="53.46707"/><trkpt lat="23.2632" lon="53.46707"/><trkpt lat="23.26229" lon="53.46778"/><trkpt lat="23.26226" lon="53.46802"/><trkpt lat="23.26251" lon="53.46836"/><trkpt lat="23.26212" lon="53.46921"/><trkpt lat="23.26179" lon="53.46964"/><trkpt lat="23.26138" lon="53.46983"/><trkpt lat="23.26093" lon="53.46966"/><trkpt lat="23.2607" lon="53.4697"/><trkpt lat="23.26026" lon="53.47011"/><trkpt lat="23.26053" lon="53.47059"/><trkpt lat="23.26058" lon="53.47092"/><trkpt lat="23.26001" lon="53.47157"/><trkpt lat="23.2598" lon="53.47209"/><trkpt lat="23.25985" lon="53.47284"/><trkpt lat="23.25971" lon="53.47349"/><trkpt lat="23.2599" lon="53.47399"/><trkpt lat="23.2599" lon="53.47433"/><trkpt lat="23.26082" lon="53.47462"/><trkpt lat="23.2613" lon="53.47525"/><trkpt lat="23.26114" lon="53.4756"/><trkpt lat="23.26121" lon="53.47568"/><trkpt lat="23.26213" lon="53.47559"/><trkpt lat="23.26251" lon="53.47564"/><trkpt lat="23.26274" lon="53.47585"/><trkpt lat="23.262" lon="53.47711"/><trkpt lat="23.26187" lon="53.47782"/><trkpt lat="23.26114" lon="53.47893"/><trkpt lat="23.26122" lon="53.47963"/><trkpt lat="23.26058" lon="53.48102"/><trkpt lat="23.26069" lon="53.48167"/><trkpt lat="23.26045" lon="53.48233"/><trkpt lat="23.26025" lon="53.48248"/><trkpt lat="23.25926" lon="53.48246"/><trkpt lat="23.25892" lon="53.48269"/><trkpt lat="23.25883" lon="53.48289"/><trkpt lat="23.26027" lon="53.48412"/><trkpt lat="23.26056" lon="53.48473"/><trkpt lat="23.26052" lon="53.48554"/><trkpt lat="23.2607" lon="53.48609"/><trkpt lat="23.2607" lon="53.48652"/><trkpt lat="23.26017" lon="53.48762"/><trkpt lat="23.25892" lon="53.48909"/><trkpt lat="23.25865" lon="53.49024"/><trkpt lat="23.25839" lon="53.49054"/><trkpt lat="23.25841" lon="53.49066"/><trkpt lat="23.25876" lon="53.49073"/><trkpt lat="23.25992" lon="53.49144"/><trkpt lat="23.26023" lon="53.49347"/><trkpt lat="23.26071" lon="53.494"/><trkpt lat="23.26085" lon="53.49473"/><trkpt lat="23.26095" lon="53.497"/><trkpt lat="23.2609" lon="53.49734"/><trkpt lat="23.26051" lon="53.49805"/><trkpt lat="23.26049" lon="53.49927"/><trkpt lat="23.26065" lon="53.50031"/><trkpt lat="23.26056" lon="53.50108"/><trkpt lat="23.26146" lon="53.50229"/><trkpt lat="23.26142" lon="53.50254"/><trkpt lat="23.26127" lon="53.50262"/><trkpt lat="23.26025" lon="53.50278"/><trkpt lat="23.25947" lon="53.50255"/><trkpt lat="23.25726" lon="53.50372"/><trkpt lat="23.25675" lon="53.50374"/><trkpt lat="23.2563" lon="53.50465"/><trkpt lat="23.25459" lon="53.50608"/><trkpt lat="23.25433" lon="53.50655"/><trkpt lat="23.25435" lon="53.50683"/><trkpt lat="23.25469" lon="53.50759"/><trkpt lat="23.25472" lon="53.50865"/><trkpt lat="23.25448" lon="53.50946"/><trkpt lat="23.2545" lon="53.5098"/><trkpt lat="23.25473" lon="53.50991"/><trkpt lat="23.25517" lon="53.50983"/><trkpt lat="23.25557" lon="53.50951"/><trkpt lat="23.25549" lon="53.50934"/><trkpt lat="23.25459" lon="53.50983"/><trkpt lat="23.25477" lon="53.51012"/><trkpt lat="23.2554" lon="53.51"/><trkpt lat="23.25564" lon="53.5097"/><trkpt lat="23.25572" lon="53.50933"/><trkpt lat="23.25534" lon="53.50919"/><trkpt lat="23.25497" lon="53.5094"/><trkpt lat="23.2542" lon="53.51019"/><trkpt lat="23.25409" lon="53.51063"/><trkpt lat="23.25468" lon="53.51156"/><trkpt lat="23.25505" lon="53.5118"/><trkpt lat="23.25584" lon="53.51171"/><trkpt lat="23.25607" lon="53.51137"/><trkpt lat="23.25588" lon="53.51097"/><trkpt lat="23.25542" lon="53.5109"/><trkpt lat="23.25461" lon="53.51102"/><trkpt lat="23.2545" lon="53.51108"/><trkpt lat="23.25453" lon="53.5113"/><trkpt lat="23.25472" lon="53.51113"/><trkpt lat="23.25477" lon="53.51079"/><trkpt lat="23.25422" lon="53.5104"/><trkpt lat="23.25419" lon="53.51018"/><trkpt lat="23.25481" lon="53.50968"/><trkpt lat="23.25506" lon="53.50967"/><trkpt lat="23.2552" lon="53.50983"/><trkpt lat="23.25498" lon="53.51081"/><trkpt lat="23.255" lon="53.51329"/><trkpt lat="23.25467" lon="53.51444"/><trkpt lat="23.25421" lon="53.51553"/><trkpt lat="23.25325" lon="53.51657"/><trkpt lat="23.25332" lon="53.51704"/><trkpt lat="23.25324" lon="53.51758"/><trkpt lat="23.25291" lon="53.51792"/><trkpt lat="23.25293" lon="53.51831"/><trkpt lat="23.25271" lon="53.51886"/><trkpt lat="23.25247" lon="53.51901"/><trkpt lat="23.25138" lon="53.51917"/><trkpt lat="23.25112" lon="53.51951"/><trkpt lat="23.25117" lon="53.51985"/><trkpt lat="23.25177" lon="53.52021"/><trkpt lat="23.25181" lon="53.52094"/><trkpt lat="23.25174" lon="53.52225"/><trkpt lat="23.25183" lon="53.52264"/><trkpt lat="23.25173" lon="53.52306"/><trkpt lat="23.25137" lon="53.52342"/><trkpt lat="23.25112" lon="53.52417"/><trkpt lat="23.25087" lon="53.52442"/><trkpt lat="23.25076" lon="53.52473"/><trkpt lat="23.25099" lon="53.52611"/><trkpt lat="23.25135" lon="53.52719"/><trkpt lat="23.25148" lon="53.52896"/><trkpt lat="23.25142" lon="53.53055"/><trkpt lat="23.25152" lon="53.53122"/><trkpt lat="23.25126" lon="53.5317"/><trkpt lat="23.25137" lon="53.53305"/><trkpt lat="23.25157" lon="53.53371"/><trkpt lat="23.25098" lon="53.53445"/><trkpt lat="23.2513" lon="53.5362"/><trkpt lat="23.25116" lon="53.53693"/><trkpt lat="23.25134" lon="53.53742"/><trkpt lat="23.25157" lon="53.53756"/><trkpt lat="23.25171" lon="53.53801"/><trkpt lat="23.25186" lon="53.53977"/><trkpt lat="23.25171" lon="53.54034"/><trkpt lat="23.25251" lon="53.5425"/><trkpt lat="23.25271" lon="53.54422"/><trkpt lat="23.25297" lon="53.54527"/><trkpt lat="23.25404" lon="53.54772"/><trkpt lat="23.25466" lon="53.54837"/><trkpt lat="23.25466" lon="53.54872"/><trkpt lat="23.25509" lon="53.54982"/><trkpt lat="23.25571" lon="53.54994"/><trkpt lat="23.25646" lon="53.55034"/><trkpt lat="23.25672" lon="53.55062"/><trkpt lat="23.25717" lon="53.55156"/><trkpt lat="23.25728" lon="53.55325"/><trkpt lat="23.2571" lon="53.5543"/><trkpt lat="23.25686" lon="53.5548"/><trkpt lat="23.25735" lon="53.55606"/><trkpt lat="23.25737" lon="53.55638"/><trkpt lat="23.25705" lon="53.55839"/><trkpt lat="23.25715" lon="53.55872"/><trkpt lat="23.25768" lon="53.55945"/><trkpt lat="23.25753" lon="53.56003"/><trkpt lat="23.25723" lon="53.56028"/><trkpt lat="23.25722" lon="53.56047"/><trkpt lat="23.25776" lon="53.56167"/><trkpt lat="23.25796" lon="53.56407"/><trkpt lat="23.25806" lon="53.56415"/><trkpt lat="23.25876" lon="53.5641"/><trkpt lat="23.2593" lon="53.56442"/><trkpt lat="23.25995" lon="53.56455"/><trkpt lat="23.26222" lon="53.56578"/><trkpt lat="23.26253" lon="53.56616"/><trkpt lat="23.26309" lon="53.56755"/><trkpt lat="23.2633" lon="53.5692"/><trkpt lat="23.26348" lon="53.56964"/><trkpt lat="23.26383" lon="53.56971"/><trkpt lat="23.26434" lon="53.56953"/><trkpt lat="23.26462" lon="53.56964"/><trkpt lat="23.26551" lon="53.57085"/><trkpt lat="23.26575" lon="53.57141"/><trkpt lat="23.26642" lon="53.57174"/><trkpt lat="23.26678" lon="53.57211"/><trkpt lat="23.26711" lon="53.57223"/><trkpt lat="23.2672" lon="53.57217"/><trkpt lat="23.26714" lon="53.57208"/><trkpt lat="23.26677" lon="53.57198"/><trkpt lat="23.2664" lon="53.57205"/><trkpt lat="23.26637" lon="53.57242"/><trkpt lat="23.26657" lon="53.57282"/><trkpt lat="23.26775" lon="53.57363"/><trkpt lat="23.26761" lon="53.57417"/><trkpt lat="23.2677" lon="53.5748"/><trkpt lat="23.26783" lon="53.57499"/><trkpt lat="23.26761" lon="53.57589"/><trkpt lat="23.26722" lon="53.57641"/><trkpt lat="23.2672" lon="53.57676"/><trkpt lat="23.26773" lon="53.57791"/><trkpt lat="23.26907" lon="53.57951"/><trkpt lat="23.27011" lon="53.57978"/><trkpt lat="23.27072" lon="53.57954"/><trkpt lat="23.27391" lon="53.57889"/><trkpt lat="23.274" lon="53.57896"/><trkpt lat="23.27392" lon="53.57914"/><trkpt lat="23.27342" lon="53.57928"/><trkpt lat="23.27247" lon="53.57926"/><trkpt lat="23.27163" lon="53.57954"/><trkpt lat="23.27149" lon="53.57941"/><trkpt lat="23.2716" lon="53.57927"/><trkpt lat="23.27432" lon="53.57878"/><trkpt lat="23.27429" lon="53.57868"/><trkpt lat="23.27239" lon="53.57887"/><trkpt lat="23.27233" lon="53.57897"/><trkpt lat="23.27241" lon="53.57903"/><trkpt lat="23.27254" lon="53.57877"/><trkpt lat="23.27232" lon="53.57872"/><trkpt lat="23.27148" lon="53.57946"/><trkpt lat="23.27148" lon="53.57958"/><trkpt lat="23.27387" lon="53.57885"/><trkpt lat="23.27435" lon="53.57875"/><trkpt lat="23.27425" lon="53.57896"/><trkpt lat="23.27374" lon="53.57918"/><trkpt lat="23.27235" lon="53.57932"/><trkpt lat="23.27143" lon="53.57971"/><trkpt lat="23.27119" lon="53.57963"/><trkpt lat="23.2712" lon="53.57944"/><trkpt lat="23.27457" lon="53.57878"/><trkpt lat="23.27177" lon="53.57927"/><trkpt lat="23.27118" lon="53.57955"/><trkpt lat="23.27256" lon="53.58236"/><trkpt lat="23.27176" lon="53.58443"/><trkpt lat="23.27179" lon="53.5847"/><trkpt lat="23.27243" lon="53.58525"/><trkpt lat="23.27327" lon="53.58553"/><trkpt lat="23.27401" lon="53.58625"/><trkpt lat="23.27466" lon="53.58642"/><trkpt lat="23.27614" lon="53.58764"/><trkpt lat="23.27712" lon="53.58814"/><trkpt lat="23.27806" lon="53.58883"/><trkpt lat="23.27942" lon="53.58852"/><trkpt lat="23.28007" lon="53.58879"/><trkpt lat="23.28116" lon="53.58868"/><trkpt lat="23.28216" lon="53.58829"/><trkpt lat="23.2826" lon="53.58787"/><trkpt lat="23.28322" lon="53.58778"/><trkpt lat="23.28399" lon="53.58785"/><trkpt lat="23.28488" lon="53.58825"/><trkpt lat="23.28534" lon="53.58819"/><trkpt lat="23.2857" lon="53.58786"/><trkpt lat="23.2858" lon="53.58792"/><trkpt lat="23.28572" lon="53.5881"/><trkpt lat="23.28477" lon="53.58809"/><trkpt lat="23.28444" lon="53.58841"/><trkpt lat="23.28462" lon="53.59053"/><trkpt lat="23.28526" lon="53.59117"/><trkpt lat="23.28522" lon="53.59149"/><trkpt lat="23.28589" lon="53.59188"/><trkpt lat="23.28587" lon="53.59298"/><trkpt lat="23.28651" lon="53.59267"/><trkpt lat="23.28698" lon="53.59288"/><trkpt lat="23.28755" lon="53.59265"/><trkpt lat="23.28773" lon="53.59271"/><trkpt lat="23.28757" lon="53.59235"/><trkpt lat="23.2878" lon="53.59204"/><trkpt lat="23.28824" lon="53.59181"/><trkpt lat="23.28875" lon="53.59192"/><trkpt lat="23.28891" lon="53.59234"/><trkpt lat="23.28939" lon="53.59293"/><trkpt lat="23.29003" lon="53.59409"/><trkpt lat="23.29145" lon="53.59706"/><trkpt lat="23.29196" lon="53.59829"/><trkpt lat="23.29252" lon="53.60013"/><trkpt lat="23.2932" lon="53.60104"/><trkpt lat="23.29472" lon="53.60385"/><trkpt lat="23.29838" lon="53.61528"/><trkpt lat="23.30298" lon="53.62433"/><trkpt lat="23.30575" lon="53.63475"/><trkpt lat="23.30579" lon="53.6354"/><trkpt lat="23.30565" lon="53.63606"/><trkpt lat="23.30471" lon="53.63723"/><trkpt lat="23.3045" lon="53.63772"/><trkpt lat="23.30391" lon="53.64112"/><trkpt lat="23.30522" lon="53.6551"/><trkpt lat="23.3063" lon="53.66256"/><trkpt lat="23.30958" lon="53.67355"/><trkpt lat="23.3095" lon="53.67944"/><trkpt lat="23.31107" lon="53.68417"/><trkpt lat="23.31238" lon="53.68639"/><trkpt lat="23.31315" lon="53.68921"/><trkpt lat="23.31201" lon="53.69189"/><trkpt lat="23.312" lon="53.69222"/><trkpt lat="23.31554" lon="53.70074"/><trkpt lat="23.31833" lon="53.70841"/><trkpt lat="23.32086" lon="53.71379"/><trkpt lat="23.32143" lon="53.71434"/><trkpt lat="23.32337" lon="53.71553"/><trkpt lat="23.32766" lon="53.71964"/><trkpt lat="23.32856" lon="53.72067"/><trkpt lat="23.33104" lon="53.72647"/><trkpt lat="23.33242" lon="53.73016"/><trkpt lat="23.33324" lon="53.73371"/><trkpt lat="23.33406" lon="53.73617"/><trkpt lat="23.33648" lon="53.74189"/><trkpt lat="23.33779" lon="53.74614"/><trkpt lat="23.33823" lon="53.7467"/><trkpt lat="23.34158" lon="53.74989"/><trkpt lat="23.34221" lon="53.75349"/><trkpt lat="23.34645" lon="53.75755"/><trkpt lat="23.3486" lon="53.76049"/><trkpt lat="23.34965" lon="53.76115"/><trkpt lat="23.34982" lon="53.76152"/><trkpt lat="23.34995" lon="53.76232"/><trkpt lat="23.34955" lon="53.76348"/><trkpt lat="23.3496" lon="53.7639"/><trkpt lat="23.35011" lon="53.76502"/><trkpt lat="23.3515" lon="53.76727"/><trkpt lat="23.35179" lon="53.76749"/><trkpt lat="23.35247" lon="53.76765"/><trkpt lat="23.35276" lon="53.768"/><trkpt lat="23.35386" lon="53.76795"/><trkpt lat="23.35431" lon="53.76822"/></trkseg></trk></gpx>
