<?xml version="1.0" encoding="UTF-8"?>
<gpx version="1.1" creator="Nomad Outdoors" xmlns="http://www.topografix.com/GPX/1/1"><metadata><name>Fossil Rock</name><link href="https://www.nomadoutdoors.org/routes/2020-06-05-fossil-rock"/></metadata><trk><name>Fossil Rock</name><trkseg><trkpt lat="25.15264" lon="55.74809"/><trkpt lat="25.15255" lon="55.74847"/><trkpt lat="25.15229" lon="55.74882"/><trkpt lat="25.15126" lon="55.74944"/><trkpt lat="25.15104" lon="55.74993"/><trkpt lat="25.15092" lon="55.7511"/><trkpt lat="25.15067" lon="55.75154"/><trkpt lat="25.15048" lon="55.75285"/><trkpt lat="25.15051" lon="55.75491"/><trkpt lat="25.15034" lon="55.75523"/><trkpt lat="25.15009" lon="55.75851"/><trkpt lat="25.14933" lon="55.75906"/><trkpt lat="25.14944" lon="55.75929"/><trkpt lat="25.14907" lon="55.75997"/><trkpt lat="25.14882" lon="55.76159"/><trkpt lat="25.14877" lon="55.76234"/><trkpt lat="25.14898" lon="55.76296"/><trkpt lat="25.14893" lon="55.76353"/><trkpt lat="25.14903" lon="55.76393"/><trkpt lat="25.14865" lon="55.76578"/><trkpt lat="25.14931" lon="55.76628"/><trkpt lat="25.14942" lon="55.76692"/><trkpt lat="25.14935" lon="55.76737"/><trkpt lat="25.14916" lon="55.76729"/><trkpt lat="25.14901" lon="55.76753"/><trkpt lat="25.14906" lon="55.76822"/><trkpt lat="25.14929" lon="55.76848"/><trkpt lat="25.14948" lon="55.76844"/><trkpt lat="25.15036" lon="55.76887"/><trkpt lat="25.15047" lon="55.77004"/><trkpt lat="25.15002" lon="55.7702"/><trkpt lat="25.14979" lon="55.77051"/><trkpt lat="25.14962" lon="55.77086"/><trkpt lat="25.14975" lon="55.77114"/><trkpt lat="25.14971" lon="55.77144"/><trkpt lat="25.14942" lon="55.77159"/><trkpt lat="25.1491" lon="55.77202"/><trkpt lat="25.14919" lon="55.77217"/><trkpt lat="25.14971" lon="55.77216"/><trkpt lat="25.14979" lon="55.77233"/><trkpt lat="25.14954" lon="55.77386"/><trkpt lat="25.149" lon="55.77426"/><trkpt lat="25.14919" lon="55.77467"/><trkpt lat="25.14912" lon="55.77508"/><trkpt lat="25.14948" lon="55.77575"/><trkpt lat="25.14919" lon="55.77614"/><trkpt lat="25.1491" lon="55.77662"/><trkpt lat="25.14943" lon="55.77682"/><trkpt lat="25.14945" lon="55.77717"/><trkpt lat="25.14933" lon="55.77743"/><trkpt lat="25.14902" lon="55.7774"/><trkpt lat="25.14865" lon="55.77783"/><trkpt lat="25.14879" lon="55.77855"/><trkpt lat="25.14856" lon="55.77886"/><trkpt lat="25.14876" lon="55.77933"/><trkpt lat="25.14859" lon="55.77969"/><trkpt lat="25.1488" lon="55.77995"/><trkpt lat="25.14853" lon="55.78016"/><trkpt lat="25.14875" lon="55.78098"/><trkpt lat="25.14828" lon="55.78173"/><trkpt lat="25.14832" lon="55.7824"/><trkpt lat="25.14792" lon="55.78258"/><trkpt lat="25.14774" lon="55.78254"/><trkpt lat="25.14776" lon="55.78305"/><trkpt lat="25.14714" lon="55.78352"/><trkpt lat="25.14711" lon="55.78382"/><trkpt lat="25.14742" lon="55.78444"/><trkpt lat="25.14727" lon="55.78514"/><trkpt lat="25.14764" lon="55.78581"/><trkpt lat="25.14754" lon="55.78654"/><trkpt lat="25.14792" lon="55.78729"/><trkpt lat="25.14798" lon="55.7877"/><trkpt lat="25.14842" lon="55.78782"/><trkpt lat="25.1488" lon="55.78774"/><trkpt lat="25.1489" lon="55.78787"/><trkpt lat="25.14878" lon="55.78873"/><trkpt lat="25.14852" lon="55.78903"/><trkpt lat="25.14779" lon="55.789"/><trkpt lat="25.1478" lon="55.78945"/><trkpt lat="25.14728" lon="55.78919"/><trkpt lat="25.1473" lon="55.78882"/><trkpt lat="25.14714" lon="55.78863"/><trkpt lat="25.14696" lon="55.7892"/><trkpt lat="25.14704" lon="55.78987"/><trkpt lat="25.14714" lon="55.79005"/><trkpt lat="25.14745" lon="55.79012"/><trkpt lat="25.14762" lon="55.7903"/><trkpt lat="25.14735" lon="55.79077"/><trkpt lat="25.14719" lon="55.79074"/><trkpt lat="25.14688" lon="55.79028"/><trkpt lat="25.14672" lon="55.79047"/><trkpt lat="25.14616" lon="55.79062"/><trkpt lat="25.14612" lon="55.79076"/><trkpt lat="25.14631" lon="55.79145"/><trkpt lat="25.14683" lon="55.79177"/><trkpt lat="25.14637" lon="55.79206"/><trkpt lat="25.14631" lon="55.79221"/><trkpt lat="25.14664" lon="55.79231"/><trkpt lat="25.14698" lon="55.79219"/><trkpt lat="25.14727" lon="55.79299"/><trkpt lat="25.14688" lon="55.79335"/><trkpt lat="25.14678" lon="55.79407"/><trkpt lat="25.14711" lon="55.79411"/><trkpt lat="25.14756" lon="55.79495"/><trkpt lat="25.14816" lon="55.79517"/><trkpt lat="25.14817" lon="55.79574"/><trkpt lat="25.14782" lon="55.79613"/><trkpt lat="25.14782" lon="55.79651"/><trkpt lat="25.14743" lon="55.79666"/><trkpt lat="25.14753" lon="55.7971"/><trkpt lat="25.14701" lon="55.79713"/><trkpt lat="25.14678" lon="55.79736"/><trkpt lat="25.1463" lon="55.79685"/><trkpt lat="25.14594" lon="55.79712"/><trkpt lat="25.14612" lon="55.79786"/><trkpt lat="25.14556" lon="55.79845"/><trkpt lat="25.14518" lon="55.79841"/><trkpt lat="25.14513" lon="55.7987"/><trkpt lat="25.14528" lon="55.79911"/><trkpt lat="25.14523" lon="55.79987"/><trkpt lat="25.14505" lon="55.80018"/><trkpt lat="25.14525" lon="55.80045"/><trkpt lat="25.14549" lon="55.80036"/><trkpt lat="25.14555" lon="55.80054"/><trkpt lat="25.14577" lon="55.8007"/><trkpt lat="25.14575" lon="55.80181"/><trkpt lat="25.14597" lon="55.80191"/><trkpt lat="25.14615" lon="55.80234"/><trkpt lat="25.14644" lon="55.80244"/><trkpt lat="25.14724" lon="55.80317"/><trkpt lat="25.14857" lon="55.80305"/><trkpt lat="25.14918" lon="55.80216"/><trkpt lat="25.14952" lon="55.8025"/><trkpt lat="25.14949" lon="55.80322"/><trkpt lat="25.14978" lon="55.80324"/><trkpt lat="25.15001" lon="55.80302"/><trkpt lat="25.15043" lon="55.80375"/><trkpt lat="25.15092" lon="55.80427"/><trkpt lat="25.15114" lon="55.80433"/><trkpt lat="25.15131" lon="55.8042"/><trkpt lat="25.15165" lon="55.8043"/><trkpt lat="25.15185" lon="55.80387"/><trkpt lat="25.15177" lon="55.80345"/><trkpt lat="25.1512" lon="55.80269"/><trkpt lat="25.15079" lon="55.80268"/><trkpt lat="25.15049" lon="55.80294"/><trkpt lat="25.15046" lon="55.80333"/><trkpt lat="25.1506" lon="55.8038"/><trkpt lat="25.15113" lon="55.80425"/><trkpt lat="25.15146" lon="55.80421"/><trkpt lat="25.15134" lon="55.80444"/><trkpt lat="25.15167" lon="55.80435"/><trkpt lat="25.15186" lon="55.80395"/><trkpt lat="25.15182" lon="55.80364"/><trkpt lat="25.15149" lon="55.80303"/><trkpt lat="25.15107" lon="55.80267"/><trkpt lat="25.15075" lon="55.80268"/><trkpt lat="25.15035" lon="55.80286"/><trkpt lat="25.15035" lon="55.80319"/><trkpt lat="25.15075" lon="55.80409"/><trkpt lat="25.15114" lon="55.80429"/><trkpt lat="25.15145" lon="55.80414"/><trkpt lat="25.1516" lon="55.80425"/><trkpt lat="25.15149" lon="55.80443"/><trkpt lat="25.1513" lon="55.80418"/><trkpt lat="25.15148" lon="55.80416"/><trkpt lat="25.15156" lon="55.80434"/><trkpt lat="25.15113" lon="55.80577"/><trkpt lat="25.15155" lon="55.80642"/><trkpt lat="25.15171" lon="55.80696"/><trkpt lat="25.15112" lon="55.80941"/><trkpt lat="25.15145" lon="55.80976"/><trkpt lat="25.15181" lon="55.8099"/><trkpt lat="25.15196" lon="55.81013"/><trkpt lat="25.15206" lon="55.81153"/><trkpt lat="25.15193" lon="55.81204"/><trkpt lat="25.15213" lon="55.81229"/><trkpt lat="25.15202" lon="55.81303"/><trkpt lat="25.1523" lon="55.81373"/><trkpt lat="25.15264" lon="55.81388"/><trkpt lat="25.15276" lon="55.81438"/><trkpt lat="25.15266" lon="55.81565"/><trkpt lat="25.15246" lon="55.81596"/><trkpt lat="25.15262" lon="55.81656"/><trkpt lat="25.15226" lon="55.81664"/><trkpt lat="25.15226" lon="55.81698"/><trkpt lat="25.15249" lon="55.81746"/><trkpt lat="25.15239" lon="55.81811"/><trkpt lat="25.152" lon="55.81828"/><trkpt lat="25.15162" lon="55.81932"/><trkpt lat="25.15138" lon="55.81918"/><trkpt lat="25.15116" lon="55.81931"/><trkpt lat="25.15084" lon="55.82001"/><trkpt lat="25.15058" lon="55.81977"/><trkpt lat="25.15046" lon="55.81986"/><trkpt lat="25.15037" lon="55.82006"/><trkpt lat="25.15048" lon="55.82031"/><trkpt lat="25.1504" lon="55.82053"/><trkpt lat="25.14998" lon="55.82073"/><trkpt lat="25.1498" lon="55.82113"/><trkpt lat="25.14976" lon="55.82162"/><trkpt lat="25.14749" lon="55.82116"/><trkpt lat="25.14636" lon="55.82054"/><trkpt lat="25.14609" lon="55.82059"/><trkpt lat="25.14584" lon="55.8209"/><trkpt lat="25.14601" lon="55.82227"/><trkpt lat="25.14633" lon="55.8233"/><trkpt lat="25.14622" lon="55.82368"/><trkpt lat="25.14592" lon="55.8235"/><trkpt lat="25.14556" lon="55.82391"/><trkpt lat="25.14569" lon="55.82418"/><trkpt lat="25.14558" lon="55.82441"/><trkpt lat="25.14561" lon="55.82539"/><trkpt lat="25.14549" lon="55.82594"/><trkpt lat="25.14561" lon="55.82651"/><trkpt lat="25.14559" lon="55.82724"/><trkpt lat="25.14538" lon="55.82762"/><trkpt lat="25.14541" lon="55.82802"/><trkpt lat="25.14519" lon="55.82836"/><trkpt lat="25.14468" lon="55.82987"/><trkpt lat="25.14478" lon="55.83008"/><trkpt lat="25.14393" lon="55.83438"/><trkpt lat="25.14394" lon="55.83468"/><trkpt lat="25.14436" lon="55.83498"/><trkpt lat="25.14453" lon="55.83471"/><trkpt lat="25.1443" lon="55.83498"/><trkpt lat="25.14395" lon="55.83483"/><trkpt lat="25.14402" lon="55.83383"/><trkpt lat="25.14411" lon="55.83386"/><trkpt lat="25.14391" lon="55.83305"/><trkpt lat="25.14396" lon="55.83269"/><trkpt lat="25.14365" lon="55.83236"/><trkpt lat="25.14338" lon="55.83237"/><trkpt lat="25.14325" lon="55.83131"/><trkpt lat="25.14314" lon="55.83117"/><trkpt lat="25.14252" lon="55.83158"/><trkpt lat="25.1422" lon="55.83123"/><trkpt lat="25.14162" lon="55.83194"/><trkpt lat="25.14105" lon="55.83178"/><trkpt lat="25.14089" lon="55.83149"/><trkpt lat="25.14055" lon="55.83151"/><trkpt lat="25.14" lon="55.83222"/><trkpt lat="25.13977" lon="55.83228"/><trkpt lat="25.14008" lon="55.83266"/><trkpt lat="25.1399" lon="55.8329"/><trkpt lat="25.13973" lon="55.83384"/><trkpt lat="25.13914" lon="55.83424"/><trkpt lat="25.13873" lon="55.83423"/><trkpt lat="25.13863" lon="55.83434"/><trkpt lat="25.13906" lon="55.83486"/><trkpt lat="25.1403" lon="55.83568"/><trkpt lat="25.14108" lon="55.83656"/><trkpt lat="25.14175" lon="55.8381"/><trkpt lat="25.14255" lon="55.83941"/><trkpt lat="25.14357" lon="55.84031"/><trkpt lat="25.14405" lon="55.84109"/><trkpt lat="25.14411" lon="55.84223"/><trkpt lat="25.1437" lon="55.84531"/><trkpt lat="25.1444" lon="55.84923"/><trkpt lat="25.14481" lon="55.85289"/><trkpt lat="25.14504" lon="55.85395"/><trkpt lat="25.14498" lon="55.85662"/><trkpt lat="25.14536" lon="55.8593"/><trkpt lat="25.14513" lon="55.86137"/><trkpt lat="25.14497" lon="55.86198"/><trkpt lat="25.14522" lon="55.86276"/><trkpt lat="25.145" lon="55.86365"/><trkpt lat="25.14495" lon="55.86513"/><trkpt lat="25.14462" lon="55.86558"/><trkpt lat="25.14456" lon="55.86695"/><trkpt lat="25.14444" lon="55.86693"/><trkpt lat="25.14416" lon="55.86648"/><trkpt lat="25.144" lon="55.8665"/><trkpt lat="25.14393" lon="55.8667"/><trkpt lat="25.14432" lon="55.86696"/><trkpt lat="25.14676" lon="55.87079"/><trkpt lat="25.14742" lon="55.87164"/><trkpt lat="25.14889" lon="55.87302"/><trkpt lat="25.15058" lon="55.87415"/><trkpt lat="25.15081" lon="55.87501"/><trkpt lat="25.15128" lon="55.87542"/><trkpt lat="25.15148" lon="55.8758"/><trkpt lat="25.15147" lon="55.87618"/><trkpt lat="25.15118" lon="55.87683"/><trkpt lat="25.14992" lon="55.87897"/><trkpt lat="25.14954" lon="55.87904"/><trkpt lat="25.14896" lon="55.87888"/><trkpt lat="25.14883" lon="55.87898"/><trkpt lat="25.14879" lon="55.87907"/><trkpt lat="25.14916" lon="55.87928"/><trkpt lat="25.14934" lon="55.87955"/><trkpt lat="25.14939" lon="55.88004"/><trkpt lat="25.14729" lon="55.88375"/></trkseg></trk></gpx>
