<?xml version="1.0" encoding="UTF-8"?>
<gpx version="1.1" creator="Nomad Outdoors" xmlns="http://www.topografix.com/GPX/1/1"><metadata><name>Maleiha Fossil Rock</name><link href="https://www.nomadoutdoors.org/routes/2020-03-06-maleiha-fossil-rock"/></metadata><trk><name>Maleiha Fossil Rock</name><trkseg><trkpt lat="25.14038" lon="55.74327"/><trkpt lat="25.14163" lon="55.74319"/><trkpt lat="25.14448" lon="55.74335"/><trkpt lat="25.14582" lon="55.7433"/><trkpt lat="25.15638" lon="55.7416"/><trkpt lat="25.15657" lon="55.74164"/><trkpt lat="25.15665" lon="55.74181"/><trkpt lat="25.15585" lon="55.74245"/><trkpt lat="25.15627" lon="55.74432"/><trkpt lat="25.15587" lon="55.74605"/><trkpt lat="25.15566" lon="55.74764"/><trkpt lat="25.15557" lon="55.74971"/><trkpt lat="25.15532" lon="55.75118"/><trkpt lat="25.15517" lon="55.75729"/><trkpt lat="25.15484" lon="55.75847"/><trkpt lat="25.1548" lon="55.75983"/><trkpt lat="25.15494" lon="55.76075"/><trkpt lat="25.15483" lon="55.76203"/><trkpt lat="25.15433" lon="55.76296"/><trkpt lat="25.15498" lon="55.7632"/><trkpt lat="25.15513" lon="55.76348"/><trkpt lat="25.15501" lon="55.76363"/><trkpt lat="25.15436" lon="55.76379"/><trkpt lat="25.15416" lon="55.764"/><trkpt lat="25.15424" lon="55.76423"/><trkpt lat="25.15476" lon="55.76444"/><trkpt lat="25.15538" lon="55.76499"/><trkpt lat="25.15524" lon="55.76519"/><trkpt lat="25.15459" lon="55.76526"/><trkpt lat="25.15443" lon="55.76544"/><trkpt lat="25.15461" lon="55.76601"/><trkpt lat="25.15518" lon="55.76623"/><trkpt lat="25.15527" lon="55.76648"/><trkpt lat="25.15514" lon="55.76724"/><trkpt lat="25.15491" lon="55.76781"/><trkpt lat="25.15443" lon="55.76803"/><trkpt lat="25.15429" lon="55.76838"/><trkpt lat="25.15442" lon="55.76892"/><trkpt lat="25.15493" lon="55.76913"/><trkpt lat="25.15529" lon="55.76911"/><trkpt lat="25.15537" lon="55.76922"/><trkpt lat="25.15517" lon="55.76959"/><trkpt lat="25.15475" lon="55.76966"/><trkpt lat="25.15459" lon="55.76981"/><trkpt lat="25.15446" lon="55.77165"/><trkpt lat="25.15413" lon="55.77198"/><trkpt lat="25.15422" lon="55.77249"/><trkpt lat="25.15413" lon="55.77292"/><trkpt lat="25.15423" lon="55.77319"/><trkpt lat="25.15412" lon="55.77354"/><trkpt lat="25.15427" lon="55.77363"/><trkpt lat="25.15464" lon="55.77431"/><trkpt lat="25.15412" lon="55.77522"/><trkpt lat="25.15406" lon="55.77546"/><trkpt lat="25.15421" lon="55.77542"/><trkpt lat="25.15436" lon="55.77499"/><trkpt lat="25.15423" lon="55.77488"/><trkpt lat="25.15361" lon="55.77667"/><trkpt lat="25.15325" lon="55.77702"/><trkpt lat="25.15318" lon="55.77725"/><trkpt lat="25.15333" lon="55.7777"/><trkpt lat="25.15331" lon="55.77809"/><trkpt lat="25.15356" lon="55.77844"/><trkpt lat="25.15336" lon="55.77908"/><trkpt lat="25.15375" lon="55.78083"/><trkpt lat="25.15365" lon="55.781"/><trkpt lat="25.15362" lon="55.78164"/><trkpt lat="25.15343" lon="55.78198"/><trkpt lat="25.15355" lon="55.78249"/><trkpt lat="25.15351" lon="55.78365"/><trkpt lat="25.15324" lon="55.78455"/><trkpt lat="25.15294" lon="55.78653"/><trkpt lat="25.15284" lon="55.78885"/><trkpt lat="25.15348" lon="55.78935"/><trkpt lat="25.15356" lon="55.78994"/><trkpt lat="25.1534" lon="55.79032"/><trkpt lat="25.15291" lon="55.79046"/><trkpt lat="25.15274" lon="55.79098"/><trkpt lat="25.15283" lon="55.79117"/><trkpt lat="25.15338" lon="55.79127"/><trkpt lat="25.15355" lon="55.79148"/><trkpt lat="25.15355" lon="55.79158"/><trkpt lat="25.15329" lon="55.79165"/><trkpt lat="25.15321" lon="55.79186"/><trkpt lat="25.15363" lon="55.79274"/><trkpt lat="25.15291" lon="55.7933"/><trkpt lat="25.15294" lon="55.7937"/><trkpt lat="25.15343" lon="55.79377"/><trkpt lat="25.15368" lon="55.79364"/><trkpt lat="25.15444" lon="55.79456"/><trkpt lat="25.15435" lon="55.79526"/><trkpt lat="25.15395" lon="55.79554"/><trkpt lat="25.15416" lon="55.79603"/><trkpt lat="25.15375" lon="55.79706"/><trkpt lat="25.15429" lon="55.797"/><trkpt lat="25.15457" lon="55.79718"/><trkpt lat="25.15392" lon="55.7978"/><trkpt lat="25.15447" lon="55.79814"/><trkpt lat="25.15416" lon="55.7983"/><trkpt lat="25.15401" lon="55.79856"/><trkpt lat="25.15437" lon="55.79918"/><trkpt lat="25.15418" lon="55.79992"/><trkpt lat="25.1543" lon="55.80114"/><trkpt lat="25.15421" lon="55.80152"/><trkpt lat="25.15482" lon="55.80236"/><trkpt lat="25.15419" lon="55.80272"/><trkpt lat="25.15419" lon="55.8029"/><trkpt lat="25.15447" lon="55.80308"/><trkpt lat="25.15446" lon="55.80328"/><trkpt lat="25.15431" lon="55.8034"/><trkpt lat="25.15406" lon="55.80322"/><trkpt lat="25.15364" lon="55.80325"/><trkpt lat="25.15332" lon="55.80262"/><trkpt lat="25.15322" lon="55.80264"/><trkpt lat="25.15305" lon="55.80299"/><trkpt lat="25.15316" lon="55.80321"/><trkpt lat="25.15298" lon="55.80348"/><trkpt lat="25.15264" lon="55.80355"/><trkpt lat="25.15235" lon="55.80378"/><trkpt lat="25.15186" lon="55.80484"/><trkpt lat="25.15198" lon="55.80544"/><trkpt lat="25.1523" lon="55.80551"/><trkpt lat="25.15284" lon="55.80606"/><trkpt lat="25.15291" lon="55.8064"/><trkpt lat="25.15333" lon="55.80709"/><trkpt lat="25.15385" lon="55.80732"/><trkpt lat="25.15411" lon="55.80695"/><trkpt lat="25.15406" lon="55.80614"/><trkpt lat="25.15383" lon="55.80562"/><trkpt lat="25.15338" lon="55.80552"/><trkpt lat="25.15302" lon="55.80566"/><trkpt lat="25.15288" lon="55.80613"/><trkpt lat="25.1529" lon="55.80652"/><trkpt lat="25.153" lon="55.80667"/><trkpt lat="25.15311" lon="55.80662"/><trkpt lat="25.15303" lon="55.80436"/><trkpt lat="25.15267" lon="55.80421"/><trkpt lat="25.15209" lon="55.80446"/><trkpt lat="25.15191" lon="55.80492"/><trkpt lat="25.152" lon="55.80535"/><trkpt lat="25.15244" lon="55.80558"/><trkpt lat="25.15239" lon="55.80618"/><trkpt lat="25.15155" lon="55.80773"/><trkpt lat="25.15148" lon="55.80828"/><trkpt lat="25.15114" lon="55.80909"/><trkpt lat="25.15153" lon="55.80935"/><trkpt lat="25.15179" lon="55.80931"/><trkpt lat="25.15232" lon="55.80989"/><trkpt lat="25.1529" lon="55.80978"/><trkpt lat="25.1531" lon="55.80989"/><trkpt lat="25.15329" lon="55.81029"/><trkpt lat="25.15295" lon="55.81094"/><trkpt lat="25.15304" lon="55.81202"/><trkpt lat="25.15332" lon="55.81215"/><trkpt lat="25.1546" lon="55.81328"/><trkpt lat="25.15451" lon="55.81354"/><trkpt lat="25.15474" lon="55.81363"/><trkpt lat="25.15524" lon="55.8142"/><trkpt lat="25.15562" lon="55.8152"/><trkpt lat="25.15607" lon="55.81476"/><trkpt lat="25.15606" lon="55.81404"/><trkpt lat="25.15585" lon="55.81357"/><trkpt lat="25.15515" lon="55.81348"/><trkpt lat="25.15473" lon="55.81398"/><trkpt lat="25.15487" lon="55.81432"/><trkpt lat="25.15557" lon="55.81514"/><trkpt lat="25.15575" lon="55.81522"/><trkpt lat="25.15612" lon="55.81495"/><trkpt lat="25.15626" lon="55.81471"/><trkpt lat="25.15572" lon="55.8137"/><trkpt lat="25.15546" lon="55.81346"/><trkpt lat="25.15501" lon="55.8133"/><trkpt lat="25.15461" lon="55.81396"/><trkpt lat="25.15457" lon="55.81443"/><trkpt lat="25.15456" lon="55.81473"/><trkpt lat="25.15485" lon="55.81525"/><trkpt lat="25.15551" lon="55.81548"/><trkpt lat="25.15599" lon="55.81488"/><trkpt lat="25.15626" lon="55.8148"/><trkpt lat="25.15648" lon="55.81551"/><trkpt lat="25.15675" lon="55.81589"/><trkpt lat="25.15787" lon="55.81642"/><trkpt lat="25.15765" lon="55.81751"/><trkpt lat="25.15798" lon="55.81809"/><trkpt lat="25.15776" lon="55.81891"/><trkpt lat="25.1576" lon="55.81896"/><trkpt lat="25.15728" lon="55.81949"/><trkpt lat="25.15715" lon="55.8204"/><trkpt lat="25.1576" lon="55.82079"/><trkpt lat="25.1577" lon="55.82105"/><trkpt lat="25.15763" lon="55.82121"/><trkpt lat="25.15795" lon="55.82152"/><trkpt lat="25.15669" lon="55.82308"/><trkpt lat="25.15641" lon="55.82299"/><trkpt lat="25.15588" lon="55.82253"/><trkpt lat="25.15422" lon="55.8226"/><trkpt lat="25.1531" lon="55.82242"/><trkpt lat="25.15116" lon="55.82184"/><trkpt lat="25.14748" lon="55.82114"/><trkpt lat="25.14639" lon="55.82055"/><trkpt lat="25.14547" lon="55.82073"/><trkpt lat="25.14458" lon="55.82063"/><trkpt lat="25.14442" lon="55.82076"/><trkpt lat="25.14412" lon="55.82147"/><trkpt lat="25.14409" lon="55.82201"/><trkpt lat="25.14436" lon="55.82351"/><trkpt lat="25.14463" lon="55.82384"/><trkpt lat="25.14449" lon="55.82421"/><trkpt lat="25.14448" lon="55.82455"/><trkpt lat="25.1446" lon="55.82468"/><trkpt lat="25.14452" lon="55.82515"/><trkpt lat="25.14476" lon="55.8256"/><trkpt lat="25.14485" lon="55.8263"/><trkpt lat="25.14484" lon="55.82661"/><trkpt lat="25.14466" lon="55.8266"/><trkpt lat="25.14452" lon="55.82697"/><trkpt lat="25.14494" lon="55.8276"/><trkpt lat="25.14488" lon="55.82782"/><trkpt lat="25.14475" lon="55.82783"/><trkpt lat="25.14467" lon="55.82761"/><trkpt lat="25.14485" lon="55.82749"/><trkpt lat="25.14496" lon="55.8276"/><trkpt lat="25.1447" lon="55.82777"/><trkpt lat="25.14438" lon="55.82825"/><trkpt lat="25.14395" lon="55.82965"/><trkpt lat="25.14353" lon="55.83024"/><trkpt lat="25.14352" lon="55.83085"/><trkpt lat="25.14358" lon="55.83103"/><trkpt lat="25.14361" lon="55.83091"/><trkpt lat="25.14351" lon="55.83036"/><trkpt lat="25.14388" lon="55.83004"/><trkpt lat="25.14452" lon="55.82782"/><trkpt lat="25.14432" lon="55.82752"/><trkpt lat="25.14428" lon="55.82717"/><trkpt lat="25.14406" lon="55.82704"/><trkpt lat="25.14408" lon="55.82692"/><trkpt lat="25.14422" lon="55.8269"/><trkpt lat="25.14398" lon="55.82618"/><trkpt lat="25.14411" lon="55.82589"/><trkpt lat="25.14415" lon="55.82529"/><trkpt lat="25.1438" lon="55.82461"/><trkpt lat="25.14377" lon="55.82429"/><trkpt lat="25.14416" lon="55.82344"/><trkpt lat="25.144" lon="55.82317"/><trkpt lat="25.14419" lon="55.82254"/><trkpt lat="25.14405" lon="55.8216"/><trkpt lat="25.14435" lon="55.82079"/><trkpt lat="25.14406" lon="55.82043"/><trkpt lat="25.14388" lon="55.82047"/><trkpt lat="25.14408" lon="55.82044"/><trkpt lat="25.14427" lon="55.82064"/><trkpt lat="25.14402" lon="55.82056"/><trkpt lat="25.14405" lon="55.82044"/><trkpt lat="25.14351" lon="55.82023"/><trkpt lat="25.14348" lon="55.82036"/><trkpt lat="25.14426" lon="55.82063"/><trkpt lat="25.14529" lon="55.82073"/><trkpt lat="25.14635" lon="55.82058"/><trkpt lat="25.14725" lon="55.82107"/><trkpt lat="25.14787" lon="55.82126"/><trkpt lat="25.15013" lon="55.82166"/><trkpt lat="25.15398" lon="55.82261"/><trkpt lat="25.15576" lon="55.82251"/><trkpt lat="25.15606" lon="55.82264"/><trkpt lat="25.15634" lon="55.823"/><trkpt lat="25.1571" lon="55.82334"/><trkpt lat="25.1583" lon="55.8235"/><trkpt lat="25.1606" lon="55.82411"/><trkpt lat="25.16162" lon="55.8242"/><trkpt lat="25.16473" lon="55.82516"/><trkpt lat="25.16564" lon="55.82511"/><trkpt lat="25.16632" lon="55.82528"/><trkpt lat="25.16669" lon="55.82555"/><trkpt lat="25.16665" lon="55.82603"/><trkpt lat="25.16696" lon="55.82646"/><trkpt lat="25.16722" lon="55.82664"/><trkpt lat="25.16791" lon="55.82671"/><trkpt lat="25.16826" lon="55.82729"/><trkpt lat="25.1683" lon="55.8289"/><trkpt lat="25.16785" lon="55.83607"/><trkpt lat="25.16772" lon="55.84028"/></trkseg></trk></gpx>
