<?xml version="1.0" encoding="UTF-8"?>
<gpx version="1.1" creator="Nomad Outdoors" xmlns="http://www.topografix.com/GPX/1/1"><metadata><name>Sweihan</name><link href="https://www.nomadoutdoors.org/routes/2020-03-06-sweihan"/></metadata><trk><name>Sweihan</name><trkseg><trkpt lat="24.3165" lon="55.42171"/><trkpt lat="24.31601" lon="55.42213"/><trkpt lat="24.31573" lon="55.42206"/><trkpt lat="24.31562" lon="55.42142"/><trkpt lat="24.31547" lon="55.42123"/><trkpt lat="24.31539" lon="55.42141"/><trkpt lat="24.31562" lon="55.42146"/><trkpt lat="24.31545" lon="55.4212"/><trkpt lat="24.31504" lon="55.42181"/><trkpt lat="24.31488" lon="55.42185"/><trkpt lat="24.31495" lon="55.42262"/><trkpt lat="24.31418" lon="55.42275"/><trkpt lat="24.31413" lon="55.42286"/><trkpt lat="24.31423" lon="55.423"/><trkpt lat="24.31448" lon="55.42303"/><trkpt lat="24.3146" lon="55.42334"/><trkpt lat="24.31445" lon="55.42385"/><trkpt lat="24.31502" lon="55.42409"/><trkpt lat="24.31516" lon="55.42428"/><trkpt lat="24.31515" lon="55.42452"/><trkpt lat="24.31497" lon="55.42473"/><trkpt lat="24.31471" lon="55.42478"/><trkpt lat="24.31446" lon="55.42446"/><trkpt lat="24.31439" lon="55.42415"/><trkpt lat="24.31408" lon="55.42404"/><trkpt lat="24.31389" lon="55.42451"/><trkpt lat="24.31382" lon="55.42506"/><trkpt lat="24.31407" lon="55.42543"/><trkpt lat="24.31405" lon="55.42597"/><trkpt lat="24.31468" lon="55.42659"/><trkpt lat="24.31451" lon="55.42705"/><trkpt lat="24.31431" lon="55.42723"/><trkpt lat="24.31446" lon="55.42771"/><trkpt lat="24.31469" lon="55.42791"/><trkpt lat="24.31552" lon="55.4276"/><trkpt lat="24.31589" lon="55.42774"/><trkpt lat="24.31533" lon="55.42847"/><trkpt lat="24.31564" lon="55.42873"/><trkpt lat="24.31573" lon="55.42914"/><trkpt lat="24.31533" lon="55.42987"/><trkpt lat="24.31544" lon="55.43048"/><trkpt lat="24.31566" lon="55.43049"/><trkpt lat="24.31629" lon="55.42991"/><trkpt lat="24.31685" lon="55.42999"/><trkpt lat="24.31744" lon="55.42978"/><trkpt lat="24.31762" lon="55.42982"/><trkpt lat="24.31757" lon="55.43021"/><trkpt lat="24.31693" lon="55.43059"/><trkpt lat="24.31652" lon="55.43133"/><trkpt lat="24.31645" lon="55.4321"/><trkpt lat="24.31673" lon="55.43263"/><trkpt lat="24.31698" lon="55.43277"/><trkpt lat="24.31775" lon="55.43277"/><trkpt lat="24.31841" lon="55.43224"/><trkpt lat="24.31834" lon="55.43201"/><trkpt lat="24.31783" lon="55.43182"/><trkpt lat="24.3175" lon="55.43151"/><trkpt lat="24.31736" lon="55.43118"/><trkpt lat="24.31742" lon="55.43067"/><trkpt lat="24.31807" lon="55.43053"/><trkpt lat="24.31821" lon="55.43063"/><trkpt lat="24.3184" lon="55.43125"/><trkpt lat="24.31881" lon="55.43149"/><trkpt lat="24.31923" lon="55.43134"/><trkpt lat="24.31944" lon="55.43104"/><trkpt lat="24.31935" lon="55.43077"/><trkpt lat="24.31818" lon="55.43038"/><trkpt lat="24.31786" lon="55.43"/><trkpt lat="24.318" lon="55.42958"/><trkpt lat="24.31883" lon="55.42932"/><trkpt lat="24.31834" lon="55.42903"/><trkpt lat="24.31837" lon="55.42892"/><trkpt lat="24.31892" lon="55.4288"/><trkpt lat="24.31886" lon="55.42855"/><trkpt lat="24.3186" lon="55.42852"/><trkpt lat="24.31864" lon="55.42838"/><trkpt lat="24.31895" lon="55.42846"/><trkpt lat="24.31937" lon="55.42909"/><trkpt lat="24.31998" lon="55.42965"/><trkpt lat="24.31977" lon="55.43059"/><trkpt lat="24.31991" lon="55.43169"/><trkpt lat="24.31987" lon="55.43247"/><trkpt lat="24.32009" lon="55.4329"/><trkpt lat="24.32066" lon="55.43316"/><trkpt lat="24.32067" lon="55.43344"/><trkpt lat="24.32038" lon="55.43401"/><trkpt lat="24.32066" lon="55.43443"/><trkpt lat="24.32036" lon="55.43491"/><trkpt lat="24.32032" lon="55.43521"/><trkpt lat="24.32041" lon="55.43562"/><trkpt lat="24.32088" lon="55.43592"/><trkpt lat="24.32092" lon="55.4361"/><trkpt lat="24.32058" lon="55.43649"/><trkpt lat="24.32068" lon="55.43674"/><trkpt lat="24.32058" lon="55.43691"/><trkpt lat="24.31835" lon="55.43617"/><trkpt lat="24.31814" lon="55.43679"/><trkpt lat="24.31761" lon="55.43756"/><trkpt lat="24.31755" lon="55.43794"/><trkpt lat="24.3178" lon="55.43864"/><trkpt lat="24.31838" lon="55.43883"/><trkpt lat="24.31859" lon="55.43905"/><trkpt lat="24.31844" lon="55.4398"/><trkpt lat="24.31859" lon="55.44122"/><trkpt lat="24.3188" lon="55.44154"/><trkpt lat="24.31934" lon="55.44168"/><trkpt lat="24.31994" lon="55.44229"/><trkpt lat="24.31991" lon="55.44258"/><trkpt lat="24.31955" lon="55.44319"/><trkpt lat="24.31955" lon="55.44355"/><trkpt lat="24.31965" lon="55.44379"/><trkpt lat="24.32015" lon="55.44423"/><trkpt lat="24.31993" lon="55.4448"/><trkpt lat="24.32018" lon="55.44477"/><trkpt lat="24.32053" lon="55.44502"/><trkpt lat="24.3206" lon="55.44523"/><trkpt lat="24.32004" lon="55.44573"/><trkpt lat="24.3197" lon="55.44637"/><trkpt lat="24.31994" lon="55.44521"/><trkpt lat="24.32043" lon="55.44476"/><trkpt lat="24.3203" lon="55.44436"/><trkpt lat="24.32047" lon="55.44422"/><trkpt lat="24.32062" lon="55.44429"/><trkpt lat="24.32056" lon="55.44481"/><trkpt lat="24.32025" lon="55.44492"/><trkpt lat="24.31992" lon="55.4453"/><trkpt lat="24.31971" lon="55.44537"/><trkpt lat="24.31935" lon="55.44525"/><trkpt lat="24.31893" lon="55.44538"/><trkpt lat="24.31885" lon="55.44574"/><trkpt lat="24.31893" lon="55.44624"/><trkpt lat="24.31864" lon="55.44689"/><trkpt lat="24.31893" lon="55.44729"/><trkpt lat="24.31936" lon="55.44686"/><trkpt lat="24.31938" lon="55.44669"/><trkpt lat="24.31909" lon="55.44677"/><trkpt lat="24.3189" lon="55.44721"/><trkpt lat="24.31949" lon="55.4478"/><trkpt lat="24.3195" lon="55.44809"/><trkpt lat="24.31969" lon="55.44837"/><trkpt lat="24.3197" lon="55.44877"/><trkpt lat="24.32001" lon="55.44917"/><trkpt lat="24.31995" lon="55.45021"/><trkpt lat="24.32015" lon="55.45035"/><trkpt lat="24.32071" lon="55.45031"/><trkpt lat="24.32097" lon="55.45056"/><trkpt lat="24.32124" lon="55.45167"/><trkpt lat="24.3211" lon="55.45252"/><trkpt lat="24.32151" lon="55.45306"/><trkpt lat="24.32134" lon="55.45367"/><trkpt lat="24.3211" lon="55.45391"/><trkpt lat="24.32149" lon="55.45453"/><trkpt lat="24.32114" lon="55.45484"/><trkpt lat="24.32107" lon="55.45505"/><trkpt lat="24.3212" lon="55.45545"/><trkpt lat="24.3223" lon="55.45605"/><trkpt lat="24.32218" lon="55.45668"/><trkpt lat="24.32222" lon="55.45703"/><trkpt lat="24.32241" lon="55.4574"/><trkpt lat="24.32285" lon="55.45771"/><trkpt lat="24.32303" lon="55.45814"/><trkpt lat="24.32295" lon="55.45863"/><trkpt lat="24.32275" lon="55.45903"/><trkpt lat="24.32299" lon="55.4598"/><trkpt lat="24.32273" lon="55.46077"/><trkpt lat="24.32295" lon="55.46133"/><trkpt lat="24.32278" lon="55.46192"/><trkpt lat="24.32315" lon="55.46212"/><trkpt lat="24.32414" lon="55.4631"/><trkpt lat="24.32416" lon="55.46332"/><trkpt lat="24.32371" lon="55.46398"/><trkpt lat="24.32379" lon="55.46458"/><trkpt lat="24.3246" lon="55.46472"/><trkpt lat="24.32469" lon="55.46484"/><trkpt lat="24.32466" lon="55.46567"/><trkpt lat="24.32498" lon="55.46648"/><trkpt lat="24.32467" lon="55.46796"/><trkpt lat="24.32536" lon="55.46818"/><trkpt lat="24.32575" lon="55.46846"/><trkpt lat="24.32588" lon="55.46916"/><trkpt lat="24.32573" lon="55.4697"/><trkpt lat="24.3262" lon="55.47025"/><trkpt lat="24.32573" lon="55.47098"/><trkpt lat="24.32613" lon="55.47129"/><trkpt lat="24.32616" lon="55.4715"/><trkpt lat="24.32595" lon="55.47176"/><trkpt lat="24.32586" lon="55.47213"/><trkpt lat="24.32656" lon="55.47209"/><trkpt lat="24.32694" lon="55.47303"/><trkpt lat="24.32731" lon="55.47308"/><trkpt lat="24.32783" lon="55.47348"/><trkpt lat="24.32831" lon="55.47364"/><trkpt lat="24.3287" lon="55.47399"/><trkpt lat="24.32919" lon="55.47418"/><trkpt lat="24.32948" lon="55.47456"/><trkpt lat="24.33071" lon="55.47483"/><trkpt lat="24.33091" lon="55.47519"/><trkpt lat="24.3314" lon="55.47525"/><trkpt lat="24.33226" lon="55.47579"/><trkpt lat="24.33318" lon="55.47573"/><trkpt lat="24.33349" lon="55.47648"/><trkpt lat="24.33348" lon="55.47694"/><trkpt lat="24.33366" lon="55.47736"/><trkpt lat="24.33393" lon="55.47743"/><trkpt lat="24.33426" lon="55.47802"/><trkpt lat="24.33498" lon="55.47843"/><trkpt lat="24.33527" lon="55.47894"/></trkseg></trk></gpx>
