<?xml version="1.0" encoding="UTF-8"?>
<gpx version="1.1" creator="Nomad Outdoors" xmlns="http://www.topografix.com/GPX/1/1"><metadata><name>Solar Park loop</name><link href="https://www.nomadoutdoors.org/routes/2020-02-21-solar-park-loop"/></metadata><trk><name>Solar Park loop</name><trkseg><trkpt lat="24.7541" lon="55.36087"/><trkpt lat="24.74735" lon="55.36088"/><trkpt lat="24.74591" lon="55.36022"/><trkpt lat="24.74528" lon="55.36048"/><trkpt lat="24.74519" lon="55.36004"/><trkpt lat="24.74497" lon="55.35989"/><trkpt lat="24.7448" lon="55.35947"/><trkpt lat="24.74482" lon="55.35802"/><trkpt lat="24.74498" lon="55.35769"/><trkpt lat="24.74455" lon="55.35673"/><trkpt lat="24.74421" lon="55.35679"/><trkpt lat="24.74407" lon="55.35658"/><trkpt lat="24.74392" lon="55.35596"/><trkpt lat="24.74397" lon="55.35534"/><trkpt lat="24.74345" lon="55.35425"/><trkpt lat="24.74345" lon="55.35349"/><trkpt lat="24.74332" lon="55.35332"/><trkpt lat="24.74305" lon="55.35323"/><trkpt lat="24.74262" lon="55.35272"/><trkpt lat="24.74246" lon="55.35229"/><trkpt lat="24.74187" lon="55.35164"/><trkpt lat="24.74173" lon="55.35077"/><trkpt lat="24.74133" lon="55.35074"/><trkpt lat="24.74112" lon="55.35047"/><trkpt lat="24.74084" lon="55.35037"/><trkpt lat="24.74054" lon="55.35065"/><trkpt lat="24.73994" lon="55.3507"/><trkpt lat="24.73983" lon="55.3505"/><trkpt lat="24.73991" lon="55.35014"/><trkpt lat="24.7397" lon="55.34971"/><trkpt lat="24.73976" lon="55.34924"/><trkpt lat="24.73949" lon="55.34839"/><trkpt lat="24.73868" lon="55.34872"/><trkpt lat="24.73813" lon="55.34911"/><trkpt lat="24.73801" lon="55.34906"/><trkpt lat="24.73791" lon="55.3488"/><trkpt lat="24.73775" lon="55.34878"/><trkpt lat="24.73737" lon="55.34821"/><trkpt lat="24.73732" lon="55.34772"/><trkpt lat="24.73757" lon="55.34697"/><trkpt lat="24.73738" lon="55.34671"/><trkpt lat="24.73703" lon="55.34675"/><trkpt lat="24.73702" lon="55.34627"/><trkpt lat="24.73675" lon="55.34594"/><trkpt lat="24.7367" lon="55.34537"/><trkpt lat="24.73587" lon="55.34551"/><trkpt lat="24.73557" lon="55.34523"/><trkpt lat="24.73535" lon="55.34523"/><trkpt lat="24.73496" lon="55.34472"/><trkpt lat="24.735" lon="55.34411"/><trkpt lat="24.73455" lon="55.34385"/><trkpt lat="24.73419" lon="55.34334"/><trkpt lat="24.7336" lon="55.34316"/><trkpt lat="24.73336" lon="55.34264"/><trkpt lat="24.73317" lon="55.34291"/><trkpt lat="24.73323" lon="55.34335"/><trkpt lat="24.73344" lon="55.34283"/><trkpt lat="24.73324" lon="55.34208"/><trkpt lat="24.73305" lon="55.34222"/><trkpt lat="24.73298" lon="55.3426"/><trkpt lat="24.73252" lon="55.343"/><trkpt lat="24.73239" lon="55.34341"/><trkpt lat="24.73203" lon="55.34343"/><trkpt lat="24.73162" lon="55.34173"/><trkpt lat="24.7314" lon="55.34149"/><trkpt lat="24.73106" lon="55.34139"/><trkpt lat="24.73089" lon="55.34074"/><trkpt lat="24.73051" lon="55.34045"/><trkpt lat="24.73049" lon="55.34031"/><trkpt lat="24.73015" lon="55.34029"/><trkpt lat="24.73002" lon="55.33985"/><trkpt lat="24.7301" lon="55.33953"/><trkpt lat="24.72974" lon="55.33896"/><trkpt lat="24.7295" lon="55.33887"/><trkpt lat="24.72894" lon="55.33931"/><trkpt lat="24.72863" lon="55.33964"/><trkpt lat="24.72866" lon="55.33988"/><trkpt lat="24.72854" lon="55.33998"/><trkpt lat="24.72827" lon="55.33929"/><trkpt lat="24.7279" lon="55.33933"/><trkpt lat="24.72768" lon="55.33915"/><trkpt lat="24.72758" lon="55.3389"/><trkpt lat="24.72765" lon="55.33829"/><trkpt lat="24.7274" lon="55.33817"/><trkpt lat="24.72723" lon="55.33772"/><trkpt lat="24.72731" lon="55.33755"/><trkpt lat="24.72764" lon="55.33752"/><trkpt lat="24.72753" lon="55.33742"/><trkpt lat="24.72739" lon="55.33636"/><trkpt lat="24.72746" lon="55.33591"/><trkpt lat="24.72717" lon="55.33497"/><trkpt lat="24.72718" lon="55.33324"/><trkpt lat="24.72707" lon="55.33313"/><trkpt lat="24.72681" lon="55.33314"/><trkpt lat="24.72669" lon="55.33294"/><trkpt lat="24.72636" lon="55.33167"/><trkpt lat="24.72638" lon="55.33094"/><trkpt lat="24.72665" lon="55.33034"/><trkpt lat="24.72655" lon="55.33001"/><trkpt lat="24.72634" lon="55.33007"/><trkpt lat="24.72604" lon="55.33077"/><trkpt lat="24.72629" lon="55.33199"/><trkpt lat="24.72601" lon="55.33281"/><trkpt lat="24.72581" lon="55.333"/><trkpt lat="24.72562" lon="55.33252"/><trkpt lat="24.72537" lon="55.33257"/><trkpt lat="24.72479" lon="55.3323"/><trkpt lat="24.7246" lon="55.33233"/><trkpt lat="24.72453" lon="55.33252"/><trkpt lat="24.72487" lon="55.3333"/><trkpt lat="24.72461" lon="55.33391"/><trkpt lat="24.72462" lon="55.33418"/><trkpt lat="24.72488" lon="55.3346"/><trkpt lat="24.72475" lon="55.33565"/><trkpt lat="24.72492" lon="55.33594"/><trkpt lat="24.72467" lon="55.33634"/><trkpt lat="24.72447" lon="55.33624"/><trkpt lat="24.72412" lon="55.33549"/><trkpt lat="24.72361" lon="55.3349"/><trkpt lat="24.72373" lon="55.33435"/><trkpt lat="24.72361" lon="55.3339"/><trkpt lat="24.72314" lon="55.33366"/><trkpt lat="24.72272" lon="55.33247"/><trkpt lat="24.72269" lon="55.33166"/><trkpt lat="24.72223" lon="55.33126"/><trkpt lat="24.72216" lon="55.33369"/><trkpt lat="24.72248" lon="55.33404"/><trkpt lat="24.72252" lon="55.33425"/><trkpt lat="24.72207" lon="55.33532"/><trkpt lat="24.72271" lon="55.33638"/><trkpt lat="24.72259" lon="55.33682"/><trkpt lat="24.72222" lon="55.33739"/><trkpt lat="24.72196" lon="55.33728"/><trkpt lat="24.72185" lon="55.33684"/><trkpt lat="24.72172" lon="55.33673"/><trkpt lat="24.72152" lon="55.33692"/><trkpt lat="24.72145" lon="55.33736"/><trkpt lat="24.72128" lon="55.33739"/><trkpt lat="24.72116" lon="55.33726"/><trkpt lat="24.72091" lon="55.33635"/><trkpt lat="24.72096" lon="55.33568"/><trkpt lat="24.72073" lon="55.33533"/><trkpt lat="24.72068" lon="55.33487"/><trkpt lat="24.72017" lon="55.33508"/><trkpt lat="24.71982" lon="55.33489"/><trkpt lat="24.71987" lon="55.33515"/><trkpt lat="24.71964" lon="55.33521"/><trkpt lat="24.71959" lon="55.33534"/><trkpt lat="24.71946" lon="55.33692"/><trkpt lat="24.71886" lon="55.33727"/><trkpt lat="24.7188" lon="55.33649"/><trkpt lat="24.71893" lon="55.33634"/><trkpt lat="24.71913" lon="55.33652"/><trkpt lat="24.71922" lon="55.33712"/><trkpt lat="24.71894" lon="55.33726"/><trkpt lat="24.71876" lon="55.33704"/><trkpt lat="24.71876" lon="55.33647"/><trkpt lat="24.71855" lon="55.33593"/><trkpt lat="24.71862" lon="55.33569"/><trkpt lat="24.71845" lon="55.33535"/><trkpt lat="24.71827" lon="55.33545"/><trkpt lat="24.71843" lon="55.3353"/><trkpt lat="24.71843" lon="55.33489"/><trkpt lat="24.71777" lon="55.33364"/><trkpt lat="24.71734" lon="55.33329"/><trkpt lat="24.71703" lon="55.33344"/><trkpt lat="24.71672" lon="55.33331"/><trkpt lat="24.71642" lon="55.33401"/><trkpt lat="24.71645" lon="55.33451"/><trkpt lat="24.71683" lon="55.33505"/><trkpt lat="24.71671" lon="55.33537"/><trkpt lat="24.71647" lon="55.33506"/><trkpt lat="24.71626" lon="55.33416"/><trkpt lat="24.71599" lon="55.33414"/><trkpt lat="24.71579" lon="55.33431"/><trkpt lat="24.71574" lon="55.33461"/><trkpt lat="24.71561" lon="55.33441"/><trkpt lat="24.71537" lon="55.33454"/><trkpt lat="24.71476" lon="55.33521"/><trkpt lat="24.71481" lon="55.33605"/><trkpt lat="24.71472" lon="55.3364"/><trkpt lat="24.71487" lon="55.3375"/><trkpt lat="24.71456" lon="55.33827"/><trkpt lat="24.71468" lon="55.33883"/><trkpt lat="24.71448" lon="55.33921"/><trkpt lat="24.71427" lon="55.33916"/><trkpt lat="24.71415" lon="55.33964"/><trkpt lat="24.71454" lon="55.34098"/><trkpt lat="24.71445" lon="55.34136"/><trkpt lat="24.71466" lon="55.34173"/><trkpt lat="24.71451" lon="55.34183"/><trkpt lat="24.71426" lon="55.34164"/><trkpt lat="24.71413" lon="55.34112"/><trkpt lat="24.71383" lon="55.34061"/><trkpt lat="24.71406" lon="55.33966"/><trkpt lat="24.71399" lon="55.33949"/><trkpt lat="24.7137" lon="55.33937"/><trkpt lat="24.71345" lon="55.33894"/><trkpt lat="24.71342" lon="55.33822"/><trkpt lat="24.71355" lon="55.33771"/><trkpt lat="24.71332" lon="55.33707"/><trkpt lat="24.71301" lon="55.33687"/><trkpt lat="24.71246" lon="55.33603"/><trkpt lat="24.71149" lon="55.33537"/><trkpt lat="24.71134" lon="55.33495"/><trkpt lat="24.71104" lon="55.33469"/><trkpt lat="24.711" lon="55.33544"/><trkpt lat="24.71071" lon="55.33566"/><trkpt lat="24.71069" lon="55.33612"/><trkpt lat="24.71054" lon="55.33624"/><trkpt lat="24.71034" lon="55.3362"/><trkpt lat="24.71026" lon="55.33565"/><trkpt lat="24.71003" lon="55.33513"/><trkpt lat="24.71004" lon="55.33477"/><trkpt lat="24.71024" lon="55.33431"/><trkpt lat="24.71029" lon="55.33345"/><trkpt lat="24.70992" lon="55.33291"/><trkpt lat="24.70971" lon="55.33218"/><trkpt lat="24.70985" lon="55.33164"/><trkpt lat="24.70963" lon="55.3308"/><trkpt lat="24.7097" lon="55.33028"/><trkpt lat="24.70922" lon="55.32975"/><trkpt lat="24.70926" lon="55.32915"/><trkpt lat="24.70911" lon="55.32903"/><trkpt lat="24.70901" lon="55.32905"/><trkpt lat="24.70898" lon="55.32948"/><trkpt lat="24.7086" lon="55.32978"/><trkpt lat="24.7071" lon="55.33065"/><trkpt lat="24.70631" lon="55.33192"/><trkpt lat="24.70629" lon="55.33331"/><trkpt lat="24.70596" lon="55.33398"/><trkpt lat="24.70585" lon="55.33462"/><trkpt lat="24.70594" lon="55.33556"/><trkpt lat="24.70612" lon="55.33599"/><trkpt lat="24.70587" lon="55.33656"/><trkpt lat="24.70583" lon="55.33757"/><trkpt lat="24.70596" lon="55.33829"/><trkpt lat="24.70425" lon="55.33976"/><trkpt lat="24.70348" lon="55.34013"/><trkpt lat="24.703" lon="55.34055"/><trkpt lat="24.70179" lon="55.34195"/><trkpt lat="24.70047" lon="55.34394"/><trkpt lat="24.70023" lon="55.3445"/><trkpt lat="24.70003" lon="55.34731"/><trkpt lat="24.70012" lon="55.34776"/><trkpt lat="24.69964" lon="55.34813"/><trkpt lat="24.69939" lon="55.3487"/><trkpt lat="24.6994" lon="55.34912"/><trkpt lat="24.69926" lon="55.3495"/><trkpt lat="24.69934" lon="55.34999"/><trkpt lat="24.69899" lon="55.35055"/><trkpt lat="24.69898" lon="55.35114"/><trkpt lat="24.69908" lon="55.3515"/><trkpt lat="24.69918" lon="55.35146"/><trkpt lat="24.69905" lon="55.35078"/><trkpt lat="24.69865" lon="55.35216"/><trkpt lat="24.69873" lon="55.35236"/><trkpt lat="24.69864" lon="55.3529"/><trkpt lat="24.69876" lon="55.35338"/><trkpt lat="24.69859" lon="55.35387"/><trkpt lat="24.69894" lon="55.35454"/><trkpt lat="24.69886" lon="55.35546"/><trkpt lat="24.69901" lon="55.35656"/><trkpt lat="24.69855" lon="55.35704"/><trkpt lat="24.69877" lon="55.35761"/><trkpt lat="24.69864" lon="55.35865"/><trkpt lat="24.69887" lon="55.35923"/><trkpt lat="24.69859" lon="55.35997"/><trkpt lat="24.69848" lon="55.36095"/><trkpt lat="24.69861" lon="55.36104"/><trkpt lat="24.69871" lon="55.36156"/><trkpt lat="24.69865" lon="55.36239"/><trkpt lat="24.69877" lon="55.36367"/><trkpt lat="24.69865" lon="55.36427"/><trkpt lat="24.69877" lon="55.36481"/><trkpt lat="24.69859" lon="55.36711"/><trkpt lat="24.69845" lon="55.36801"/><trkpt lat="24.69829" lon="55.36827"/><trkpt lat="24.69843" lon="55.36855"/><trkpt lat="24.6984" lon="55.36905"/><trkpt lat="24.69797" lon="55.36951"/><trkpt lat="24.69785" lon="55.36947"/><trkpt lat="24.69781" lon="55.36923"/><trkpt lat="24.69767" lon="55.36921"/><trkpt lat="24.69759" lon="55.36965"/><trkpt lat="24.6978" lon="55.36946"/><trkpt lat="24.69754" lon="55.36958"/><trkpt lat="24.69781" lon="55.36991"/><trkpt lat="24.6979" lon="55.37049"/><trkpt lat="24.69766" lon="55.37142"/><trkpt lat="24.69742" lon="55.37174"/><trkpt lat="24.69759" lon="55.37205"/><trkpt lat="24.69757" lon="55.3729"/><trkpt lat="24.69739" lon="55.37352"/><trkpt lat="24.69746" lon="55.37374"/><trkpt lat="24.69717" lon="55.37585"/><trkpt lat="24.69684" lon="55.37575"/><trkpt lat="24.69661" lon="55.37432"/><trkpt lat="24.69643" lon="55.37428"/><trkpt lat="24.69623" lon="55.37444"/><trkpt lat="24.69603" lon="55.37413"/><trkpt lat="24.69586" lon="55.37417"/><trkpt lat="24.69569" lon="55.37393"/><trkpt lat="24.69552" lon="55.37433"/><trkpt lat="24.69563" lon="55.37477"/><trkpt lat="24.69526" lon="55.37516"/><trkpt lat="24.69523" lon="55.37533"/><trkpt lat="24.69541" lon="55.37588"/><trkpt lat="24.69549" lon="55.37683"/><trkpt lat="24.69589" lon="55.37791"/><trkpt lat="24.69599" lon="55.379"/><trkpt lat="24.69634" lon="55.3797"/><trkpt lat="24.69664" lon="55.38"/><trkpt lat="24.69656" lon="55.38039"/><trkpt lat="24.69691" lon="55.38088"/><trkpt lat="24.69705" lon="55.38151"/><trkpt lat="24.69701" lon="55.38196"/><trkpt lat="24.69764" lon="55.38267"/><trkpt lat="24.69791" lon="55.38322"/><trkpt lat="24.70331" lon="55.38426"/><trkpt lat="24.7064" lon="55.38513"/><trkpt lat="24.70978" lon="55.38587"/><trkpt lat="24.71239" lon="55.38656"/><trkpt lat="24.7141" lon="55.3873"/><trkpt lat="24.71502" lon="55.38757"/><trkpt lat="24.71712" lon="55.38763"/><trkpt lat="24.72152" lon="55.38724"/><trkpt lat="24.72481" lon="55.38723"/><trkpt lat="24.73204" lon="55.38674"/><trkpt lat="24.7349" lon="55.38638"/><trkpt lat="24.73606" lon="55.38601"/><trkpt lat="24.7388" lon="55.38589"/><trkpt lat="24.741" lon="55.38537"/><trkpt lat="24.74109" lon="55.38516"/><trkpt lat="24.74084" lon="55.38375"/><trkpt lat="24.74096" lon="55.38254"/><trkpt lat="24.74092" lon="55.3783"/><trkpt lat="24.7404" lon="55.37716"/><trkpt lat="24.74039" lon="55.37677"/><trkpt lat="24.74023" lon="55.37646"/><trkpt lat="24.74039" lon="55.37631"/><trkpt lat="24.74034" lon="55.37592"/><trkpt lat="24.74008" lon="55.37563"/><trkpt lat="24.73991" lon="55.37517"/><trkpt lat="24.74002" lon="55.37423"/><trkpt lat="24.73991" lon="55.37403"/><trkpt lat="24.73972" lon="55.37409"/><trkpt lat="24.73997" lon="55.37439"/><trkpt lat="24.74" lon="55.37409"/><trkpt lat="24.73969" lon="55.37394"/><trkpt lat="24.73977" lon="55.37362"/><trkpt lat="24.73967" lon="55.37314"/><trkpt lat="24.73985" lon="55.37181"/><trkpt lat="24.7398" lon="55.37161"/><trkpt lat="24.73958" lon="55.37145"/><trkpt lat="24.73976" lon="55.37106"/><trkpt lat="24.73962" lon="55.37085"/><trkpt lat="24.73944" lon="55.37001"/><trkpt lat="24.73924" lon="55.3699"/><trkpt lat="24.73894" lon="55.37013"/><trkpt lat="24.73885" lon="55.36982"/><trkpt lat="24.73829" lon="55.36923"/><trkpt lat="24.73832" lon="55.36863"/><trkpt lat="24.73796" lon="55.36806"/><trkpt lat="24.73787" lon="55.36771"/><trkpt lat="24.73749" lon="55.36721"/><trkpt lat="24.73754" lon="55.36627"/><trkpt lat="24.73769" lon="55.36615"/><trkpt lat="24.73772" lon="55.36573"/><trkpt lat="24.73796" lon="55.36565"/><trkpt lat="24.73813" lon="55.36532"/><trkpt lat="24.73838" lon="55.36553"/><trkpt lat="24.73849" lon="55.36527"/><trkpt lat="24.73815" lon="55.36463"/><trkpt lat="24.73787" lon="55.36437"/><trkpt lat="24.73758" lon="55.36362"/><trkpt lat="24.73777" lon="55.36297"/><trkpt lat="24.73777" lon="55.36175"/><trkpt lat="24.73806" lon="55.36142"/><trkpt lat="24.73856" lon="55.36113"/><trkpt lat="24.73869" lon="55.36079"/><trkpt lat="24.7387" lon="55.36033"/><trkpt lat="24.73884" lon="55.36024"/><trkpt lat="24.73899" lon="55.36062"/><trkpt lat="24.73929" lon="55.36073"/><trkpt lat="24.73912" lon="55.36095"/><trkpt lat="24.73914" lon="55.36112"/><trkpt lat="24.73947" lon="55.36159"/><trkpt lat="24.73976" lon="55.36161"/><trkpt lat="24.73996" lon="55.36179"/><trkpt lat="24.74008" lon="55.36233"/><trkpt lat="24.74039" lon="55.36245"/><trkpt lat="24.74079" lon="55.36432"/><trkpt lat="24.74115" lon="55.36486"/><trkpt lat="24.74153" lon="55.36454"/><trkpt lat="24.74354" lon="55.36454"/><trkpt lat="24.74652" lon="55.36482"/><trkpt lat="24.74859" lon="55.36485"/><trkpt lat="24.75127" lon="55.36461"/><trkpt lat="24.75171" lon="55.36424"/><trkpt lat="24.75207" lon="55.36364"/><trkpt lat="24.75357" lon="55.36267"/><trkpt lat="24.75426" lon="55.36244"/><trkpt lat="24.75607" lon="55.36241"/><trkpt lat="24.7571" lon="55.36338"/><trkpt lat="24.75824" lon="55.36242"/><trkpt lat="24.7616" lon="55.36247"/><trkpt lat="24.76192" lon="55.36272"/><trkpt lat="24.76252" lon="55.36288"/><trkpt lat="24.76618" lon="55.36745"/><trkpt lat="24.76674" lon="55.36803"/><trkpt lat="24.7674" lon="55.36839"/><trkpt lat="24.76799" lon="55.36851"/><trkpt lat="24.77315" lon="55.36843"/><trkpt lat="24.78208" lon="55.36968"/><trkpt lat="24.7861" lon="55.37003"/><trkpt lat="24.78662" lon="55.37039"/><trkpt lat="24.78831" lon="55.37221"/><trkpt lat="24.79093" lon="55.37436"/><trkpt lat="24.79196" lon="55.37495"/><trkpt lat="24.79251" lon="55.37478"/><trkpt lat="24.79696" lon="55.37239"/><trkpt lat="24.80084" lon="55.37058"/><trkpt lat="24.80305" lon="55.36986"/><trkpt lat="24.80868" lon="55.36842"/><trkpt lat="24.81561" lon="55.3664"/><trkpt lat="24.82232" lon="55.3656"/><trkpt lat="24.82902" lon="55.36506"/><trkpt lat="24.84992" lon="55.36171"/></trkseg></trk></gpx>
