<?xml version="1.0" encoding="UTF-8"?>
<gpx version="1.1" creator="Nomad Outdoors" xmlns="http://www.topografix.com/GPX/1/1"><metadata><name>Khatt-Habhab Mountain Trail</name><link href="https://www.nomadoutdoors.org/routes/2020-07-28-khatt-habhab-mountain-trail"/></metadata><trk><name>Khatt-Habhab Mountain Trail</name><trkseg><trkpt lat="25.61436" lon="56.01087"/><trkpt lat="25.61493" lon="56.01141"/><trkpt lat="25.61474" lon="56.01128"/><trkpt lat="25.61421" lon="56.0102"/><trkpt lat="25.61389" lon="56.01035"/><trkpt lat="25.61324" lon="56.01134"/><trkpt lat="25.61279" lon="56.01296"/><trkpt lat="25.61327" lon="56.01366"/><trkpt lat="25.61374" lon="56.01508"/><trkpt lat="25.61441" lon="56.01548"/><trkpt lat="25.61473" lon="56.01589"/><trkpt lat="25.61489" lon="56.01653"/><trkpt lat="25.61495" lon="56.01788"/><trkpt lat="25.61555" lon="56.0196"/><trkpt lat="25.61562" lon="56.02047"/><trkpt lat="25.61586" lon="56.02108"/><trkpt lat="25.61601" lon="56.02249"/><trkpt lat="25.61589" lon="56.02342"/><trkpt lat="25.6161" lon="56.02452"/><trkpt lat="25.61593" lon="56.02522"/><trkpt lat="25.61551" lon="56.02582"/><trkpt lat="25.61543" lon="56.02625"/><trkpt lat="25.61497" lon="56.02651"/><trkpt lat="25.61479" lon="56.02681"/><trkpt lat="25.61459" lon="56.02822"/><trkpt lat="25.6142" lon="56.0287"/><trkpt lat="25.61412" lon="56.02897"/><trkpt lat="25.61453" lon="56.02922"/><trkpt lat="25.61463" lon="56.02952"/><trkpt lat="25.61502" lon="56.0297"/><trkpt lat="25.61379" lon="56.03023"/><trkpt lat="25.61399" lon="56.03066"/><trkpt lat="25.61377" lon="56.03108"/><trkpt lat="25.6138" lon="56.03193"/><trkpt lat="25.61413" lon="56.03241"/><trkpt lat="25.61425" lon="56.03295"/><trkpt lat="25.61376" lon="56.03363"/><trkpt lat="25.61309" lon="56.03427"/><trkpt lat="25.61297" lon="56.03576"/><trkpt lat="25.61318" lon="56.03623"/><trkpt lat="25.61321" lon="56.03686"/><trkpt lat="25.6124" lon="56.03883"/><trkpt lat="25.61241" lon="56.03942"/><trkpt lat="25.61196" lon="56.04096"/><trkpt lat="25.61218" lon="56.04131"/><trkpt lat="25.61298" lon="56.04193"/><trkpt lat="25.61219" lon="56.04203"/><trkpt lat="25.61221" lon="56.04259"/><trkpt lat="25.61211" lon="56.04275"/><trkpt lat="25.6115" lon="56.04238"/><trkpt lat="25.60972" lon="56.04197"/><trkpt lat="25.60851" lon="56.04211"/><trkpt lat="25.60812" lon="56.04252"/><trkpt lat="25.60793" lon="56.04357"/><trkpt lat="25.60737" lon="56.04429"/><trkpt lat="25.60722" lon="56.04487"/><trkpt lat="25.60744" lon="56.04595"/><trkpt lat="25.60841" lon="56.04739"/><trkpt lat="25.60888" lon="56.04788"/><trkpt lat="25.60905" lon="56.0482"/><trkpt lat="25.60897" lon="56.04836"/><trkpt lat="25.60903" lon="56.04863"/><trkpt lat="25.60952" lon="56.04875"/><trkpt lat="25.61068" lon="56.0497"/><trkpt lat="25.61002" lon="56.04964"/><trkpt lat="25.61054" lon="56.05022"/><trkpt lat="25.61071" lon="56.05088"/><trkpt lat="25.61007" lon="56.05235"/><trkpt lat="25.60968" lon="56.05259"/><trkpt lat="25.60945" lon="56.05313"/><trkpt lat="25.60924" lon="56.05468"/><trkpt lat="25.60922" lon="56.05524"/><trkpt lat="25.61001" lon="56.05772"/><trkpt lat="25.60979" lon="56.05845"/><trkpt lat="25.60978" lon="56.05915"/><trkpt lat="25.61016" lon="56.05956"/><trkpt lat="25.61089" lon="56.05955"/><trkpt lat="25.6114" lon="56.05909"/><trkpt lat="25.6116" lon="56.05932"/><trkpt lat="25.61159" lon="56.05974"/><trkpt lat="25.61209" lon="56.05952"/><trkpt lat="25.61213" lon="56.05977"/><trkpt lat="25.61177" lon="56.06033"/><trkpt lat="25.6122" lon="56.06124"/><trkpt lat="25.61404" lon="56.062"/><trkpt lat="25.61491" lon="56.06273"/><trkpt lat="25.61591" lon="56.06327"/><trkpt lat="25.61688" lon="56.06398"/><trkpt lat="25.6175" lon="56.06466"/><trkpt lat="25.61787" lon="56.06474"/><trkpt lat="25.61821" lon="56.06518"/><trkpt lat="25.61874" lon="56.06539"/><trkpt lat="25.61884" lon="56.06583"/><trkpt lat="25.61854" lon="56.06614"/><trkpt lat="25.61913" lon="56.06719"/><trkpt lat="25.61896" lon="56.06758"/><trkpt lat="25.61904" lon="56.06771"/><trkpt lat="25.61962" lon="56.06793"/><trkpt lat="25.62018" lon="56.06769"/><trkpt lat="25.62064" lon="56.06782"/><trkpt lat="25.62098" lon="56.06836"/><trkpt lat="25.6213" lon="56.06846"/><trkpt lat="25.62139" lon="56.06919"/><trkpt lat="25.6218" lon="56.06971"/><trkpt lat="25.62332" lon="56.06977"/><trkpt lat="25.62476" lon="56.07075"/><trkpt lat="25.62539" lon="56.07076"/><trkpt lat="25.62649" lon="56.07197"/><trkpt lat="25.62702" lon="56.07281"/></trkseg></trk></gpx>
