<?xml version="1.0" encoding="UTF-8"?>
<gpx version="1.1" creator="Nomad Outdoors" xmlns="http://www.topografix.com/GPX/1/1"><metadata><name>Big Red, May 2020</name><link href="https://www.nomadoutdoors.org/routes/2020-05-22-big-red"/></metadata><trk><name>Big Red, May 2020</name><trkseg><trkpt lat="25.01341" lon="55.67976"/><trkpt lat="25.01395" lon="55.68016"/><trkpt lat="25.01471" lon="55.68023"/><trkpt lat="25.01469" lon="55.6808"/><trkpt lat="25.0151" lon="55.682"/><trkpt lat="25.01535" lon="55.68221"/><trkpt lat="25.01551" lon="55.68211"/><trkpt lat="25.01569" lon="55.68223"/><trkpt lat="25.01631" lon="55.68327"/><trkpt lat="25.01814" lon="55.68435"/><trkpt lat="25.01863" lon="55.68509"/><trkpt lat="25.01884" lon="55.68503"/><trkpt lat="25.01954" lon="55.68541"/><trkpt lat="25.01959" lon="55.68573"/><trkpt lat="25.01945" lon="55.686"/><trkpt lat="25.01965" lon="55.6862"/><trkpt lat="25.02006" lon="55.68636"/><trkpt lat="25.0203" lon="55.68618"/><trkpt lat="25.02057" lon="55.68652"/><trkpt lat="25.02064" lon="55.68672"/><trkpt lat="25.02055" lon="55.68677"/><trkpt lat="25.0193" lon="55.68626"/><trkpt lat="25.01856" lon="55.68575"/><trkpt lat="25.01842" lon="55.68575"/><trkpt lat="25.01834" lon="55.68593"/><trkpt lat="25.01931" lon="55.68752"/><trkpt lat="25.01899" lon="55.68795"/><trkpt lat="25.01901" lon="55.68816"/><trkpt lat="25.01963" lon="55.68862"/><trkpt lat="25.01956" lon="55.68887"/><trkpt lat="25.01931" lon="55.68893"/><trkpt lat="25.01892" lon="55.6888"/><trkpt lat="25.01854" lon="55.68841"/><trkpt lat="25.01838" lon="55.68913"/><trkpt lat="25.01852" lon="55.68965"/><trkpt lat="25.01886" lon="55.68989"/><trkpt lat="25.01859" lon="55.69018"/><trkpt lat="25.01924" lon="55.69104"/><trkpt lat="25.01946" lon="55.6922"/><trkpt lat="25.01982" lon="55.69259"/><trkpt lat="25.0202" lon="55.69264"/><trkpt lat="25.02035" lon="55.6929"/><trkpt lat="25.0207" lon="55.69314"/><trkpt lat="25.02068" lon="55.69364"/><trkpt lat="25.02088" lon="55.69391"/><trkpt lat="25.0212" lon="55.69401"/><trkpt lat="25.02138" lon="55.69421"/><trkpt lat="25.02158" lon="55.69505"/><trkpt lat="25.02241" lon="55.69539"/><trkpt lat="25.02288" lon="55.69586"/><trkpt lat="25.02326" lon="55.69589"/><trkpt lat="25.02413" lon="55.69727"/><trkpt lat="25.02407" lon="55.69787"/><trkpt lat="25.02416" lon="55.69812"/><trkpt lat="25.02498" lon="55.69846"/><trkpt lat="25.02548" lon="55.69826"/><trkpt lat="25.02602" lon="55.6986"/><trkpt lat="25.02648" lon="55.69867"/><trkpt lat="25.02668" lon="55.6994"/><trkpt lat="25.02685" lon="55.69964"/><trkpt lat="25.02731" lon="55.69993"/><trkpt lat="25.02743" lon="55.70064"/><trkpt lat="25.02772" lon="55.70083"/><trkpt lat="25.02782" lon="55.70128"/><trkpt lat="25.02758" lon="55.70179"/><trkpt lat="25.02763" lon="55.70257"/><trkpt lat="25.02778" lon="55.70271"/><trkpt lat="25.02826" lon="55.70257"/><trkpt lat="25.0287" lon="55.70263"/><trkpt lat="25.02894" lon="55.70282"/><trkpt lat="25.02931" lon="55.70395"/><trkpt lat="25.02932" lon="55.70455"/><trkpt lat="25.0297" lon="55.70495"/><trkpt lat="25.02964" lon="55.70529"/><trkpt lat="25.02936" lon="55.70533"/><trkpt lat="25.02802" lon="55.7041"/><trkpt lat="25.02811" lon="55.70355"/><trkpt lat="25.02779" lon="55.70349"/><trkpt lat="25.02681" lon="55.70294"/><trkpt lat="25.02642" lon="55.70238"/><trkpt lat="25.02614" lon="55.70222"/><trkpt lat="25.02586" lon="55.70158"/><trkpt lat="25.02563" lon="55.70159"/><trkpt lat="25.02509" lon="55.702"/><trkpt lat="25.02493" lon="55.70162"/><trkpt lat="25.02398" lon="55.7014"/><trkpt lat="25.02361" lon="55.70081"/><trkpt lat="25.02315" lon="55.70084"/><trkpt lat="25.02303" lon="55.70099"/><trkpt lat="25.02309" lon="55.70124"/><trkpt lat="25.02347" lon="55.70153"/><trkpt lat="25.02369" lon="55.7021"/><trkpt lat="25.02407" lon="55.7022"/><trkpt lat="25.02404" lon="55.70284"/><trkpt lat="25.02389" lon="55.70302"/><trkpt lat="25.02407" lon="55.70375"/></trkseg><trkseg><trkpt lat="25.02513" lon="55.71704"/><trkpt lat="25.02517" lon="55.7169"/><trkpt lat="25.02531" lon="55.71687"/><trkpt lat="25.02632" lon="55.71775"/><trkpt lat="25.02678" lon="55.71791"/></trkseg></trk></gpx>
