<?xml version="1.0" encoding="UTF-8"?>
<gpx version="1.1" creator="Nomad Outdoors" xmlns="http://www.topografix.com/GPX/1/1"><metadata><name>Qudra Loop</name><link href="https://www.nomadoutdoors.org/routes/2020-02-21-qudra-loop"/></metadata><trk><name>Qudra Loop</name><trkseg><trkpt lat="24.84432" lon="55.36057"/><trkpt lat="24.84219" lon="55.36202"/><trkpt lat="24.8401" lon="55.36288"/><trkpt lat="24.83729" lon="55.3633"/><trkpt lat="24.83601" lon="55.36374"/><trkpt lat="24.83295" lon="55.36419"/><trkpt lat="24.83245" lon="55.36406"/><trkpt lat="24.83174" lon="55.36346"/><trkpt lat="24.83174" lon="55.36268"/><trkpt lat="24.83167" lon="55.3622"/><trkpt lat="24.83137" lon="55.36158"/><trkpt lat="24.83139" lon="55.36105"/><trkpt lat="24.83109" lon="55.36069"/><trkpt lat="24.83093" lon="55.36026"/><trkpt lat="24.83114" lon="55.35696"/><trkpt lat="24.83099" lon="55.35636"/><trkpt lat="24.83075" lon="55.35613"/><trkpt lat="24.83069" lon="55.35584"/><trkpt lat="24.83073" lon="55.35518"/><trkpt lat="24.83104" lon="55.35389"/><trkpt lat="24.83098" lon="55.35233"/><trkpt lat="24.83077" lon="55.35112"/><trkpt lat="24.83055" lon="55.35083"/><trkpt lat="24.83029" lon="55.35105"/><trkpt lat="24.83051" lon="55.35223"/><trkpt lat="24.83027" lon="55.35314"/><trkpt lat="24.83037" lon="55.35379"/><trkpt lat="24.83063" lon="55.35418"/><trkpt lat="24.83047" lon="55.35438"/><trkpt lat="24.83036" lon="55.35432"/><trkpt lat="24.8298" lon="55.3533"/><trkpt lat="24.82965" lon="55.35271"/><trkpt lat="24.82967" lon="55.35193"/><trkpt lat="24.82953" lon="55.35158"/><trkpt lat="24.82975" lon="55.35105"/><trkpt lat="24.82955" lon="55.35055"/><trkpt lat="24.82918" lon="55.35043"/><trkpt lat="24.82909" lon="55.34992"/><trkpt lat="24.8294" lon="55.34943"/><trkpt lat="24.82908" lon="55.34895"/><trkpt lat="24.82882" lon="55.34799"/><trkpt lat="24.82882" lon="55.34778"/><trkpt lat="24.82893" lon="55.34777"/><trkpt lat="24.82934" lon="55.34806"/><trkpt lat="24.82945" lon="55.34846"/><trkpt lat="24.82964" lon="55.34845"/><trkpt lat="24.82958" lon="55.34623"/><trkpt lat="24.82901" lon="55.345"/><trkpt lat="24.82893" lon="55.3435"/><trkpt lat="24.82851" lon="55.34288"/><trkpt lat="24.82861" lon="55.3418"/><trkpt lat="24.82838" lon="55.34092"/><trkpt lat="24.82855" lon="55.33981"/><trkpt lat="24.82838" lon="55.33899"/><trkpt lat="24.82812" lon="55.33864"/><trkpt lat="24.82822" lon="55.33813"/><trkpt lat="24.8281" lon="55.33652"/><trkpt lat="24.82787" lon="55.33648"/><trkpt lat="24.82762" lon="55.33691"/><trkpt lat="24.82742" lon="55.33701"/><trkpt lat="24.82658" lon="55.3365"/><trkpt lat="24.82618" lon="55.33771"/><trkpt lat="24.82599" lon="55.3379"/><trkpt lat="24.82558" lon="55.33769"/><trkpt lat="24.82552" lon="55.33694"/><trkpt lat="24.82539" lon="55.33687"/><trkpt lat="24.82518" lon="55.33795"/><trkpt lat="24.82499" lon="55.33823"/><trkpt lat="24.82468" lon="55.33835"/><trkpt lat="24.82455" lon="55.33796"/><trkpt lat="24.82431" lon="55.33793"/><trkpt lat="24.82452" lon="55.33829"/><trkpt lat="24.82492" lon="55.3385"/><trkpt lat="24.82456" lon="55.3393"/><trkpt lat="24.82483" lon="55.34031"/><trkpt lat="24.82527" lon="55.34062"/><trkpt lat="24.82548" lon="55.34141"/><trkpt lat="24.82542" lon="55.34162"/><trkpt lat="24.82463" lon="55.34115"/><trkpt lat="24.82382" lon="55.34007"/><trkpt lat="24.82371" lon="55.34008"/><trkpt lat="24.82369" lon="55.34023"/><trkpt lat="24.82368" lon="55.34015"/><trkpt lat="24.82338" lon="55.34028"/><trkpt lat="24.82339" lon="55.34063"/><trkpt lat="24.82338" lon="55.34017"/><trkpt lat="24.82309" lon="55.33991"/><trkpt lat="24.82332" lon="55.34006"/><trkpt lat="24.82347" lon="55.34131"/><trkpt lat="24.82389" lon="55.34183"/><trkpt lat="24.82402" lon="55.34259"/><trkpt lat="24.82439" lon="55.34354"/><trkpt lat="24.82436" lon="55.34405"/><trkpt lat="24.82417" lon="55.34434"/><trkpt lat="24.82399" lon="55.34434"/><trkpt lat="24.82372" lon="55.34398"/><trkpt lat="24.8238" lon="55.34451"/><trkpt lat="24.82363" lon="55.34488"/><trkpt lat="24.82344" lon="55.34478"/><trkpt lat="24.8234" lon="55.34444"/><trkpt lat="24.82322" lon="55.34426"/><trkpt lat="24.82307" lon="55.34429"/><trkpt lat="24.82282" lon="55.34465"/><trkpt lat="24.82234" lon="55.34481"/><trkpt lat="24.82214" lon="55.34474"/><trkpt lat="24.82195" lon="55.34447"/><trkpt lat="24.82184" lon="55.34353"/><trkpt lat="24.82149" lon="55.34331"/><trkpt lat="24.82134" lon="55.34281"/><trkpt lat="24.82166" lon="55.34152"/><trkpt lat="24.82154" lon="55.34129"/><trkpt lat="24.82134" lon="55.34134"/><trkpt lat="24.8212" lon="55.34123"/><trkpt lat="24.82121" lon="55.34034"/><trkpt lat="24.82042" lon="55.33885"/><trkpt lat="24.82021" lon="55.33787"/><trkpt lat="24.81976" lon="55.3373"/><trkpt lat="24.81974" lon="55.337"/><trkpt lat="24.82016" lon="55.33685"/><trkpt lat="24.82029" lon="55.33665"/><trkpt lat="24.82001" lon="55.33611"/><trkpt lat="24.81991" lon="55.33531"/><trkpt lat="24.81974" lon="55.33507"/><trkpt lat="24.81987" lon="55.33458"/><trkpt lat="24.81952" lon="55.33409"/><trkpt lat="24.81971" lon="55.33342"/><trkpt lat="24.81898" lon="55.33223"/><trkpt lat="24.81932" lon="55.32984"/><trkpt lat="24.81906" lon="55.32901"/><trkpt lat="24.81884" lon="55.32885"/><trkpt lat="24.81881" lon="55.32867"/><trkpt lat="24.81896" lon="55.32806"/><trkpt lat="24.81942" lon="55.32773"/><trkpt lat="24.81952" lon="55.3271"/><trkpt lat="24.81978" lon="55.32672"/><trkpt lat="24.8198" lon="55.32641"/><trkpt lat="24.8196" lon="55.32599"/><trkpt lat="24.81974" lon="55.32498"/><trkpt lat="24.81987" lon="55.32482"/><trkpt lat="24.82017" lon="55.32489"/><trkpt lat="24.82048" lon="55.32481"/><trkpt lat="24.82056" lon="55.32468"/><trkpt lat="24.82038" lon="55.32393"/><trkpt lat="24.82043" lon="55.32323"/><trkpt lat="24.82099" lon="55.32012"/><trkpt lat="24.8211" lon="55.31999"/><trkpt lat="24.82128" lon="55.32001"/><trkpt lat="24.82235" lon="55.32049"/><trkpt lat="24.82251" lon="55.32077"/><trkpt lat="24.82159" lon="55.3226"/><trkpt lat="24.82086" lon="55.32318"/><trkpt lat="24.82071" lon="55.32378"/><trkpt lat="24.82078" lon="55.32466"/><trkpt lat="24.82094" lon="55.3248"/><trkpt lat="24.82121" lon="55.32475"/><trkpt lat="24.8217" lon="55.32506"/><trkpt lat="24.82202" lon="55.32491"/><trkpt lat="24.82226" lon="55.32496"/><trkpt lat="24.82244" lon="55.32575"/><trkpt lat="24.82265" lon="55.32608"/><trkpt lat="24.82279" lon="55.32686"/><trkpt lat="24.82301" lon="55.32693"/><trkpt lat="24.82332" lon="55.32671"/><trkpt lat="24.82316" lon="55.32536"/><trkpt lat="24.82351" lon="55.3246"/><trkpt lat="24.82414" lon="55.32455"/><trkpt lat="24.82413" lon="55.32509"/><trkpt lat="24.82439" lon="55.32553"/><trkpt lat="24.82478" lon="55.32553"/><trkpt lat="24.82505" lon="55.32567"/><trkpt lat="24.82511" lon="55.32547"/><trkpt lat="24.82495" lon="55.32506"/><trkpt lat="24.82449" lon="55.32438"/><trkpt lat="24.82463" lon="55.32289"/><trkpt lat="24.82485" lon="55.32263"/><trkpt lat="24.82538" lon="55.3234"/><trkpt lat="24.82557" lon="55.32424"/><trkpt lat="24.82585" lon="55.32464"/><trkpt lat="24.82616" lon="55.32475"/><trkpt lat="24.82644" lon="55.3247"/><trkpt lat="24.8265" lon="55.32489"/><trkpt lat="24.8267" lon="55.32489"/><trkpt lat="24.82688" lon="55.32529"/><trkpt lat="24.82688" lon="55.32557"/><trkpt lat="24.82664" lon="55.32561"/><trkpt lat="24.82639" lon="55.32518"/><trkpt lat="24.82631" lon="55.32457"/><trkpt lat="24.8262" lon="55.32448"/><trkpt lat="24.82588" lon="55.32477"/><trkpt lat="24.82587" lon="55.32515"/><trkpt lat="24.82618" lon="55.32535"/><trkpt lat="24.82649" lon="55.32531"/><trkpt lat="24.82644" lon="55.32456"/><trkpt lat="24.82634" lon="55.32472"/><trkpt lat="24.82657" lon="55.32542"/><trkpt lat="24.82673" lon="55.32485"/><trkpt lat="24.82687" lon="55.32514"/><trkpt lat="24.82698" lon="55.32515"/><trkpt lat="24.82699" lon="55.32478"/><trkpt lat="24.82679" lon="55.3247"/><trkpt lat="24.82662" lon="55.32479"/><trkpt lat="24.8272" lon="55.32556"/><trkpt lat="24.82715" lon="55.32609"/><trkpt lat="24.82726" lon="55.32711"/><trkpt lat="24.82763" lon="55.32774"/><trkpt lat="24.82799" lon="55.32786"/><trkpt lat="24.82814" lon="55.32833"/><trkpt lat="24.82793" lon="55.32888"/><trkpt lat="24.82796" lon="55.32913"/><trkpt lat="24.82775" lon="55.32949"/><trkpt lat="24.82811" lon="55.33003"/><trkpt lat="24.82848" lon="55.32988"/><trkpt lat="24.82908" lon="55.3301"/><trkpt lat="24.82988" lon="55.33095"/><trkpt lat="24.83013" lon="55.33102"/><trkpt lat="24.8303" lon="55.33085"/><trkpt lat="24.8304" lon="55.33023"/><trkpt lat="24.83075" lon="55.32962"/><trkpt lat="24.83171" lon="55.33052"/><trkpt lat="24.83207" lon="55.33045"/><trkpt lat="24.83222" lon="55.33002"/><trkpt lat="24.8322" lon="55.3293"/><trkpt lat="24.83255" lon="55.32843"/><trkpt lat="24.83289" lon="55.32842"/><trkpt lat="24.83272" lon="55.32891"/><trkpt lat="24.83272" lon="55.32963"/><trkpt lat="24.83304" lon="55.32964"/><trkpt lat="24.83319" lon="55.3294"/><trkpt lat="24.83315" lon="55.32822"/><trkpt lat="24.83269" lon="55.32759"/><trkpt lat="24.8328" lon="55.32642"/><trkpt lat="24.83255" lon="55.32581"/><trkpt lat="24.83211" lon="55.32574"/><trkpt lat="24.83143" lon="55.32664"/><trkpt lat="24.82968" lon="55.3268"/><trkpt lat="24.82941" lon="55.32718"/><trkpt lat="24.82906" lon="55.32737"/><trkpt lat="24.82895" lon="55.32764"/><trkpt lat="24.82903" lon="55.32805"/><trkpt lat="24.82894" lon="55.32865"/><trkpt lat="24.82841" lon="55.32964"/><trkpt lat="24.82813" lon="55.32985"/><trkpt lat="24.82832" lon="55.33052"/><trkpt lat="24.82795" lon="55.33094"/><trkpt lat="24.82812" lon="55.33126"/><trkpt lat="24.82796" lon="55.33158"/><trkpt lat="24.82821" lon="55.33224"/><trkpt lat="24.82824" lon="55.33357"/><trkpt lat="24.82794" lon="55.33446"/><trkpt lat="24.82737" lon="55.33506"/><trkpt lat="24.82729" lon="55.33538"/><trkpt lat="24.82749" lon="55.33586"/><trkpt lat="24.8279" lon="55.33622"/><trkpt lat="24.82781" lon="55.33756"/><trkpt lat="24.82763" lon="55.33811"/><trkpt lat="24.82853" lon="55.33941"/><trkpt lat="24.82874" lon="55.33945"/><trkpt lat="24.82896" lon="55.33932"/><trkpt lat="24.82905" lon="55.33886"/><trkpt lat="24.82926" lon="55.33884"/><trkpt lat="24.82933" lon="55.3393"/><trkpt lat="24.82917" lon="55.3397"/><trkpt lat="24.8296" lon="55.34124"/><trkpt lat="24.82964" lon="55.34213"/><trkpt lat="24.82934" lon="55.34262"/><trkpt lat="24.82883" lon="55.34292"/><trkpt lat="24.82864" lon="55.34271"/><trkpt lat="24.82796" lon="55.34257"/><trkpt lat="24.82784" lon="55.34264"/><trkpt lat="24.82782" lon="55.343"/><trkpt lat="24.8281" lon="55.34315"/><trkpt lat="24.82817" lon="55.34372"/><trkpt lat="24.82834" lon="55.34409"/><trkpt lat="24.82825" lon="55.34439"/><trkpt lat="24.82841" lon="55.34469"/><trkpt lat="24.82797" lon="55.34548"/><trkpt lat="24.82806" lon="55.34609"/><trkpt lat="24.82799" lon="55.3467"/><trkpt lat="24.8278" lon="55.34674"/><trkpt lat="24.82758" lon="55.34654"/><trkpt lat="24.82777" lon="55.34655"/><trkpt lat="24.82725" lon="55.34645"/><trkpt lat="24.82735" lon="55.34591"/><trkpt lat="24.82728" lon="55.3458"/><trkpt lat="24.82709" lon="55.34585"/><trkpt lat="24.8272" lon="55.34553"/><trkpt lat="24.82715" lon="55.3453"/><trkpt lat="24.82704" lon="55.34526"/><trkpt lat="24.82664" lon="55.34578"/><trkpt lat="24.82674" lon="55.3468"/><trkpt lat="24.82705" lon="55.34768"/><trkpt lat="24.82742" lon="55.34828"/><trkpt lat="24.82727" lon="55.34854"/><trkpt lat="24.8271" lon="55.34855"/><trkpt lat="24.82705" lon="55.34882"/><trkpt lat="24.82678" lon="55.34873"/><trkpt lat="24.82657" lon="55.349"/><trkpt lat="24.82683" lon="55.34947"/><trkpt lat="24.82681" lon="55.35035"/><trkpt lat="24.82629" lon="55.35001"/><trkpt lat="24.8263" lon="55.34902"/><trkpt lat="24.82602" lon="55.34862"/><trkpt lat="24.82612" lon="55.34809"/><trkpt lat="24.82588" lon="55.34779"/><trkpt lat="24.82589" lon="55.34741"/><trkpt lat="24.82558" lon="55.34721"/><trkpt lat="24.82567" lon="55.34762"/><trkpt lat="24.82531" lon="55.34787"/><trkpt lat="24.82528" lon="55.34804"/><trkpt lat="24.82574" lon="55.34828"/><trkpt lat="24.82589" lon="55.34882"/><trkpt lat="24.82595" lon="55.34972"/><trkpt lat="24.82641" lon="55.35027"/><trkpt lat="24.82647" lon="55.35059"/><trkpt lat="24.82608" lon="55.35071"/><trkpt lat="24.82593" lon="55.35165"/><trkpt lat="24.82576" lon="55.35194"/><trkpt lat="24.8256" lon="55.35191"/><trkpt lat="24.82525" lon="55.35139"/><trkpt lat="24.82495" lon="55.35207"/><trkpt lat="24.82423" lon="55.35156"/><trkpt lat="24.82405" lon="55.35158"/><trkpt lat="24.8237" lon="55.35259"/><trkpt lat="24.82394" lon="55.35317"/><trkpt lat="24.82388" lon="55.35372"/><trkpt lat="24.82348" lon="55.35301"/><trkpt lat="24.82318" lon="55.35328"/><trkpt lat="24.8232" lon="55.35409"/><trkpt lat="24.82341" lon="55.35445"/><trkpt lat="24.82338" lon="55.35543"/><trkpt lat="24.82356" lon="55.35567"/><trkpt lat="24.8235" lon="55.35618"/><trkpt lat="24.82363" lon="55.35631"/><trkpt lat="24.82351" lon="55.35684"/><trkpt lat="24.82385" lon="55.35724"/><trkpt lat="24.82356" lon="55.35771"/><trkpt lat="24.82383" lon="55.35842"/><trkpt lat="24.82376" lon="55.359"/><trkpt lat="24.82366" lon="55.3591"/><trkpt lat="24.82352" lon="55.35901"/><trkpt lat="24.82343" lon="55.35863"/><trkpt lat="24.82327" lon="55.35862"/><trkpt lat="24.82328" lon="55.3594"/><trkpt lat="24.82306" lon="55.35979"/><trkpt lat="24.8231" lon="55.36017"/><trkpt lat="24.82298" lon="55.36058"/><trkpt lat="24.82307" lon="55.36088"/><trkpt lat="24.82285" lon="55.36135"/><trkpt lat="24.82336" lon="55.36169"/><trkpt lat="24.82321" lon="55.36293"/><trkpt lat="24.82307" lon="55.3629"/><trkpt lat="24.8227" lon="55.36218"/><trkpt lat="24.82265" lon="55.36177"/><trkpt lat="24.82239" lon="55.36167"/><trkpt lat="24.82219" lon="55.36178"/><trkpt lat="24.82221" lon="55.36211"/><trkpt lat="24.82246" lon="55.36241"/><trkpt lat="24.82255" lon="55.3633"/><trkpt lat="24.82221" lon="55.36529"/><trkpt lat="24.82237" lon="55.36539"/><trkpt lat="24.82428" lon="55.36532"/><trkpt lat="24.82966" lon="55.36483"/><trkpt lat="24.83264" lon="55.36422"/><trkpt lat="24.83781" lon="55.3634"/><trkpt lat="24.84077" lon="55.36306"/><trkpt lat="24.84764" lon="55.36189"/><trkpt lat="24.8485" lon="55.36198"/><trkpt lat="24.85421" lon="55.3609"/><trkpt lat="24.85552" lon="55.36074"/><trkpt lat="24.85595" lon="55.36098"/><trkpt lat="24.85616" lon="55.36094"/><trkpt lat="24.8563" lon="55.3606"/><trkpt lat="24.85594" lon="55.35996"/><trkpt lat="24.8548" lon="55.35554"/><trkpt lat="24.85319" lon="55.3501"/><trkpt lat="24.85226" lon="55.34825"/><trkpt lat="24.85068" lon="55.34614"/><trkpt lat="24.85066" lon="55.34587"/><trkpt lat="24.85079" lon="55.34556"/><trkpt lat="24.85149" lon="55.34546"/><trkpt lat="24.85165" lon="55.34503"/><trkpt lat="24.85148" lon="55.3448"/><trkpt lat="24.8512" lon="55.34479"/><trkpt lat="24.85071" lon="55.34537"/></trkseg></trk></gpx>
