<?xml version="1.0" encoding="UTF-8"?>
<gpx version="1.1" creator="Nomad Outdoors" xmlns="http://www.topografix.com/GPX/1/1"><metadata><name>Fossil Rock to Big Red</name><link href="https://www.nomadoutdoors.org/routes/2020-05-29-fossil-rock-to-big-red"/></metadata><trk><name>Fossil Rock to Big Red</name><trkseg><trkpt lat="25.03228" lon="55.73575"/><trkpt lat="25.03204" lon="55.73469"/><trkpt lat="25.03144" lon="55.73465"/><trkpt lat="25.03079" lon="55.7343"/><trkpt lat="25.03069" lon="55.73409"/><trkpt lat="25.03085" lon="55.73368"/><trkpt lat="25.03077" lon="55.73335"/><trkpt lat="25.0295" lon="55.73238"/><trkpt lat="25.02913" lon="55.73147"/><trkpt lat="25.02832" lon="55.73089"/><trkpt lat="25.02798" lon="55.73026"/><trkpt lat="25.02548" lon="55.72932"/><trkpt lat="25.02557" lon="55.72913"/><trkpt lat="25.02587" lon="55.72919"/><trkpt lat="25.02596" lon="55.72935"/><trkpt lat="25.02584" lon="55.72946"/><trkpt lat="25.02491" lon="55.72912"/><trkpt lat="25.02478" lon="55.7288"/><trkpt lat="25.0251" lon="55.72874"/><trkpt lat="25.02543" lon="55.72893"/><trkpt lat="25.02551" lon="55.72917"/><trkpt lat="25.02567" lon="55.72926"/><trkpt lat="25.02574" lon="55.72866"/><trkpt lat="25.025" lon="55.72751"/><trkpt lat="25.02468" lon="55.72597"/><trkpt lat="25.02425" lon="55.72536"/><trkpt lat="25.02372" lon="55.72495"/><trkpt lat="25.02287" lon="55.725"/><trkpt lat="25.02214" lon="55.72538"/><trkpt lat="25.02182" lon="55.72521"/><trkpt lat="25.02177" lon="55.72496"/><trkpt lat="25.02222" lon="55.72447"/><trkpt lat="25.02182" lon="55.72438"/><trkpt lat="25.02177" lon="55.72415"/><trkpt lat="25.02219" lon="55.7236"/><trkpt lat="25.02278" lon="55.72379"/><trkpt lat="25.02333" lon="55.72371"/><trkpt lat="25.02362" lon="55.72386"/><trkpt lat="25.02369" lon="55.72367"/><trkpt lat="25.02349" lon="55.72331"/><trkpt lat="25.02354" lon="55.7232"/><trkpt lat="25.02389" lon="55.7232"/><trkpt lat="25.02414" lon="55.72292"/><trkpt lat="25.02439" lon="55.72289"/><trkpt lat="25.02479" lon="55.72325"/><trkpt lat="25.02512" lon="55.72333"/><trkpt lat="25.02527" lon="55.72293"/><trkpt lat="25.02567" lon="55.72288"/><trkpt lat="25.02573" lon="55.72271"/><trkpt lat="25.0256" lon="55.72251"/><trkpt lat="25.02524" lon="55.72253"/><trkpt lat="25.02487" lon="55.72237"/><trkpt lat="25.02401" lon="55.72158"/><trkpt lat="25.02347" lon="55.72137"/><trkpt lat="25.02322" lon="55.72106"/><trkpt lat="25.0226" lon="55.72068"/><trkpt lat="25.02223" lon="55.71979"/><trkpt lat="25.02149" lon="55.71967"/><trkpt lat="25.02141" lon="55.71915"/><trkpt lat="25.02012" lon="55.71789"/><trkpt lat="25.01998" lon="55.71706"/><trkpt lat="25.01923" lon="55.71674"/><trkpt lat="25.01909" lon="55.71632"/><trkpt lat="25.01818" lon="55.71594"/><trkpt lat="25.01787" lon="55.71555"/><trkpt lat="25.01702" lon="55.71501"/><trkpt lat="25.01691" lon="55.71427"/><trkpt lat="25.01668" lon="55.71425"/><trkpt lat="25.01644" lon="55.71441"/><trkpt lat="25.01586" lon="55.71415"/><trkpt lat="25.01542" lon="55.7142"/><trkpt lat="25.01459" lon="55.71318"/><trkpt lat="25.01419" lon="55.71321"/><trkpt lat="25.01355" lon="55.71296"/><trkpt lat="25.0133" lon="55.71262"/><trkpt lat="25.01297" lon="55.71247"/><trkpt lat="25.01275" lon="55.71212"/><trkpt lat="25.01275" lon="55.71157"/><trkpt lat="25.01186" lon="55.71061"/><trkpt lat="25.01121" lon="55.71025"/><trkpt lat="25.01054" lon="55.71022"/><trkpt lat="25.0103" lon="55.70978"/><trkpt lat="25.00972" lon="55.70956"/><trkpt lat="25.00926" lon="55.70907"/><trkpt lat="25.00854" lon="55.70938"/><trkpt lat="25.00801" lon="55.70852"/><trkpt lat="25.00738" lon="55.70785"/><trkpt lat="25.00714" lon="55.70783"/><trkpt lat="25.00682" lon="55.70813"/><trkpt lat="25.0067" lon="55.70806"/><trkpt lat="25.00624" lon="55.70763"/><trkpt lat="25.00614" lon="55.70687"/><trkpt lat="25.00594" lon="55.70666"/><trkpt lat="25.00535" lon="55.70659"/><trkpt lat="25.00505" lon="55.70703"/><trkpt lat="25.00481" lon="55.70678"/><trkpt lat="25.00361" lon="55.70658"/><trkpt lat="25.00317" lon="55.70677"/><trkpt lat="25.00288" lon="55.70668"/><trkpt lat="25.0022" lon="55.70598"/><trkpt lat="25.00178" lon="55.70597"/><trkpt lat="25.00149" lon="55.7058"/><trkpt lat="25.00105" lon="55.7059"/></trkseg><trkseg><trkpt lat="24.96527" lon="55.71825"/><trkpt lat="24.96527" lon="55.71822"/></trkseg></trk></gpx>
