<?xml version="1.0" encoding="UTF-8"?>
<gpx version="1.1" creator="Nomad Outdoors" xmlns="http://www.topografix.com/GPX/1/1"><metadata><name>Lisali to Qudra ... The nightmare</name><link href="https://www.nomadoutdoors.org/routes/2020-07-24-fewbie-lisali-to-qudra-the-nightmare"/></metadata><trk><name>Lisali to Qudra ... The nightmare</name><trkseg><trkpt lat="24.88273" lon="55.47969"/><trkpt lat="24.88297" lon="55.47967"/><trkpt lat="24.88284" lon="55.48011"/><trkpt lat="24.88276" lon="55.4802"/><trkpt lat="24.8825" lon="55.48017"/><trkpt lat="24.88228" lon="55.48057"/><trkpt lat="24.88256" lon="55.48075"/><trkpt lat="24.88245" lon="55.48114"/><trkpt lat="24.88265" lon="55.48121"/><trkpt lat="24.88264" lon="55.48145"/><trkpt lat="24.88283" lon="55.48113"/><trkpt lat="24.88312" lon="55.48101"/><trkpt lat="24.88292" lon="55.48066"/><trkpt lat="24.8831" lon="55.48038"/><trkpt lat="24.88298" lon="55.47996"/><trkpt lat="24.88304" lon="55.48003"/><trkpt lat="24.8832" lon="55.47984"/><trkpt lat="24.88321" lon="55.47969"/><trkpt lat="24.88277" lon="55.48014"/><trkpt lat="24.8825" lon="55.48008"/><trkpt lat="24.88234" lon="55.48045"/><trkpt lat="24.88261" lon="55.48084"/><trkpt lat="24.88251" lon="55.48102"/><trkpt lat="24.88263" lon="55.48142"/><trkpt lat="24.88215" lon="55.48156"/><trkpt lat="24.88227" lon="55.48194"/><trkpt lat="24.88206" lon="55.48215"/><trkpt lat="24.88182" lon="55.48182"/><trkpt lat="24.88183" lon="55.48153"/><trkpt lat="24.88193" lon="55.48154"/><trkpt lat="24.88185" lon="55.48179"/><trkpt lat="24.88209" lon="55.48218"/><trkpt lat="24.88217" lon="55.48209"/><trkpt lat="24.88191" lon="55.48196"/><trkpt lat="24.88182" lon="55.4815"/><trkpt lat="24.88194" lon="55.48151"/><trkpt lat="24.88194" lon="55.48199"/><trkpt lat="24.88213" lon="55.48224"/><trkpt lat="24.88217" lon="55.48215"/><trkpt lat="24.88202" lon="55.48209"/><trkpt lat="24.88187" lon="55.4818"/><trkpt lat="24.88198" lon="55.48141"/><trkpt lat="24.88157" lon="55.48157"/><trkpt lat="24.88153" lon="55.48172"/><trkpt lat="24.8816" lon="55.48165"/><trkpt lat="24.88152" lon="55.4816"/><trkpt lat="24.88164" lon="55.48181"/><trkpt lat="24.88156" lon="55.48212"/><trkpt lat="24.88186" lon="55.48226"/><trkpt lat="24.88188" lon="55.48249"/><trkpt lat="24.88168" lon="55.48257"/><trkpt lat="24.88156" lon="55.48282"/><trkpt lat="24.88128" lon="55.48232"/><trkpt lat="24.88101" lon="55.48264"/><trkpt lat="24.88107" lon="55.48274"/><trkpt lat="24.88146" lon="55.4827"/><trkpt lat="24.88164" lon="55.48304"/><trkpt lat="24.88178" lon="55.48257"/><trkpt lat="24.88186" lon="55.48292"/><trkpt lat="24.88217" lon="55.48324"/><trkpt lat="24.88226" lon="55.48372"/><trkpt lat="24.88217" lon="55.48378"/><trkpt lat="24.8822" lon="55.48327"/><trkpt lat="24.8818" lon="55.48249"/><trkpt lat="24.88158" lon="55.48285"/><trkpt lat="24.88141" lon="55.48267"/><trkpt lat="24.8812" lon="55.48288"/><trkpt lat="24.88106" lon="55.48275"/><trkpt lat="24.88102" lon="55.48223"/><trkpt lat="24.88093" lon="55.48257"/><trkpt lat="24.88075" lon="55.48256"/><trkpt lat="24.88079" lon="55.48209"/><trkpt lat="24.88108" lon="55.48184"/><trkpt lat="24.8806" lon="55.48174"/><trkpt lat="24.88082" lon="55.48126"/><trkpt lat="24.88058" lon="55.48108"/><trkpt lat="24.88045" lon="55.48027"/><trkpt lat="24.88023" lon="55.48025"/><trkpt lat="24.88042" lon="55.47992"/><trkpt lat="24.88035" lon="55.47954"/><trkpt lat="24.88023" lon="55.47949"/><trkpt lat="24.87982" lon="55.4797"/><trkpt lat="24.88002" lon="55.47867"/><trkpt lat="24.87987" lon="55.47834"/><trkpt lat="24.87959" lon="55.47828"/><trkpt lat="24.87956" lon="55.47807"/><trkpt lat="24.87918" lon="55.47783"/><trkpt lat="24.87921" lon="55.47759"/><trkpt lat="24.87899" lon="55.47767"/><trkpt lat="24.87882" lon="55.47741"/><trkpt lat="24.87862" lon="55.47772"/><trkpt lat="24.87846" lon="55.47747"/><trkpt lat="24.87862" lon="55.47794"/><trkpt lat="24.87839" lon="55.47798"/><trkpt lat="24.87837" lon="55.47838"/><trkpt lat="24.87824" lon="55.47841"/><trkpt lat="24.87796" lon="55.47818"/><trkpt lat="24.8779" lon="55.47798"/><trkpt lat="24.87798" lon="55.47795"/><trkpt lat="24.87801" lon="55.47847"/><trkpt lat="24.8784" lon="55.47829"/></trkseg></trk></gpx>
