<?xml version="1.0" encoding="UTF-8"?>
<gpx version="1.1" creator="Nomad Outdoors" xmlns="http://www.topografix.com/GPX/1/1"><metadata><name>Hisma, Tabuk overland, April 2025</name><link href="https://www.nomadoutdoors.org/routes/2025-04-08-hisma-tabuk"/></metadata><trk><name>Hisma, Tabuk overland, April 2025</name><trkseg><trkpt lat="28.59532" lon="35.78102"/><trkpt lat="28.59689" lon="35.78028"/><trkpt lat="28.59909" lon="35.77966"/><trkpt lat="28.60039" lon="35.77948"/><trkpt lat="28.60569" lon="35.77819"/><trkpt lat="28.60767" lon="35.77816"/><trkpt lat="28.61035" lon="35.77725"/><trkpt lat="28.6111" lon="35.77721"/><trkpt lat="28.6119" lon="35.77778"/><trkpt lat="28.61315" lon="35.77972"/><trkpt lat="28.61376" lon="35.78094"/><trkpt lat="28.61458" lon="35.78206"/><trkpt lat="28.61562" lon="35.78288"/><trkpt lat="28.61642" lon="35.78309"/><trkpt lat="28.61777" lon="35.78261"/><trkpt lat="28.62257" lon="35.78216"/><trkpt lat="28.62692" lon="35.78081"/><trkpt lat="28.62805" lon="35.78058"/><trkpt lat="28.6307" lon="35.78032"/><trkpt lat="28.63337" lon="35.77944"/><trkpt lat="28.63687" lon="35.77874"/><trkpt lat="28.6389" lon="35.77816"/><trkpt lat="28.64012" lon="35.77819"/><trkpt lat="28.64048" lon="35.7783"/><trkpt lat="28.64203" lon="35.77947"/><trkpt lat="28.64321" lon="35.78041"/><trkpt lat="28.6444" lon="35.78159"/><trkpt lat="28.64567" lon="35.78411"/><trkpt lat="28.64834" lon="35.78808"/><trkpt lat="28.64875" lon="35.78833"/><trkpt lat="28.65016" lon="35.78863"/><trkpt lat="28.651" lon="35.78901"/><trkpt lat="28.65258" lon="35.78883"/><trkpt lat="28.6534" lon="35.78857"/><trkpt lat="28.65613" lon="35.78693"/><trkpt lat="28.65888" lon="35.78321"/><trkpt lat="28.65931" lon="35.78226"/><trkpt lat="28.66088" lon="35.78056"/><trkpt lat="28.66134" lon="35.77974"/><trkpt lat="28.66175" lon="35.77845"/><trkpt lat="28.66248" lon="35.777"/><trkpt lat="28.66379" lon="35.77518"/><trkpt lat="28.66461" lon="35.77368"/><trkpt lat="28.66621" lon="35.76893"/><trkpt lat="28.66708" lon="35.76732"/><trkpt lat="28.66819" lon="35.76571"/><trkpt lat="28.66893" lon="35.76425"/><trkpt lat="28.66942" lon="35.76384"/><trkpt lat="28.66978" lon="35.76331"/><trkpt lat="28.67033" lon="35.76174"/><trkpt lat="28.67046" lon="35.76073"/><trkpt lat="28.67042" lon="35.75993"/><trkpt lat="28.66993" lon="35.75813"/><trkpt lat="28.66983" lon="35.75728"/><trkpt lat="28.66949" lon="35.7559"/><trkpt lat="28.66862" lon="35.75293"/><trkpt lat="28.66863" lon="35.75172"/><trkpt lat="28.6685" lon="35.75088"/><trkpt lat="28.66888" lon="35.74989"/><trkpt lat="28.66786" lon="35.74896"/><trkpt lat="28.66732" lon="35.74778"/><trkpt lat="28.66676" lon="35.74724"/><trkpt lat="28.66599" lon="35.74615"/><trkpt lat="28.66517" lon="35.74569"/><trkpt lat="28.66454" lon="35.74557"/><trkpt lat="28.66356" lon="35.74562"/><trkpt lat="28.6613" lon="35.74535"/><trkpt lat="28.66048" lon="35.74546"/><trkpt lat="28.65931" lon="35.74539"/><trkpt lat="28.65845" lon="35.74551"/><trkpt lat="28.65699" lon="35.74613"/><trkpt lat="28.65407" lon="35.74645"/><trkpt lat="28.65234" lon="35.74712"/><trkpt lat="28.65051" lon="35.74713"/><trkpt lat="28.64922" lon="35.74634"/><trkpt lat="28.64867" lon="35.7457"/><trkpt lat="28.64729" lon="35.74298"/><trkpt lat="28.64671" lon="35.74148"/><trkpt lat="28.64651" lon="35.73952"/><trkpt lat="28.64782" lon="35.73853"/><trkpt lat="28.64817" lon="35.73743"/><trkpt lat="28.64813" lon="35.73633"/><trkpt lat="28.64772" lon="35.73484"/><trkpt lat="28.64771" lon="35.73403"/><trkpt lat="28.64726" lon="35.73219"/><trkpt lat="28.64732" lon="35.73195"/><trkpt lat="28.648" lon="35.73099"/><trkpt lat="28.64876" lon="35.73036"/><trkpt lat="28.64991" lon="35.72907"/><trkpt lat="28.65068" lon="35.72852"/><trkpt lat="28.65404" lon="35.72706"/><trkpt lat="28.65669" lon="35.72445"/><trkpt lat="28.65731" lon="35.72358"/><trkpt lat="28.65763" lon="35.72273"/><trkpt lat="28.65775" lon="35.72141"/><trkpt lat="28.65909" lon="35.71912"/><trkpt lat="28.65959" lon="35.71756"/><trkpt lat="28.65948" lon="35.71684"/><trkpt lat="28.65893" lon="35.71641"/><trkpt lat="28.65825" lon="35.71647"/><trkpt lat="28.65622" lon="35.71724"/><trkpt lat="28.65382" lon="35.7165"/><trkpt lat="28.65231" lon="35.71577"/><trkpt lat="28.64867" lon="35.71317"/><trkpt lat="28.64806" lon="35.71288"/><trkpt lat="28.64732" lon="35.7128"/><trkpt lat="28.64538" lon="35.71217"/><trkpt lat="28.64409" lon="35.71082"/><trkpt lat="28.64304" lon="35.71045"/><trkpt lat="28.64284" lon="35.71004"/><trkpt lat="28.64274" lon="35.70908"/><trkpt lat="28.64232" lon="35.70757"/><trkpt lat="28.64211" lon="35.70569"/><trkpt lat="28.64169" lon="35.70436"/><trkpt lat="28.64121" lon="35.70329"/><trkpt lat="28.63983" lon="35.70154"/><trkpt lat="28.63929" lon="35.70046"/><trkpt lat="28.63922" lon="35.69985"/><trkpt lat="28.63934" lon="35.69913"/><trkpt lat="28.64038" lon="35.69722"/><trkpt lat="28.64067" lon="35.69579"/><trkpt lat="28.64131" lon="35.69414"/><trkpt lat="28.6418" lon="35.69341"/><trkpt lat="28.64395" lon="35.69139"/><trkpt lat="28.64434" lon="35.6907"/><trkpt lat="28.64473" lon="35.68802"/><trkpt lat="28.64522" lon="35.68661"/><trkpt lat="28.64583" lon="35.68534"/><trkpt lat="28.64654" lon="35.68202"/><trkpt lat="28.64674" lon="35.68055"/><trkpt lat="28.64667" lon="35.6767"/><trkpt lat="28.64711" lon="35.67489"/><trkpt lat="28.64741" lon="35.67412"/><trkpt lat="28.64885" lon="35.67233"/><trkpt lat="28.64938" lon="35.67134"/><trkpt lat="28.65038" lon="35.67017"/><trkpt lat="28.65091" lon="35.6692"/><trkpt lat="28.65203" lon="35.66767"/><trkpt lat="28.65466" lon="35.66469"/><trkpt lat="28.65537" lon="35.66325"/><trkpt lat="28.65565" lon="35.66208"/><trkpt lat="28.65671" lon="35.66036"/><trkpt lat="28.65679" lon="35.65994"/><trkpt lat="28.6566" lon="35.65893"/><trkpt lat="28.65664" lon="35.65851"/><trkpt lat="28.65816" lon="35.65652"/><trkpt lat="28.65837" lon="35.65565"/><trkpt lat="28.65948" lon="35.65444"/><trkpt lat="28.65974" lon="35.65352"/><trkpt lat="28.6602" lon="35.65248"/><trkpt lat="28.6603" lon="35.65194"/><trkpt lat="28.66076" lon="35.65109"/><trkpt lat="28.66101" lon="35.65096"/><trkpt lat="28.66172" lon="35.65165"/><trkpt lat="28.66218" lon="35.65175"/><trkpt lat="28.66228" lon="35.65251"/><trkpt lat="28.66267" lon="35.65337"/><trkpt lat="28.66318" lon="35.65371"/><trkpt lat="28.66402" lon="35.65361"/><trkpt lat="28.66362" lon="35.65319"/><trkpt lat="28.66337" lon="35.65339"/><trkpt lat="28.66358" lon="35.65325"/><trkpt lat="28.66367" lon="35.65334"/><trkpt lat="28.66385" lon="35.65301"/><trkpt lat="28.66394" lon="35.65327"/><trkpt lat="28.6637" lon="35.65345"/><trkpt lat="28.66375" lon="35.65309"/><trkpt lat="28.66355" lon="35.65366"/><trkpt lat="28.66333" lon="35.65365"/><trkpt lat="28.66313" lon="35.65336"/><trkpt lat="28.66317" lon="35.65267"/><trkpt lat="28.66353" lon="35.65151"/><trkpt lat="28.66315" lon="35.65106"/><trkpt lat="28.66315" lon="35.65063"/><trkpt lat="28.6633" lon="35.6501"/><trkpt lat="28.66451" lon="35.64865"/><trkpt lat="28.66499" lon="35.6476"/><trkpt lat="28.66545" lon="35.64692"/><trkpt lat="28.66629" lon="35.64603"/><trkpt lat="28.66731" lon="35.64383"/><trkpt lat="28.66827" lon="35.64283"/><trkpt lat="28.67012" lon="35.64173"/><trkpt lat="28.67437" lon="35.64023"/><trkpt lat="28.67551" lon="35.64015"/><trkpt lat="28.67658" lon="35.64024"/><trkpt lat="28.67891" lon="35.64083"/><trkpt lat="28.68321" lon="35.64064"/><trkpt lat="28.68527" lon="35.64092"/><trkpt lat="28.68626" lon="35.64085"/><trkpt lat="28.68683" lon="35.64067"/><trkpt lat="28.68763" lon="35.63999"/><trkpt lat="28.68902" lon="35.63907"/><trkpt lat="28.69036" lon="35.63862"/><trkpt lat="28.69117" lon="35.63802"/><trkpt lat="28.69231" lon="35.63748"/><trkpt lat="28.69308" lon="35.63689"/><trkpt lat="28.69371" lon="35.63659"/><trkpt lat="28.69545" lon="35.63651"/><trkpt lat="28.69865" lon="35.63578"/><trkpt lat="28.70032" lon="35.63601"/><trkpt lat="28.70146" lon="35.63579"/><trkpt lat="28.70238" lon="35.63578"/><trkpt lat="28.70408" lon="35.63542"/><trkpt lat="28.70602" lon="35.63478"/><trkpt lat="28.70667" lon="35.63471"/><trkpt lat="28.7079" lon="35.63494"/><trkpt lat="28.70809" lon="35.63555"/><trkpt lat="28.70776" lon="35.63822"/><trkpt lat="28.70787" lon="35.64003"/><trkpt lat="28.70815" lon="35.64117"/><trkpt lat="28.70863" lon="35.64147"/><trkpt lat="28.70893" lon="35.64149"/><trkpt lat="28.71024" lon="35.64117"/><trkpt lat="28.71033" lon="35.64133"/><trkpt lat="28.71019" lon="35.64153"/><trkpt lat="28.71006" lon="35.64131"/><trkpt lat="28.71046" lon="35.64093"/><trkpt lat="28.71011" lon="35.64145"/><trkpt lat="28.70971" lon="35.64135"/><trkpt lat="28.70905" lon="35.6415"/><trkpt lat="28.70884" lon="35.64126"/><trkpt lat="28.70862" lon="35.64137"/><trkpt lat="28.70846" lon="35.64127"/><trkpt lat="28.70845" lon="35.64097"/><trkpt lat="28.71047" lon="35.63978"/><trkpt lat="28.71149" lon="35.63895"/><trkpt lat="28.71145" lon="35.6388"/><trkpt lat="28.71171" lon="35.63875"/><trkpt lat="28.71187" lon="35.63835"/><trkpt lat="28.71227" lon="35.63823"/><trkpt lat="28.71163" lon="35.63854"/><trkpt lat="28.71145" lon="35.63884"/><trkpt lat="28.71139" lon="35.63869"/><trkpt lat="28.71166" lon="35.63778"/><trkpt lat="28.71119" lon="35.63747"/><trkpt lat="28.71115" lon="35.63728"/><trkpt lat="28.71161" lon="35.6369"/><trkpt lat="28.71364" lon="35.63415"/><trkpt lat="28.71397" lon="35.63329"/><trkpt lat="28.71479" lon="35.63285"/><trkpt lat="28.71681" lon="35.63117"/><trkpt lat="28.71702" lon="35.63079"/><trkpt lat="28.71711" lon="35.63007"/><trkpt lat="28.71822" lon="35.62722"/><trkpt lat="28.71824" lon="35.62629"/><trkpt lat="28.71805" lon="35.62517"/><trkpt lat="28.71724" lon="35.62312"/><trkpt lat="28.71675" lon="35.62157"/><trkpt lat="28.71671" lon="35.621"/><trkpt lat="28.71778" lon="35.61941"/><trkpt lat="28.71823" lon="35.61814"/><trkpt lat="28.71867" lon="35.61604"/><trkpt lat="28.71955" lon="35.61426"/><trkpt lat="28.72013" lon="35.61133"/><trkpt lat="28.72242" lon="35.60641"/><trkpt lat="28.72249" lon="35.60439"/><trkpt lat="28.72284" lon="35.60361"/><trkpt lat="28.72346" lon="35.60115"/><trkpt lat="28.72363" lon="35.59995"/><trkpt lat="28.72428" lon="35.59112"/><trkpt lat="28.72548" lon="35.58592"/><trkpt lat="28.72627" lon="35.58432"/><trkpt lat="28.72694" lon="35.5841"/><trkpt lat="28.72868" lon="35.58441"/><trkpt lat="28.7305" lon="35.58439"/><trkpt lat="28.7316" lon="35.58397"/><trkpt lat="28.73379" lon="35.58345"/><trkpt lat="28.73541" lon="35.58269"/><trkpt lat="28.73584" lon="35.58264"/><trkpt lat="28.73644" lon="35.58294"/><trkpt lat="28.73683" lon="35.58292"/><trkpt lat="28.73808" lon="35.58352"/><trkpt lat="28.73915" lon="35.58384"/><trkpt lat="28.74143" lon="35.58563"/><trkpt lat="28.74269" lon="35.58644"/><trkpt lat="28.74547" lon="35.58752"/><trkpt lat="28.74849" lon="35.58796"/><trkpt lat="28.74905" lon="35.58793"/><trkpt lat="28.74983" lon="35.58755"/><trkpt lat="28.75046" lon="35.58703"/><trkpt lat="28.75054" lon="35.58711"/><trkpt lat="28.75047" lon="35.58741"/><trkpt lat="28.75063" lon="35.58863"/><trkpt lat="28.75055" lon="35.58962"/><trkpt lat="28.75099" lon="35.589"/><trkpt lat="28.75146" lon="35.5889"/><trkpt lat="28.75587" lon="35.58953"/><trkpt lat="28.75854" lon="35.58975"/><trkpt lat="28.75994" lon="35.58998"/><trkpt lat="28.76066" lon="35.59028"/><trkpt lat="28.7609" lon="35.59043"/><trkpt lat="28.76137" lon="35.59111"/><trkpt lat="28.76203" lon="35.59043"/><trkpt lat="28.76218" lon="35.59009"/><trkpt lat="28.76219" lon="35.58936"/><trkpt lat="28.76254" lon="35.58783"/><trkpt lat="28.7628" lon="35.58732"/><trkpt lat="28.76377" lon="35.58622"/><trkpt lat="28.76509" lon="35.58507"/><trkpt lat="28.76668" lon="35.58326"/><trkpt lat="28.76749" lon="35.58257"/><trkpt lat="28.76907" lon="35.58209"/><trkpt lat="28.77034" lon="35.58117"/><trkpt lat="28.77388" lon="35.57937"/><trkpt lat="28.77552" lon="35.57833"/><trkpt lat="28.77869" lon="35.57698"/><trkpt lat="28.77963" lon="35.57674"/><trkpt lat="28.78172" lon="35.57655"/><trkpt lat="28.78336" lon="35.57666"/><trkpt lat="28.78547" lon="35.57607"/><trkpt lat="28.78737" lon="35.57575"/><trkpt lat="28.78999" lon="35.57563"/><trkpt lat="28.79153" lon="35.57527"/><trkpt lat="28.79311" lon="35.5751"/><trkpt lat="28.79681" lon="35.57411"/><trkpt lat="28.7984" lon="35.57322"/><trkpt lat="28.79965" lon="35.57285"/><trkpt lat="28.80133" lon="35.57207"/><trkpt lat="28.80492" lon="35.57149"/><trkpt lat="28.80679" lon="35.57029"/><trkpt lat="28.80813" lon="35.5691"/><trkpt lat="28.80954" lon="35.56815"/><trkpt lat="28.81298" lon="35.56534"/><trkpt lat="28.81927" lon="35.5618"/><trkpt lat="28.82248" lon="35.55933"/><trkpt lat="28.82526" lon="35.55834"/><trkpt lat="28.82609" lon="35.55785"/><trkpt lat="28.82744" lon="35.5568"/><trkpt lat="28.82964" lon="35.55573"/><trkpt lat="28.83152" lon="35.55556"/><trkpt lat="28.83279" lon="35.5557"/><trkpt lat="28.8336" lon="35.55591"/><trkpt lat="28.83442" lon="35.55661"/><trkpt lat="28.83504" lon="35.55693"/><trkpt lat="28.83741" lon="35.55748"/><trkpt lat="28.83835" lon="35.55754"/><trkpt lat="28.84286" lon="35.55684"/><trkpt lat="28.84802" lon="35.55697"/><trkpt lat="28.84921" lon="35.5571"/><trkpt lat="28.85214" lon="35.55792"/><trkpt lat="28.85434" lon="35.55805"/><trkpt lat="28.85852" lon="35.5575"/><trkpt lat="28.86065" lon="35.55736"/><trkpt lat="28.86366" lon="35.55741"/><trkpt lat="28.86489" lon="35.5572"/><trkpt lat="28.86554" lon="35.55729"/><trkpt lat="28.86598" lon="35.55711"/><trkpt lat="28.8661" lon="35.55646"/><trkpt lat="28.86645" lon="35.55598"/><trkpt lat="28.86668" lon="35.55526"/><trkpt lat="28.86648" lon="35.55127"/><trkpt lat="28.86692" lon="35.54554"/><trkpt lat="28.86683" lon="35.54393"/><trkpt lat="28.86652" lon="35.54203"/><trkpt lat="28.86739" lon="35.5418"/><trkpt lat="28.86789" lon="35.54197"/><trkpt lat="28.86803" lon="35.54172"/><trkpt lat="28.86782" lon="35.54166"/><trkpt lat="28.86763" lon="35.54183"/><trkpt lat="28.86662" lon="35.54188"/><trkpt lat="28.86648" lon="35.54178"/><trkpt lat="28.86529" lon="35.53766"/><trkpt lat="28.86479" lon="35.53506"/><trkpt lat="28.86459" lon="35.53262"/><trkpt lat="28.86462" lon="35.531"/><trkpt lat="28.86541" lon="35.52144"/><trkpt lat="28.86522" lon="35.51958"/><trkpt lat="28.86403" lon="35.51482"/><trkpt lat="28.86374" lon="35.51281"/><trkpt lat="28.86373" lon="35.51099"/><trkpt lat="28.86405" lon="35.50437"/><trkpt lat="28.86393" lon="35.50133"/><trkpt lat="28.86294" lon="35.49576"/><trkpt lat="28.86282" lon="35.49569"/><trkpt lat="28.86248" lon="35.49439"/><trkpt lat="28.86206" lon="35.49376"/><trkpt lat="28.86208" lon="35.49282"/><trkpt lat="28.86112" lon="35.48882"/><trkpt lat="28.86085" lon="35.48716"/><trkpt lat="28.86046" lon="35.48112"/><trkpt lat="28.86031" lon="35.47661"/><trkpt lat="28.86067" lon="35.47609"/><trkpt lat="28.86063" lon="35.47584"/><trkpt lat="28.86043" lon="35.47566"/><trkpt lat="28.86051" lon="35.47617"/><trkpt lat="28.86081" lon="35.47616"/><trkpt lat="28.86093" lon="35.47604"/><trkpt lat="28.86051" lon="35.47621"/><trkpt lat="28.86037" lon="35.47641"/><trkpt lat="28.86003" lon="35.4744"/><trkpt lat="28.85887" lon="35.47123"/><trkpt lat="28.85854" lon="35.46936"/><trkpt lat="28.85852" lon="35.46604"/><trkpt lat="28.85835" lon="35.46477"/><trkpt lat="28.85807" lon="35.46384"/><trkpt lat="28.85684" lon="35.46111"/><trkpt lat="28.85655" lon="35.46014"/><trkpt lat="28.85643" lon="35.45881"/><trkpt lat="28.85644" lon="35.45452"/><trkpt lat="28.85535" lon="35.44872"/><trkpt lat="28.85521" lon="35.44707"/><trkpt lat="28.85536" lon="35.44576"/><trkpt lat="28.85563" lon="35.44483"/><trkpt lat="28.85911" lon="35.4374"/><trkpt lat="28.86059" lon="35.43223"/><trkpt lat="28.86097" lon="35.43132"/><trkpt lat="28.8619" lon="35.43001"/><trkpt lat="28.86515" lon="35.42702"/><trkpt lat="28.86589" lon="35.42594"/><trkpt lat="28.86627" lon="35.42502"/><trkpt lat="28.8665" lon="35.42403"/><trkpt lat="28.86657" lon="35.42301"/><trkpt lat="28.86634" lon="35.41723"/><trkpt lat="28.86651" lon="35.4159"/><trkpt lat="28.86713" lon="35.41437"/><trkpt lat="28.86949" lon="35.4113"/><trkpt lat="28.87039" lon="35.40956"/><trkpt lat="28.87072" lon="35.40793"/><trkpt lat="28.87098" lon="35.4042"/><trkpt lat="28.87232" lon="35.3997"/><trkpt lat="28.87259" lon="35.39563"/><trkpt lat="28.8728" lon="35.39429"/><trkpt lat="28.87324" lon="35.39304"/><trkpt lat="28.87664" lon="35.38515"/><trkpt lat="28.87704" lon="35.38351"/><trkpt lat="28.87707" lon="35.3825"/><trkpt lat="28.8768" lon="35.37861"/><trkpt lat="28.87589" lon="35.36878"/><trkpt lat="28.8759" lon="35.36607"/><trkpt lat="28.87542" lon="35.36374"/><trkpt lat="28.87521" lon="35.36184"/><trkpt lat="28.87544" lon="35.36037"/><trkpt lat="28.87633" lon="35.35684"/><trkpt lat="28.8765" lon="35.35552"/><trkpt lat="28.8763" lon="35.3499"/><trkpt lat="28.87648" lon="35.3455"/><trkpt lat="28.87592" lon="35.34243"/><trkpt lat="28.87592" lon="35.34084"/><trkpt lat="28.87616" lon="35.33947"/><trkpt lat="28.87768" lon="35.33366"/><trkpt lat="28.87792" lon="35.33187"/><trkpt lat="28.87794" lon="35.33014"/><trkpt lat="28.87766" lon="35.32477"/><trkpt lat="28.87645" lon="35.32041"/><trkpt lat="28.87615" lon="35.31858"/><trkpt lat="28.87625" lon="35.31706"/><trkpt lat="28.87726" lon="35.31066"/><trkpt lat="28.87723" lon="35.30936"/><trkpt lat="28.87691" lon="35.30648"/><trkpt lat="28.87695" lon="35.30396"/><trkpt lat="28.87683" lon="35.30309"/><trkpt lat="28.87579" lon="35.29948"/><trkpt lat="28.87528" lon="35.29348"/><trkpt lat="28.87397" lon="35.28783"/><trkpt lat="28.87361" lon="35.28515"/><trkpt lat="28.87354" lon="35.28205"/><trkpt lat="28.87369" lon="35.28039"/><trkpt lat="28.87409" lon="35.27908"/><trkpt lat="28.87522" lon="35.27683"/><trkpt lat="28.87546" lon="35.27547"/><trkpt lat="28.87521" lon="35.27383"/><trkpt lat="28.87332" lon="35.27032"/><trkpt lat="28.87297" lon="35.26918"/><trkpt lat="28.8728" lon="35.26798"/><trkpt lat="28.87295" lon="35.26589"/><trkpt lat="28.8741" lon="35.25944"/><trkpt lat="28.87425" lon="35.2566"/><trkpt lat="28.8745" lon="35.25587"/><trkpt lat="28.87494" lon="35.25527"/><trkpt lat="28.87768" lon="35.25312"/><trkpt lat="28.87849" lon="35.25225"/><trkpt lat="28.87894" lon="35.25111"/><trkpt lat="28.87951" lon="35.24848"/><trkpt lat="28.8804" lon="35.24693"/><trkpt lat="28.88436" lon="35.24368"/><trkpt lat="28.88508" lon="35.24268"/><trkpt lat="28.88603" lon="35.24045"/><trkpt lat="28.88738" lon="35.23885"/><trkpt lat="28.88822" lon="35.23842"/><trkpt lat="28.89036" lon="35.23812"/><trkpt lat="28.89105" lon="35.2378"/><trkpt lat="28.89141" lon="35.23748"/><trkpt lat="28.89186" lon="35.23685"/><trkpt lat="28.89348" lon="35.23359"/><trkpt lat="28.8953" lon="35.23101"/><trkpt lat="28.89571" lon="35.23024"/><trkpt lat="28.89723" lon="35.22592"/><trkpt lat="28.89783" lon="35.22463"/><trkpt lat="28.89851" lon="35.2237"/><trkpt lat="28.90041" lon="35.22207"/><trkpt lat="28.90108" lon="35.22117"/><trkpt lat="28.90151" lon="35.21979"/><trkpt lat="28.90183" lon="35.21598"/><trkpt lat="28.90207" lon="35.21515"/><trkpt lat="28.90275" lon="35.21394"/><trkpt lat="28.90463" lon="35.21173"/><trkpt lat="28.90516" lon="35.21053"/><trkpt lat="28.90586" lon="35.20786"/><trkpt lat="28.90595" lon="35.20472"/><trkpt lat="28.90649" lon="35.20245"/><trkpt lat="28.90713" lon="35.20111"/><trkpt lat="28.90859" lon="35.19895"/><trkpt lat="28.90916" lon="35.19757"/><trkpt lat="28.91011" lon="35.1958"/><trkpt lat="28.91085" lon="35.19498"/><trkpt lat="28.91275" lon="35.1942"/><trkpt lat="28.91333" lon="35.19375"/><trkpt lat="28.91466" lon="35.19171"/><trkpt lat="28.91552" lon="35.1908"/><trkpt lat="28.92194" lon="35.18769"/><trkpt lat="28.92234" lon="35.18738"/><trkpt lat="28.92268" lon="35.18671"/><trkpt lat="28.92294" lon="35.18661"/><trkpt lat="28.92208" lon="35.1876"/><trkpt lat="28.9155" lon="35.19077"/><trkpt lat="28.9148" lon="35.19142"/><trkpt lat="28.91368" lon="35.19324"/><trkpt lat="28.91316" lon="35.19382"/><trkpt lat="28.91245" lon="35.19426"/><trkpt lat="28.91097" lon="35.19484"/><trkpt lat="28.9102" lon="35.19556"/><trkpt lat="28.90862" lon="35.19848"/><trkpt lat="28.90701" lon="35.20083"/><trkpt lat="28.90622" lon="35.20237"/><trkpt lat="28.90584" lon="35.20357"/><trkpt lat="28.90567" lon="35.2047"/><trkpt lat="28.90561" lon="35.20757"/><trkpt lat="28.90502" lon="35.20991"/><trkpt lat="28.9044" lon="35.21153"/><trkpt lat="28.9024" lon="35.21395"/><trkpt lat="28.9018" lon="35.21509"/><trkpt lat="28.90152" lon="35.21639"/><trkpt lat="28.90119" lon="35.2199"/><trkpt lat="28.90098" lon="35.22065"/><trkpt lat="28.90031" lon="35.22175"/><trkpt lat="28.89854" lon="35.22326"/><trkpt lat="28.89753" lon="35.2246"/><trkpt lat="28.89702" lon="35.22566"/><trkpt lat="28.89568" lon="35.22959"/><trkpt lat="28.89511" lon="35.23083"/><trkpt lat="28.89336" lon="35.23325"/><trkpt lat="28.89168" lon="35.23642"/><trkpt lat="28.8911" lon="35.23723"/><trkpt lat="28.89007" lon="35.23787"/><trkpt lat="28.88796" lon="35.23815"/><trkpt lat="28.88714" lon="35.23862"/><trkpt lat="28.88583" lon="35.24024"/><trkpt lat="28.88506" lon="35.24204"/><trkpt lat="28.88432" lon="35.24323"/><trkpt lat="28.88024" lon="35.24671"/><trkpt lat="28.87972" lon="35.24743"/><trkpt lat="28.87933" lon="35.24824"/><trkpt lat="28.87871" lon="35.25112"/><trkpt lat="28.87827" lon="35.25213"/><trkpt lat="28.87775" lon="35.25273"/><trkpt lat="28.87478" lon="35.25505"/><trkpt lat="28.87409" lon="35.25623"/><trkpt lat="28.87395" lon="35.25708"/><trkpt lat="28.87383" lon="35.25952"/><trkpt lat="28.87259" lon="35.26648"/><trkpt lat="28.87255" lon="35.26831"/><trkpt lat="28.87277" lon="35.26955"/><trkpt lat="28.87308" lon="35.27045"/><trkpt lat="28.87499" lon="35.27391"/><trkpt lat="28.87524" lon="35.27536"/><trkpt lat="28.87497" lon="35.27682"/><trkpt lat="28.87377" lon="35.27919"/><trkpt lat="28.87337" lon="35.2807"/><trkpt lat="28.87329" lon="35.28232"/><trkpt lat="28.87341" lon="35.28568"/><trkpt lat="28.87363" lon="35.28748"/><trkpt lat="28.87499" lon="35.29333"/><trkpt lat="28.87557" lon="35.2998"/><trkpt lat="28.87654" lon="35.30295"/><trkpt lat="28.87672" lon="35.30385"/><trkpt lat="28.87673" lon="35.30724"/><trkpt lat="28.87715" lon="35.30912"/><trkpt lat="28.87723" lon="35.31034"/><trkpt lat="28.87619" lon="35.31722"/><trkpt lat="28.87611" lon="35.31886"/><trkpt lat="28.87627" lon="35.31999"/><trkpt lat="28.87764" lon="35.32493"/><trkpt lat="28.87792" lon="35.33079"/><trkpt lat="28.87785" lon="35.33241"/><trkpt lat="28.87761" lon="35.33399"/><trkpt lat="28.87609" lon="35.33972"/><trkpt lat="28.87587" lon="35.34095"/><trkpt lat="28.87588" lon="35.34221"/><trkpt lat="28.87645" lon="35.3457"/><trkpt lat="28.87626" lon="35.34986"/><trkpt lat="28.87648" lon="35.35529"/><trkpt lat="28.87635" lon="35.35661"/><trkpt lat="28.87534" lon="35.36066"/><trkpt lat="28.87516" lon="35.36187"/><trkpt lat="28.87561" lon="35.36616"/><trkpt lat="28.87556" lon="35.36819"/><trkpt lat="28.87673" lon="35.38115"/><trkpt lat="28.87676" lon="35.3836"/><trkpt lat="28.87654" lon="35.38463"/><trkpt lat="28.87612" lon="35.38581"/><trkpt lat="28.8726" lon="35.39399"/><trkpt lat="28.87231" lon="35.39564"/><trkpt lat="28.87207" lon="35.39956"/><trkpt lat="28.87178" lon="35.40083"/><trkpt lat="28.87067" lon="35.40445"/><trkpt lat="28.87042" lon="35.40815"/><trkpt lat="28.87016" lon="35.40934"/><trkpt lat="28.86953" lon="35.4107"/><trkpt lat="28.86695" lon="35.41416"/><trkpt lat="28.86634" lon="35.41549"/><trkpt lat="28.86611" lon="35.4173"/><trkpt lat="28.8663" lon="35.42356"/><trkpt lat="28.86603" lon="35.425"/><trkpt lat="28.86572" lon="35.4258"/><trkpt lat="28.86513" lon="35.42671"/><trkpt lat="28.86178" lon="35.42982"/><trkpt lat="28.86073" lon="35.43127"/><trkpt lat="28.85877" lon="35.43759"/><trkpt lat="28.85537" lon="35.44479"/><trkpt lat="28.85503" lon="35.44606"/><trkpt lat="28.85494" lon="35.44704"/><trkpt lat="28.85502" lon="35.44835"/><trkpt lat="28.85612" lon="35.45443"/><trkpt lat="28.85614" lon="35.45922"/><trkpt lat="28.85625" lon="35.46016"/><trkpt lat="28.85661" lon="35.46137"/><trkpt lat="28.85767" lon="35.46364"/><trkpt lat="28.85806" lon="35.46478"/><trkpt lat="28.85823" lon="35.46598"/><trkpt lat="28.85836" lon="35.47036"/><trkpt lat="28.85864" lon="35.4715"/><trkpt lat="28.85955" lon="35.47405"/><trkpt lat="28.85992" lon="35.47559"/><trkpt lat="28.8603" lon="35.48353"/><trkpt lat="28.86071" lon="35.48796"/><trkpt lat="28.86322" lon="35.49852"/><trkpt lat="28.86377" lon="35.50202"/><trkpt lat="28.86383" lon="35.50481"/><trkpt lat="28.86343" lon="35.5113"/><trkpt lat="28.8635" lon="35.51326"/><trkpt lat="28.86377" lon="35.51497"/><trkpt lat="28.86496" lon="35.51962"/><trkpt lat="28.86515" lon="35.52174"/><trkpt lat="28.86442" lon="35.52981"/><trkpt lat="28.86434" lon="35.53284"/><trkpt lat="28.86475" lon="35.53645"/><trkpt lat="28.86623" lon="35.54216"/><trkpt lat="28.86658" lon="35.54445"/><trkpt lat="28.86661" lon="35.5461"/><trkpt lat="28.86622" lon="35.55072"/><trkpt lat="28.86623" lon="35.55338"/><trkpt lat="28.86795" lon="35.57578"/><trkpt lat="28.8678" lon="35.57901"/><trkpt lat="28.86603" lon="35.58991"/><trkpt lat="28.86604" lon="35.59193"/><trkpt lat="28.8664" lon="35.59389"/><trkpt lat="28.86695" lon="35.59546"/><trkpt lat="28.87205" lon="35.60567"/><trkpt lat="28.87271" lon="35.6079"/><trkpt lat="28.87299" lon="35.61023"/><trkpt lat="28.87287" lon="35.62465"/><trkpt lat="28.8726" lon="35.62729"/><trkpt lat="28.87222" lon="35.62891"/><trkpt lat="28.86979" lon="35.63538"/><trkpt lat="28.86929" lon="35.6373"/><trkpt lat="28.8671" lon="35.65435"/><trkpt lat="28.86671" lon="35.65635"/><trkpt lat="28.86476" lon="35.66419"/><trkpt lat="28.86372" lon="35.66698"/><trkpt lat="28.86029" lon="35.67334"/><trkpt lat="28.85979" lon="35.67458"/><trkpt lat="28.85956" lon="35.67557"/><trkpt lat="28.85941" lon="35.67689"/><trkpt lat="28.85914" lon="35.68435"/><trkpt lat="28.85782" lon="35.69373"/><trkpt lat="28.85763" lon="35.69609"/><trkpt lat="28.85769" lon="35.69711"/><trkpt lat="28.85793" lon="35.69844"/><trkpt lat="28.86008" lon="35.70442"/><trkpt lat="28.8604" lon="35.70572"/><trkpt lat="28.86056" lon="35.70706"/><trkpt lat="28.86051" lon="35.70842"/><trkpt lat="28.85973" lon="35.71446"/><trkpt lat="28.8596" lon="35.71682"/><trkpt lat="28.86027" lon="35.72492"/><trkpt lat="28.86018" lon="35.72797"/><trkpt lat="28.85982" lon="35.7327"/><trkpt lat="28.85982" lon="35.73474"/><trkpt lat="28.86005" lon="35.73712"/><trkpt lat="28.86097" lon="35.74313"/><trkpt lat="28.86116" lon="35.74548"/><trkpt lat="28.86116" lon="35.74718"/><trkpt lat="28.8605" lon="35.75766"/><trkpt lat="28.86048" lon="35.7597"/><trkpt lat="28.86083" lon="35.76205"/><trkpt lat="28.86264" lon="35.76843"/><trkpt lat="28.86321" lon="35.77101"/><trkpt lat="28.86427" lon="35.78566"/><trkpt lat="28.86412" lon="35.78832"/><trkpt lat="28.86299" lon="35.79555"/><trkpt lat="28.86298" lon="35.79756"/><trkpt lat="28.86317" lon="35.79854"/><trkpt lat="28.86362" lon="35.79978"/><trkpt lat="28.86696" lon="35.80565"/><trkpt lat="28.86736" lon="35.80692"/><trkpt lat="28.86752" lon="35.80824"/><trkpt lat="28.86735" lon="35.80991"/><trkpt lat="28.86679" lon="35.81147"/><trkpt lat="28.8632" lon="35.81757"/><trkpt lat="28.86253" lon="35.81907"/><trkpt lat="28.86209" lon="35.82102"/><trkpt lat="28.86155" lon="35.82496"/><trkpt lat="28.86158" lon="35.82665"/><trkpt lat="28.86183" lon="35.82795"/><trkpt lat="28.86238" lon="35.82951"/><trkpt lat="28.86445" lon="35.83433"/><trkpt lat="28.86487" lon="35.83593"/><trkpt lat="28.86504" lon="35.83793"/><trkpt lat="28.8654" lon="35.84895"/><trkpt lat="28.86535" lon="35.85095"/><trkpt lat="28.8637" lon="35.8632"/><trkpt lat="28.86364" lon="35.86521"/><trkpt lat="28.86392" lon="35.86686"/><trkpt lat="28.86579" lon="35.87321"/><trkpt lat="28.86629" lon="35.87616"/><trkpt lat="28.86641" lon="35.8785"/><trkpt lat="28.86626" lon="35.89022"/><trkpt lat="28.86651" lon="35.89322"/><trkpt lat="28.8669" lon="35.89517"/><trkpt lat="28.87037" lon="35.90831"/><trkpt lat="28.87325" lon="35.91687"/><trkpt lat="28.87429" lon="35.92318"/><trkpt lat="28.87465" lon="35.92485"/><trkpt lat="28.87498" lon="35.9258"/><trkpt lat="28.87586" lon="35.92755"/><trkpt lat="28.87662" lon="35.92859"/><trkpt lat="28.88095" lon="35.93275"/><trkpt lat="28.88148" lon="35.93356"/><trkpt lat="28.882" lon="35.93479"/><trkpt lat="28.88263" lon="35.9381"/><trkpt lat="28.88386" lon="35.94612"/><trkpt lat="28.884" lon="35.94849"/><trkpt lat="28.88389" lon="35.9546"/><trkpt lat="28.88406" lon="35.95594"/><trkpt lat="28.8846" lon="35.95753"/><trkpt lat="28.88784" lon="35.96361"/><trkpt lat="28.88847" lon="35.96515"/><trkpt lat="28.88883" lon="35.96679"/><trkpt lat="28.88966" lon="35.97283"/><trkpt lat="28.89127" lon="35.97868"/><trkpt lat="28.89176" lon="35.98099"/><trkpt lat="28.89249" lon="35.98942"/><trkpt lat="28.89281" lon="35.99109"/><trkpt lat="28.89401" lon="35.99566"/><trkpt lat="28.89422" lon="35.99733"/><trkpt lat="28.89415" lon="35.999"/><trkpt lat="28.89325" lon="36.00536"/><trkpt lat="28.89325" lon="36.00774"/><trkpt lat="28.8935" lon="36.00907"/><trkpt lat="28.89572" lon="36.01682"/><trkpt lat="28.89738" lon="36.02577"/><trkpt lat="28.89771" lon="36.02915"/><trkpt lat="28.89844" lon="36.04539"/><trkpt lat="28.89902" lon="36.04908"/><trkpt lat="28.90081" lon="36.05833"/><trkpt lat="28.90108" lon="36.06035"/><trkpt lat="28.90107" lon="36.06272"/><trkpt lat="28.90074" lon="36.06473"/><trkpt lat="28.90006" lon="36.06697"/><trkpt lat="28.89873" lon="36.07"/><trkpt lat="28.89819" lon="36.07158"/><trkpt lat="28.89786" lon="36.07324"/><trkpt lat="28.89775" lon="36.07492"/><trkpt lat="28.89798" lon="36.07729"/><trkpt lat="28.9" lon="36.08438"/><trkpt lat="28.90047" lon="36.08726"/><trkpt lat="28.90128" lon="36.09892"/><trkpt lat="28.90122" lon="36.10144"/><trkpt lat="28.90074" lon="36.10461"/><trkpt lat="28.89998" lon="36.10773"/><trkpt lat="28.89978" lon="36.10802"/><trkpt lat="28.89904" lon="36.10838"/><trkpt lat="28.89885" lon="36.1087"/><trkpt lat="28.899" lon="36.10943"/><trkpt lat="28.89934" lon="36.11017"/><trkpt lat="28.89931" lon="36.11099"/><trkpt lat="28.89247" lon="36.14076"/><trkpt lat="28.8787" lon="36.18013"/><trkpt lat="28.87748" lon="36.18425"/><trkpt lat="28.8699" lon="36.21206"/><trkpt lat="28.8683" lon="36.21671"/><trkpt lat="28.86348" lon="36.22931"/><trkpt lat="28.86247" lon="36.23245"/><trkpt lat="28.86135" lon="36.23662"/><trkpt lat="28.85914" lon="36.24633"/><trkpt lat="28.85777" lon="36.25144"/><trkpt lat="28.85197" lon="36.26678"/><trkpt lat="28.85168" lon="36.26838"/><trkpt lat="28.85144" lon="36.27104"/><trkpt lat="28.85101" lon="36.27285"/><trkpt lat="28.84992" lon="36.2751"/><trkpt lat="28.84857" lon="36.27671"/><trkpt lat="28.8471" lon="36.27774"/><trkpt lat="28.84512" lon="36.27848"/><trkpt lat="28.83246" lon="36.2808"/><trkpt lat="28.82838" lon="36.28182"/><trkpt lat="28.80493" lon="36.29005"/><trkpt lat="28.80123" lon="36.29147"/><trkpt lat="28.79571" lon="36.29406"/><trkpt lat="28.7502" lon="36.31667"/><trkpt lat="28.69201" lon="36.34175"/><trkpt lat="28.68818" lon="36.34372"/><trkpt lat="28.6842" lon="36.34609"/><trkpt lat="28.64781" lon="36.36821"/><trkpt lat="28.58857" lon="36.40002"/><trkpt lat="28.58623" lon="36.40155"/><trkpt lat="28.58325" lon="36.40382"/><trkpt lat="28.5386" lon="36.44201"/><trkpt lat="28.50681" lon="36.46644"/><trkpt lat="28.50363" lon="36.46851"/><trkpt lat="28.50217" lon="36.46932"/><trkpt lat="28.50049" lon="36.47145"/><trkpt lat="28.49807" lon="36.47395"/><trkpt lat="28.47561" lon="36.49637"/><trkpt lat="28.4729" lon="36.49877"/><trkpt lat="28.47022" lon="36.50069"/><trkpt lat="28.45998" lon="36.50731"/><trkpt lat="28.45923" lon="36.50757"/><trkpt lat="28.45768" lon="36.50735"/><trkpt lat="28.45691" lon="36.50758"/><trkpt lat="28.45643" lon="36.50813"/><trkpt lat="28.45587" lon="36.50967"/><trkpt lat="28.45515" lon="36.51042"/><trkpt lat="28.44431" lon="36.51762"/><trkpt lat="28.41699" lon="36.53533"/><trkpt lat="28.41532" lon="36.53657"/><trkpt lat="28.41332" lon="36.53831"/><trkpt lat="28.4053" lon="36.54608"/><trkpt lat="28.40132" lon="36.55048"/><trkpt lat="28.39191" lon="36.56675"/><trkpt lat="28.39191" lon="36.56696"/><trkpt lat="28.39211" lon="36.5672"/><trkpt lat="28.39511" lon="36.56942"/><trkpt lat="28.3941" lon="36.57129"/><trkpt lat="28.39488" lon="36.57195"/><trkpt lat="28.39517" lon="36.57196"/><trkpt lat="28.39506" lon="36.572"/><trkpt lat="28.39501" lon="36.57233"/><trkpt lat="28.39463" lon="36.57236"/><trkpt lat="28.39474" lon="36.57247"/><trkpt lat="28.3947" lon="36.57226"/><trkpt lat="28.39487" lon="36.572"/><trkpt lat="28.39511" lon="36.57204"/><trkpt lat="28.39505" lon="36.57191"/><trkpt lat="28.39538" lon="36.57115"/><trkpt lat="28.39632" lon="36.56977"/><trkpt lat="28.39824" lon="36.56637"/><trkpt lat="28.3991" lon="36.56467"/><trkpt lat="28.39904" lon="36.56452"/><trkpt lat="28.3983" lon="36.56407"/><trkpt lat="28.39734" lon="36.56569"/><trkpt lat="28.39712" lon="36.56582"/><trkpt lat="28.39389" lon="36.56345"/><trkpt lat="28.39371" lon="36.56352"/><trkpt lat="28.39308" lon="36.56462"/><trkpt lat="28.39289" lon="36.56467"/><trkpt lat="28.38895" lon="36.56179"/><trkpt lat="28.3879" lon="36.56291"/><trkpt lat="28.3874" lon="36.56383"/><trkpt lat="28.38721" lon="36.56376"/><trkpt lat="28.38729" lon="36.56332"/><trkpt lat="28.38706" lon="36.56371"/><trkpt lat="28.38739" lon="36.56364"/><trkpt lat="28.38728" lon="36.56368"/><trkpt lat="28.38742" lon="36.56383"/><trkpt lat="28.38731" lon="36.56374"/><trkpt lat="28.38729" lon="36.56401"/><trkpt lat="28.38601" lon="36.56659"/><trkpt lat="28.38596" lon="36.56648"/><trkpt lat="28.38614" lon="36.56616"/><trkpt lat="28.38607" lon="36.56536"/><trkpt lat="28.38635" lon="36.56467"/><trkpt lat="28.38624" lon="36.56398"/><trkpt lat="28.38622" lon="36.56417"/><trkpt lat="28.38654" lon="36.56433"/><trkpt lat="28.38625" lon="36.56495"/><trkpt lat="28.38633" lon="36.56472"/><trkpt lat="28.38638" lon="36.56495"/><trkpt lat="28.3861" lon="36.56473"/><trkpt lat="28.3861" lon="36.56432"/><trkpt lat="28.38633" lon="36.56381"/><trkpt lat="28.38662" lon="36.56355"/><trkpt lat="28.38701" lon="36.56282"/><trkpt lat="28.38758" lon="36.56329"/><trkpt lat="28.38758" lon="36.5635"/><trkpt lat="28.38603" lon="36.56664"/><trkpt lat="28.3857" lon="36.56736"/><trkpt lat="28.38573" lon="36.56761"/><trkpt lat="28.38895" lon="36.57002"/><trkpt lat="28.39039" lon="36.57158"/><trkpt lat="28.39219" lon="36.57282"/><trkpt lat="28.39346" lon="36.57424"/><trkpt lat="28.39366" lon="36.57422"/><trkpt lat="28.39424" lon="36.57335"/><trkpt lat="28.39449" lon="36.57326"/><trkpt lat="28.39447" lon="36.57312"/><trkpt lat="28.39417" lon="36.57297"/><trkpt lat="28.39437" lon="36.57319"/><trkpt lat="28.39432" lon="36.57338"/><trkpt lat="28.39442" lon="36.57337"/><trkpt lat="28.39431" lon="36.57341"/><trkpt lat="28.39445" lon="36.57344"/><trkpt lat="28.39427" lon="36.57344"/><trkpt lat="28.39448" lon="36.5735"/><trkpt lat="28.39424" lon="36.57344"/><trkpt lat="28.39433" lon="36.5733"/><trkpt lat="28.39447" lon="36.57351"/><trkpt lat="28.39467" lon="36.57345"/><trkpt lat="28.39474" lon="36.57361"/><trkpt lat="28.39422" lon="36.5732"/><trkpt lat="28.39411" lon="36.57334"/><trkpt lat="28.39434" lon="36.57333"/><trkpt lat="28.39554" lon="36.57105"/><trkpt lat="28.39562" lon="36.57099"/><trkpt lat="28.39578" lon="36.57115"/><trkpt lat="28.39595" lon="36.57084"/><trkpt lat="28.40017" lon="36.574"/><trkpt lat="28.40017" lon="36.57421"/><trkpt lat="28.39974" lon="36.57494"/><trkpt lat="28.39745" lon="36.57849"/><trkpt lat="28.39745" lon="36.5788"/><trkpt lat="28.40802" lon="36.5918"/><trkpt lat="28.40827" lon="36.59179"/><trkpt lat="28.41128" lon="36.5887"/><trkpt lat="28.41152" lon="36.58858"/><trkpt lat="28.41178" lon="36.58867"/><trkpt lat="28.41212" lon="36.58843"/><trkpt lat="28.41211" lon="36.58854"/><trkpt lat="28.41219" lon="36.58834"/><trkpt lat="28.41208" lon="36.58859"/><trkpt lat="28.41202" lon="36.58843"/><trkpt lat="28.41266" lon="36.58779"/><trkpt lat="28.41255" lon="36.5875"/><trkpt lat="28.41262" lon="36.58729"/><trkpt lat="28.41482" lon="36.58477"/><trkpt lat="28.41368" lon="36.58583"/><trkpt lat="28.40824" lon="36.59165"/><trkpt lat="28.40815" lon="36.59201"/><trkpt lat="28.41228" lon="36.59709"/><trkpt lat="28.41241" lon="36.59741"/><trkpt lat="28.41237" lon="36.59839"/><trkpt lat="28.41262" lon="36.59889"/><trkpt lat="28.41297" lon="36.59917"/><trkpt lat="28.41405" lon="36.5993"/><trkpt lat="28.41458" lon="36.59959"/><trkpt lat="28.41896" lon="36.60498"/><trkpt lat="28.42493" lon="36.61285"/><trkpt lat="28.42888" lon="36.61779"/><trkpt lat="28.42978" lon="36.61955"/><trkpt lat="28.43012" lon="36.62129"/><trkpt lat="28.43004" lon="36.62299"/><trkpt lat="28.42908" lon="36.62646"/><trkpt lat="28.40922" lon="36.69049"/><trkpt lat="28.40813" lon="36.69482"/><trkpt lat="28.39865" lon="36.74629"/><trkpt lat="28.39666" lon="36.75772"/><trkpt lat="28.3963" lon="36.76109"/><trkpt lat="28.39619" lon="36.76404"/><trkpt lat="28.39671" lon="36.77957"/><trkpt lat="28.39666" lon="36.78269"/><trkpt lat="28.39643" lon="36.78558"/><trkpt lat="28.38665" lon="36.84432"/><trkpt lat="28.38641" lon="36.84681"/><trkpt lat="28.38669" lon="36.84962"/><trkpt lat="28.38707" lon="36.8511"/><trkpt lat="28.38762" lon="36.85252"/><trkpt lat="28.39899" lon="36.87359"/><trkpt lat="28.39959" lon="36.87494"/><trkpt lat="28.40023" lon="36.87695"/><trkpt lat="28.40055" lon="36.87877"/><trkpt lat="28.40172" lon="36.88804"/><trkpt lat="28.41391" lon="36.98666"/><trkpt lat="28.41423" lon="36.99002"/><trkpt lat="28.41412" lon="36.99048"/><trkpt lat="28.41364" lon="36.99119"/><trkpt lat="28.41357" lon="36.9915"/><trkpt lat="28.41371" lon="36.99203"/><trkpt lat="28.41391" lon="36.99205"/><trkpt lat="28.41398" lon="36.99257"/><trkpt lat="28.41448" lon="36.99379"/><trkpt lat="28.41502" lon="36.99424"/><trkpt lat="28.41671" lon="36.99896"/><trkpt lat="28.42619" lon="37.0237"/><trkpt lat="28.42671" lon="37.02533"/><trkpt lat="28.42711" lon="37.02717"/><trkpt lat="28.42729" lon="37.02904"/><trkpt lat="28.42723" lon="37.03135"/><trkpt lat="28.42675" lon="37.03412"/><trkpt lat="28.42621" lon="37.03579"/><trkpt lat="28.42564" lon="37.0371"/><trkpt lat="28.42433" lon="37.03931"/><trkpt lat="28.42204" lon="37.0425"/><trkpt lat="28.42002" lon="37.04569"/><trkpt lat="28.4188" lon="37.04794"/><trkpt lat="28.41735" lon="37.05108"/><trkpt lat="28.41629" lon="37.05381"/><trkpt lat="28.4155" lon="37.05625"/><trkpt lat="28.41338" lon="37.0643"/><trkpt lat="28.41305" lon="37.06463"/><trkpt lat="28.35879" lon="37.0807"/><trkpt lat="28.3574" lon="37.08139"/><trkpt lat="28.35579" lon="37.08274"/><trkpt lat="28.35514" lon="37.08355"/><trkpt lat="28.35299" lon="37.08694"/><trkpt lat="28.35248" lon="37.08752"/><trkpt lat="28.35027" lon="37.08547"/><trkpt lat="28.34912" lon="37.08492"/><trkpt lat="28.34754" lon="37.08378"/><trkpt lat="28.34666" lon="37.08289"/><trkpt lat="28.34615" lon="37.08259"/><trkpt lat="28.34529" lon="37.08165"/><trkpt lat="28.34428" lon="37.08121"/><trkpt lat="28.343" lon="37.08032"/><trkpt lat="28.3423" lon="37.08009"/><trkpt lat="28.34029" lon="37.07907"/><trkpt lat="28.33818" lon="37.07825"/><trkpt lat="28.33737" lon="37.07731"/><trkpt lat="28.3356" lon="37.07618"/><trkpt lat="28.33432" lon="37.07574"/><trkpt lat="28.33384" lon="37.07541"/><trkpt lat="28.33375" lon="37.07522"/><trkpt lat="28.33391" lon="37.07498"/><trkpt lat="28.33478" lon="37.07457"/><trkpt lat="28.33609" lon="37.07338"/><trkpt lat="28.33648" lon="37.07193"/><trkpt lat="28.3362" lon="37.07148"/><trkpt lat="28.33614" lon="37.07109"/><trkpt lat="28.33638" lon="37.07063"/><trkpt lat="28.33668" lon="37.06862"/><trkpt lat="28.33686" lon="37.06843"/><trkpt lat="28.33727" lon="37.06862"/><trkpt lat="28.33735" lon="37.06834"/><trkpt lat="28.33748" lon="37.06827"/><trkpt lat="28.33784" lon="37.0688"/><trkpt lat="28.33815" lon="37.06872"/><trkpt lat="28.3384" lon="37.06819"/><trkpt lat="28.33853" lon="37.06745"/></trkseg></trk></gpx>
