<?xml version="1.0" encoding="UTF-8"?>
<gpx version="1.1" creator="Nomad Outdoors" xmlns="http://www.topografix.com/GPX/1/1"><metadata><name>Al Dhaid and Falaj Al Mualla, March 2025</name><link href="https://www.nomadoutdoors.org/routes/2025-03-02-al-dhaid-and-falaj-al-mualla"/></metadata><trk><name>Al Dhaid and Falaj Al Mualla, March 2025</name><trkseg><trkpt lat="25.59329" lon="55.84642"/><trkpt lat="25.59202" lon="55.84569"/><trkpt lat="25.59206" lon="55.84598"/><trkpt lat="25.59175" lon="55.8464"/><trkpt lat="25.59189" lon="55.84696"/><trkpt lat="25.59237" lon="55.84771"/><trkpt lat="25.59217" lon="55.84792"/><trkpt lat="25.59175" lon="55.84783"/><trkpt lat="25.59148" lon="55.84798"/><trkpt lat="25.59133" lon="55.84819"/><trkpt lat="25.59142" lon="55.8484"/><trkpt lat="25.59121" lon="55.84877"/><trkpt lat="25.59083" lon="55.84874"/><trkpt lat="25.59047" lon="55.84853"/><trkpt lat="25.59003" lon="55.84864"/><trkpt lat="25.58931" lon="55.84778"/><trkpt lat="25.58874" lon="55.84799"/><trkpt lat="25.58858" lon="55.84794"/><trkpt lat="25.58945" lon="55.84778"/><trkpt lat="25.58981" lon="55.8484"/><trkpt lat="25.5896" lon="55.84909"/><trkpt lat="25.58975" lon="55.84972"/><trkpt lat="25.58911" lon="55.85018"/><trkpt lat="25.58849" lon="55.85018"/><trkpt lat="25.5883" lon="55.85078"/><trkpt lat="25.5881" lon="55.85091"/><trkpt lat="25.58698" lon="55.85045"/><trkpt lat="25.58603" lon="55.85081"/><trkpt lat="25.58553" lon="55.85066"/><trkpt lat="25.58503" lon="55.85034"/><trkpt lat="25.58446" lon="55.8502"/><trkpt lat="25.58405" lon="55.84944"/><trkpt lat="25.58371" lon="55.84936"/><trkpt lat="25.58379" lon="55.84914"/><trkpt lat="25.58327" lon="55.84921"/><trkpt lat="25.5813" lon="55.84904"/><trkpt lat="25.57959" lon="55.84822"/><trkpt lat="25.57975" lon="55.84793"/><trkpt lat="25.57958" lon="55.84768"/><trkpt lat="25.57903" lon="55.84766"/><trkpt lat="25.57738" lon="55.84697"/><trkpt lat="25.5766" lon="55.8469"/><trkpt lat="25.57575" lon="55.84704"/><trkpt lat="25.57483" lon="55.84689"/><trkpt lat="25.57468" lon="55.84705"/><trkpt lat="25.57446" lon="55.84773"/><trkpt lat="25.57484" lon="55.84862"/><trkpt lat="25.57525" lon="55.85074"/><trkpt lat="25.57548" lon="55.85098"/><trkpt lat="25.57509" lon="55.85124"/><trkpt lat="25.57491" lon="55.85155"/><trkpt lat="25.57456" lon="55.85155"/><trkpt lat="25.57438" lon="55.8517"/><trkpt lat="25.57429" lon="55.85145"/><trkpt lat="25.57414" lon="55.85143"/><trkpt lat="25.57341" lon="55.85166"/><trkpt lat="25.57306" lon="55.85129"/><trkpt lat="25.5725" lon="55.85097"/><trkpt lat="25.57152" lon="55.85108"/><trkpt lat="25.57136" lon="55.85122"/><trkpt lat="25.57175" lon="55.85226"/><trkpt lat="25.57161" lon="55.85237"/><trkpt lat="25.57098" lon="55.852"/><trkpt lat="25.57054" lon="55.85199"/><trkpt lat="25.57018" lon="55.85216"/><trkpt lat="25.56943" lon="55.85132"/><trkpt lat="25.5688" lon="55.85095"/><trkpt lat="25.56827" lon="55.85013"/><trkpt lat="25.56796" lon="55.85013"/><trkpt lat="25.56739" lon="55.84978"/><trkpt lat="25.56727" lon="55.84986"/><trkpt lat="25.56719" lon="55.85032"/><trkpt lat="25.56745" lon="55.85089"/><trkpt lat="25.56717" lon="55.85104"/><trkpt lat="25.56724" lon="55.85128"/><trkpt lat="25.56678" lon="55.85082"/><trkpt lat="25.5663" lon="55.85077"/><trkpt lat="25.56538" lon="55.85024"/><trkpt lat="25.56448" lon="55.85028"/><trkpt lat="25.56402" lon="55.84987"/><trkpt lat="25.56449" lon="55.8503"/><trkpt lat="25.56423" lon="55.84992"/><trkpt lat="25.5638" lon="55.84974"/><trkpt lat="25.56358" lon="55.84991"/><trkpt lat="25.56303" lon="55.84955"/><trkpt lat="25.56225" lon="55.84993"/><trkpt lat="25.56207" lon="55.8496"/><trkpt lat="25.56096" lon="55.84842"/><trkpt lat="25.56059" lon="55.84827"/><trkpt lat="25.56046" lon="55.84799"/><trkpt lat="25.56018" lon="55.8481"/><trkpt lat="25.55937" lon="55.84794"/><trkpt lat="25.55881" lon="55.84849"/><trkpt lat="25.55767" lon="55.84849"/><trkpt lat="25.55746" lon="55.84897"/><trkpt lat="25.55701" lon="55.84914"/><trkpt lat="25.55698" lon="55.84976"/><trkpt lat="25.55642" lon="55.84977"/><trkpt lat="25.5563" lon="55.8501"/><trkpt lat="25.55485" lon="55.8501"/><trkpt lat="25.55538" lon="55.85138"/><trkpt lat="25.55541" lon="55.85202"/><trkpt lat="25.55527" lon="55.85217"/><trkpt lat="25.55509" lon="55.85204"/><trkpt lat="25.55486" lon="55.85214"/><trkpt lat="25.55499" lon="55.85229"/><trkpt lat="25.55474" lon="55.85285"/><trkpt lat="25.554" lon="55.85302"/><trkpt lat="25.55387" lon="55.85363"/><trkpt lat="25.55397" lon="55.85424"/><trkpt lat="25.55387" lon="55.85443"/><trkpt lat="25.55347" lon="55.85452"/><trkpt lat="25.55289" lon="55.85408"/><trkpt lat="25.55277" lon="55.85413"/><trkpt lat="25.55284" lon="55.85434"/><trkpt lat="25.55349" lon="55.85451"/><trkpt lat="25.55406" lon="55.8545"/><trkpt lat="25.55476" lon="55.85557"/><trkpt lat="25.55474" lon="55.85571"/><trkpt lat="25.55341" lon="55.85619"/><trkpt lat="25.552" lon="55.85652"/><trkpt lat="25.55098" lon="55.85659"/><trkpt lat="25.54943" lon="55.855"/><trkpt lat="25.54898" lon="55.85469"/><trkpt lat="25.54783" lon="55.8542"/><trkpt lat="25.54692" lon="55.85413"/><trkpt lat="25.54602" lon="55.85382"/><trkpt lat="25.54328" lon="55.85413"/><trkpt lat="25.54213" lon="55.85408"/><trkpt lat="25.54144" lon="55.85362"/><trkpt lat="25.54098" lon="55.85353"/><trkpt lat="25.54055" lon="55.85373"/><trkpt lat="25.54069" lon="55.85437"/><trkpt lat="25.5411" lon="55.85475"/><trkpt lat="25.54208" lon="55.85524"/><trkpt lat="25.54226" lon="55.85541"/><trkpt lat="25.54226" lon="55.85556"/><trkpt lat="25.54173" lon="55.85566"/><trkpt lat="25.54107" lon="55.85527"/><trkpt lat="25.54069" lon="55.85529"/><trkpt lat="25.54016" lon="55.85509"/><trkpt lat="25.53943" lon="55.85605"/><trkpt lat="25.53918" lon="55.85609"/><trkpt lat="25.53915" lon="55.85641"/><trkpt lat="25.53902" lon="55.85651"/><trkpt lat="25.53863" lon="55.85617"/><trkpt lat="25.53773" lon="55.85571"/><trkpt lat="25.5356" lon="55.85493"/><trkpt lat="25.53359" lon="55.85398"/><trkpt lat="25.53037" lon="55.8537"/><trkpt lat="25.52951" lon="55.8529"/><trkpt lat="25.5291" lon="55.85355"/><trkpt lat="25.52903" lon="55.85395"/><trkpt lat="25.52908" lon="55.85356"/><trkpt lat="25.52941" lon="55.85396"/><trkpt lat="25.52929" lon="55.85436"/><trkpt lat="25.52838" lon="55.85485"/><trkpt lat="25.52794" lon="55.85427"/><trkpt lat="25.52747" lon="55.85423"/><trkpt lat="25.52734" lon="55.85395"/><trkpt lat="25.52686" lon="55.85391"/><trkpt lat="25.52622" lon="55.85345"/><trkpt lat="25.52621" lon="55.85307"/><trkpt lat="25.52604" lon="55.85285"/><trkpt lat="25.5252" lon="55.85334"/><trkpt lat="25.5237" lon="55.85296"/><trkpt lat="25.52324" lon="55.8536"/><trkpt lat="25.52283" lon="55.85372"/><trkpt lat="25.52297" lon="55.85363"/><trkpt lat="25.52269" lon="55.85313"/><trkpt lat="25.52232" lon="55.85325"/><trkpt lat="25.52185" lon="55.85312"/><trkpt lat="25.52102" lon="55.85347"/><trkpt lat="25.52047" lon="55.8539"/><trkpt lat="25.52196" lon="55.85552"/><trkpt lat="25.52351" lon="55.85624"/><trkpt lat="25.52367" lon="55.85692"/><trkpt lat="25.52417" lon="55.85743"/><trkpt lat="25.52444" lon="55.85807"/><trkpt lat="25.5244" lon="55.85818"/><trkpt lat="25.52411" lon="55.85822"/><trkpt lat="25.52364" lon="55.85854"/><trkpt lat="25.52273" lon="55.85874"/><trkpt lat="25.52243" lon="55.85903"/><trkpt lat="25.52159" lon="55.85898"/><trkpt lat="25.5208" lon="55.85784"/><trkpt lat="25.51898" lon="55.85739"/><trkpt lat="25.51846" lon="55.8574"/><trkpt lat="25.51749" lon="55.85777"/><trkpt lat="25.51545" lon="55.85796"/><trkpt lat="25.51291" lon="55.85786"/><trkpt lat="25.51243" lon="55.85722"/><trkpt lat="25.51154" lon="55.85657"/><trkpt lat="25.51139" lon="55.85625"/><trkpt lat="25.51095" lon="55.85619"/><trkpt lat="25.51098" lon="55.85648"/><trkpt lat="25.5099" lon="55.85611"/><trkpt lat="25.50962" lon="55.85621"/><trkpt lat="25.50952" lon="55.85588"/><trkpt lat="25.50901" lon="55.85572"/><trkpt lat="25.50875" lon="55.85532"/><trkpt lat="25.50864" lon="55.85532"/><trkpt lat="25.50868" lon="55.85539"/><trkpt lat="25.50876" lon="55.85536"/><trkpt lat="25.50862" lon="55.85496"/><trkpt lat="25.50749" lon="55.85481"/><trkpt lat="25.50615" lon="55.85433"/><trkpt lat="25.5058" lon="55.85339"/><trkpt lat="25.50525" lon="55.85284"/><trkpt lat="25.50463" lon="55.85269"/><trkpt lat="25.50314" lon="55.85293"/><trkpt lat="25.50194" lon="55.85225"/><trkpt lat="25.50071" lon="55.85177"/><trkpt lat="25.49768" lon="55.85139"/><trkpt lat="25.49694" lon="55.85117"/><trkpt lat="25.4965" lon="55.85064"/><trkpt lat="25.49689" lon="55.8502"/><trkpt lat="25.49738" lon="55.8499"/><trkpt lat="25.49732" lon="55.84973"/><trkpt lat="25.49527" lon="55.85008"/><trkpt lat="25.49388" lon="55.85002"/><trkpt lat="25.49352" lon="55.84976"/><trkpt lat="25.49334" lon="55.85013"/><trkpt lat="25.49171" lon="55.85084"/><trkpt lat="25.491" lon="55.8506"/><trkpt lat="25.48913" lon="55.85053"/><trkpt lat="25.48843" lon="55.85024"/><trkpt lat="25.48764" lon="55.84948"/><trkpt lat="25.48628" lon="55.84916"/><trkpt lat="25.48584" lon="55.84927"/><trkpt lat="25.48542" lon="55.84973"/><trkpt lat="25.48516" lon="55.84974"/><trkpt lat="25.48481" lon="55.84995"/><trkpt lat="25.48388" lon="55.85072"/><trkpt lat="25.48477" lon="55.85183"/><trkpt lat="25.48584" lon="55.8525"/><trkpt lat="25.48578" lon="55.85265"/><trkpt lat="25.48485" lon="55.85272"/><trkpt lat="25.48484" lon="55.85287"/><trkpt lat="25.48518" lon="55.85338"/><trkpt lat="25.48514" lon="55.85359"/><trkpt lat="25.48324" lon="55.85449"/><trkpt lat="25.48215" lon="55.85515"/><trkpt lat="25.48115" lon="55.85584"/><trkpt lat="25.48064" lon="55.85652"/><trkpt lat="25.47994" lon="55.857"/><trkpt lat="25.47899" lon="55.85736"/><trkpt lat="25.47734" lon="55.85753"/><trkpt lat="25.47714" lon="55.85776"/><trkpt lat="25.47696" lon="55.85853"/><trkpt lat="25.47638" lon="55.85923"/><trkpt lat="25.47652" lon="55.85976"/><trkpt lat="25.47632" lon="55.86008"/><trkpt lat="25.47646" lon="55.8604"/><trkpt lat="25.47606" lon="55.86069"/><trkpt lat="25.4753" lon="55.86083"/><trkpt lat="25.47386" lon="55.86057"/><trkpt lat="25.47238" lon="55.86078"/><trkpt lat="25.4724" lon="55.86102"/><trkpt lat="25.47302" lon="55.86166"/><trkpt lat="25.47298" lon="55.86269"/><trkpt lat="25.4728" lon="55.86295"/><trkpt lat="25.47122" lon="55.86402"/><trkpt lat="25.46963" lon="55.8642"/><trkpt lat="25.46784" lon="55.86492"/><trkpt lat="25.46683" lon="55.86619"/><trkpt lat="25.46637" lon="55.86695"/><trkpt lat="25.46654" lon="55.86735"/><trkpt lat="25.46712" lon="55.86795"/><trkpt lat="25.46842" lon="55.86849"/><trkpt lat="25.46874" lon="55.86848"/><trkpt lat="25.46996" lon="55.86756"/><trkpt lat="25.4706" lon="55.86739"/><trkpt lat="25.47162" lon="55.86763"/><trkpt lat="25.47203" lon="55.86757"/><trkpt lat="25.47248" lon="55.86779"/><trkpt lat="25.47336" lon="55.86752"/><trkpt lat="25.47348" lon="55.86761"/><trkpt lat="25.47345" lon="55.86776"/><trkpt lat="25.4723" lon="55.86836"/><trkpt lat="25.47141" lon="55.86857"/><trkpt lat="25.47066" lon="55.86925"/><trkpt lat="25.46907" lon="55.87032"/><trkpt lat="25.46806" lon="55.87067"/><trkpt lat="25.46704" lon="55.87131"/><trkpt lat="25.46567" lon="55.87135"/><trkpt lat="25.46503" lon="55.87163"/><trkpt lat="25.46473" lon="55.87224"/><trkpt lat="25.46376" lon="55.87215"/><trkpt lat="25.46348" lon="55.87254"/><trkpt lat="25.46276" lon="55.87239"/><trkpt lat="25.46202" lon="55.87333"/><trkpt lat="25.46209" lon="55.8737"/><trkpt lat="25.46291" lon="55.87402"/><trkpt lat="25.4637" lon="55.87458"/><trkpt lat="25.46473" lon="55.8749"/><trkpt lat="25.46491" lon="55.87514"/><trkpt lat="25.46481" lon="55.87533"/><trkpt lat="25.46396" lon="55.87575"/><trkpt lat="25.46351" lon="55.87616"/><trkpt lat="25.4628" lon="55.87584"/><trkpt lat="25.46221" lon="55.87632"/><trkpt lat="25.46214" lon="55.87656"/><trkpt lat="25.46251" lon="55.87687"/><trkpt lat="25.46317" lon="55.87673"/><trkpt lat="25.46339" lon="55.87714"/><trkpt lat="25.46404" lon="55.87696"/><trkpt lat="25.46425" lon="55.87721"/><trkpt lat="25.46388" lon="55.87758"/><trkpt lat="25.46297" lon="55.87897"/><trkpt lat="25.46281" lon="55.87902"/><trkpt lat="25.46252" lon="55.87871"/><trkpt lat="25.46232" lon="55.87869"/><trkpt lat="25.46139" lon="55.87925"/><trkpt lat="25.46091" lon="55.87939"/><trkpt lat="25.46053" lon="55.88"/><trkpt lat="25.46056" lon="55.88043"/><trkpt lat="25.46041" lon="55.88079"/><trkpt lat="25.46164" lon="55.88166"/><trkpt lat="25.46214" lon="55.88174"/><trkpt lat="25.46413" lon="55.88249"/><trkpt lat="25.46542" lon="55.88247"/><trkpt lat="25.46646" lon="55.88226"/><trkpt lat="25.46668" lon="55.88239"/><trkpt lat="25.46672" lon="55.88254"/><trkpt lat="25.46629" lon="55.88335"/><trkpt lat="25.46629" lon="55.88379"/><trkpt lat="25.46605" lon="55.88388"/><trkpt lat="25.46541" lon="55.88448"/><trkpt lat="25.46511" lon="55.88506"/><trkpt lat="25.46447" lon="55.88562"/><trkpt lat="25.46471" lon="55.88634"/><trkpt lat="25.46457" lon="55.88634"/><trkpt lat="25.46436" lon="55.88601"/><trkpt lat="25.46386" lon="55.88596"/><trkpt lat="25.46328" lon="55.88569"/><trkpt lat="25.46231" lon="55.88617"/><trkpt lat="25.46176" lon="55.88663"/><trkpt lat="25.46101" lon="55.88638"/><trkpt lat="25.46066" lon="55.88657"/><trkpt lat="25.45994" lon="55.88644"/><trkpt lat="25.45935" lon="55.88653"/><trkpt lat="25.45921" lon="55.88689"/><trkpt lat="25.45877" lon="55.8871"/><trkpt lat="25.45794" lon="55.88723"/><trkpt lat="25.45761" lon="55.88769"/><trkpt lat="25.45676" lon="55.88751"/><trkpt lat="25.45616" lon="55.88718"/><trkpt lat="25.45529" lon="55.88776"/><trkpt lat="25.4547" lon="55.88854"/><trkpt lat="25.45433" lon="55.88894"/><trkpt lat="25.45396" lon="55.88911"/><trkpt lat="25.4538" lon="55.88937"/><trkpt lat="25.45398" lon="55.88959"/><trkpt lat="25.45421" lon="55.88958"/><trkpt lat="25.45499" lon="55.88904"/><trkpt lat="25.4561" lon="55.88914"/><trkpt lat="25.45708" lon="55.88843"/><trkpt lat="25.45807" lon="55.88806"/><trkpt lat="25.45888" lon="55.88818"/><trkpt lat="25.45909" lon="55.88795"/><trkpt lat="25.45889" lon="55.88816"/><trkpt lat="25.45818" lon="55.88807"/><trkpt lat="25.45784" lon="55.88837"/><trkpt lat="25.45813" lon="55.88876"/><trkpt lat="25.45858" lon="55.88995"/><trkpt lat="25.45916" lon="55.89032"/><trkpt lat="25.45917" lon="55.89054"/><trkpt lat="25.45871" lon="55.8912"/><trkpt lat="25.45874" lon="55.89136"/><trkpt lat="25.45906" lon="55.89164"/><trkpt lat="25.46044" lon="55.89177"/><trkpt lat="25.4617" lon="55.89227"/><trkpt lat="25.46267" lon="55.89234"/><trkpt lat="25.46344" lon="55.89258"/><trkpt lat="25.46705" lon="55.89478"/><trkpt lat="25.46868" lon="55.89595"/><trkpt lat="25.47143" lon="55.89767"/><trkpt lat="25.47355" lon="55.89882"/><trkpt lat="25.47499" lon="55.90002"/><trkpt lat="25.47531" lon="55.90013"/><trkpt lat="25.4763" lon="55.90011"/><trkpt lat="25.47699" lon="55.90034"/><trkpt lat="25.47773" lon="55.90084"/><trkpt lat="25.47834" lon="55.90152"/><trkpt lat="25.47942" lon="55.90214"/><trkpt lat="25.4808" lon="55.90237"/><trkpt lat="25.48156" lon="55.90236"/><trkpt lat="25.4819" lon="55.90229"/><trkpt lat="25.48221" lon="55.90201"/><trkpt lat="25.4834" lon="55.9022"/><trkpt lat="25.48399" lon="55.90246"/><trkpt lat="25.48395" lon="55.90257"/><trkpt lat="25.48311" lon="55.90273"/><trkpt lat="25.48139" lon="55.90256"/><trkpt lat="25.48127" lon="55.90273"/><trkpt lat="25.48136" lon="55.90305"/><trkpt lat="25.48227" lon="55.90383"/><trkpt lat="25.48267" lon="55.90474"/><trkpt lat="25.48263" lon="55.90514"/><trkpt lat="25.48215" lon="55.90612"/><trkpt lat="25.48227" lon="55.90678"/><trkpt lat="25.48186" lon="55.90772"/><trkpt lat="25.48201" lon="55.90804"/><trkpt lat="25.48221" lon="55.90815"/><trkpt lat="25.48343" lon="55.90825"/><trkpt lat="25.48528" lon="55.90896"/><trkpt lat="25.48572" lon="55.90927"/><trkpt lat="25.48588" lon="55.90984"/><trkpt lat="25.48657" lon="55.91029"/><trkpt lat="25.48654" lon="55.91046"/><trkpt lat="25.48659" lon="55.91034"/><trkpt lat="25.48635" lon="55.91043"/><trkpt lat="25.486" lon="55.91029"/><trkpt lat="25.48454" lon="55.90932"/><trkpt lat="25.48401" lon="55.90918"/><trkpt lat="25.48355" lon="55.90995"/><trkpt lat="25.48428" lon="55.91067"/><trkpt lat="25.48499" lon="55.91103"/><trkpt lat="25.48487" lon="55.91114"/><trkpt lat="25.48448" lon="55.91103"/><trkpt lat="25.48358" lon="55.91062"/><trkpt lat="25.48348" lon="55.91117"/><trkpt lat="25.48269" lon="55.91114"/><trkpt lat="25.48274" lon="55.91138"/><trkpt lat="25.48369" lon="55.91159"/><trkpt lat="25.48396" lon="55.91143"/><trkpt lat="25.48443" lon="55.91187"/><trkpt lat="25.48499" lon="55.91189"/><trkpt lat="25.48539" lon="55.91212"/><trkpt lat="25.48654" lon="55.91302"/><trkpt lat="25.48626" lon="55.91372"/><trkpt lat="25.48559" lon="55.91363"/><trkpt lat="25.48519" lon="55.91371"/><trkpt lat="25.48413" lon="55.91288"/><trkpt lat="25.48409" lon="55.91302"/><trkpt lat="25.48462" lon="55.9138"/><trkpt lat="25.48454" lon="55.91425"/><trkpt lat="25.48401" lon="55.91394"/><trkpt lat="25.48372" lon="55.91417"/><trkpt lat="25.48345" lon="55.91421"/><trkpt lat="25.48236" lon="55.91359"/><trkpt lat="25.48106" lon="55.91372"/><trkpt lat="25.47963" lon="55.91332"/><trkpt lat="25.47963" lon="55.91363"/><trkpt lat="25.48025" lon="55.91387"/><trkpt lat="25.48039" lon="55.91433"/><trkpt lat="25.48098" lon="55.91502"/><trkpt lat="25.48082" lon="55.9152"/><trkpt lat="25.47951" lon="55.91472"/><trkpt lat="25.47904" lon="55.91508"/><trkpt lat="25.47888" lon="55.91631"/><trkpt lat="25.47901" lon="55.91676"/><trkpt lat="25.47892" lon="55.91693"/><trkpt lat="25.47912" lon="55.91717"/><trkpt lat="25.47893" lon="55.91706"/><trkpt lat="25.47901" lon="55.91703"/><trkpt lat="25.47997" lon="55.91811"/><trkpt lat="25.477" lon="55.91765"/><trkpt lat="25.47682" lon="55.91772"/><trkpt lat="25.47701" lon="55.91828"/><trkpt lat="25.47728" lon="55.91857"/><trkpt lat="25.47725" lon="55.91871"/><trkpt lat="25.47712" lon="55.91876"/><trkpt lat="25.47683" lon="55.91851"/><trkpt lat="25.47659" lon="55.91846"/><trkpt lat="25.47644" lon="55.91867"/><trkpt lat="25.47672" lon="55.919"/><trkpt lat="25.47664" lon="55.91922"/><trkpt lat="25.47604" lon="55.91888"/><trkpt lat="25.47572" lon="55.9191"/><trkpt lat="25.47589" lon="55.91999"/><trkpt lat="25.47616" lon="55.92069"/><trkpt lat="25.47599" lon="55.92102"/><trkpt lat="25.47656" lon="55.92216"/><trkpt lat="25.47644" lon="55.92234"/><trkpt lat="25.47561" lon="55.92161"/><trkpt lat="25.47514" lon="55.92181"/><trkpt lat="25.47492" lon="55.9217"/><trkpt lat="25.47333" lon="55.91992"/><trkpt lat="25.4729" lon="55.91983"/><trkpt lat="25.47267" lon="55.92"/><trkpt lat="25.47273" lon="55.92021"/><trkpt lat="25.47291" lon="55.92024"/><trkpt lat="25.4737" lon="55.9213"/><trkpt lat="25.47431" lon="55.92192"/><trkpt lat="25.47433" lon="55.9225"/><trkpt lat="25.47481" lon="55.92297"/><trkpt lat="25.47506" lon="55.9229"/><trkpt lat="25.47522" lon="55.92325"/><trkpt lat="25.47587" lon="55.92357"/><trkpt lat="25.47676" lon="55.92453"/><trkpt lat="25.47724" lon="55.92488"/><trkpt lat="25.47714" lon="55.92504"/><trkpt lat="25.47728" lon="55.92496"/><trkpt lat="25.47764" lon="55.92533"/><trkpt lat="25.47804" lon="55.92581"/><trkpt lat="25.47806" lon="55.926"/><trkpt lat="25.47778" lon="55.92622"/><trkpt lat="25.47747" lon="55.92622"/><trkpt lat="25.47665" lon="55.92576"/><trkpt lat="25.47611" lon="55.92518"/><trkpt lat="25.47584" lon="55.9253"/><trkpt lat="25.47485" lon="55.92406"/><trkpt lat="25.47374" lon="55.92317"/><trkpt lat="25.47399" lon="55.92317"/><trkpt lat="25.4753" lon="55.9241"/><trkpt lat="25.47647" lon="55.92521"/><trkpt lat="25.47645" lon="55.92537"/><trkpt lat="25.47671" lon="55.92543"/><trkpt lat="25.4768" lon="55.92555"/><trkpt lat="25.47668" lon="55.92562"/><trkpt lat="25.47685" lon="55.92564"/><trkpt lat="25.47684" lon="55.92556"/><trkpt lat="25.47594" lon="55.92466"/><trkpt lat="25.47457" lon="55.92382"/><trkpt lat="25.47197" lon="55.92189"/><trkpt lat="25.47082" lon="55.92155"/><trkpt lat="25.46992" lon="55.92162"/><trkpt lat="25.46941" lon="55.9215"/><trkpt lat="25.4692" lon="55.92165"/><trkpt lat="25.46871" lon="55.92247"/><trkpt lat="25.46871" lon="55.92297"/><trkpt lat="25.46903" lon="55.92327"/><trkpt lat="25.46924" lon="55.92369"/><trkpt lat="25.46894" lon="55.92397"/><trkpt lat="25.46867" lon="55.92488"/><trkpt lat="25.46836" lon="55.92545"/><trkpt lat="25.46754" lon="55.92508"/><trkpt lat="25.46583" lon="55.92493"/><trkpt lat="25.46512" lon="55.92452"/><trkpt lat="25.46472" lon="55.92394"/><trkpt lat="25.46418" lon="55.92385"/><trkpt lat="25.46404" lon="55.92404"/><trkpt lat="25.46403" lon="55.92439"/><trkpt lat="25.46354" lon="55.92499"/><trkpt lat="25.46352" lon="55.92528"/><trkpt lat="25.46277" lon="55.92566"/><trkpt lat="25.46209" lon="55.92665"/><trkpt lat="25.46154" lon="55.92693"/><trkpt lat="25.46118" lon="55.92734"/><trkpt lat="25.46101" lon="55.92729"/><trkpt lat="25.46085" lon="55.92668"/><trkpt lat="25.4605" lon="55.92667"/><trkpt lat="25.46028" lon="55.92651"/><trkpt lat="25.46029" lon="55.92669"/><trkpt lat="25.46053" lon="55.92677"/><trkpt lat="25.46054" lon="55.92667"/><trkpt lat="25.45993" lon="55.92634"/><trkpt lat="25.45876" lon="55.92643"/><trkpt lat="25.45786" lon="55.92579"/><trkpt lat="25.4568" lon="55.92555"/><trkpt lat="25.45613" lon="55.92559"/><trkpt lat="25.45443" lon="55.92631"/><trkpt lat="25.45193" lon="55.92686"/><trkpt lat="25.4493" lon="55.92633"/><trkpt lat="25.44773" lon="55.92572"/><trkpt lat="25.44672" lon="55.92563"/><trkpt lat="25.44607" lon="55.92582"/><trkpt lat="25.44569" lon="55.92609"/><trkpt lat="25.44541" lon="55.92649"/><trkpt lat="25.44482" lon="55.92809"/><trkpt lat="25.44385" lon="55.93036"/><trkpt lat="25.44301" lon="55.93197"/><trkpt lat="25.44256" lon="55.93322"/><trkpt lat="25.4401" lon="55.93552"/><trkpt lat="25.4386" lon="55.93632"/><trkpt lat="25.43823" lon="55.93672"/><trkpt lat="25.43722" lon="55.9372"/><trkpt lat="25.43632" lon="55.937"/><trkpt lat="25.43447" lon="55.93561"/><trkpt lat="25.43439" lon="55.93541"/><trkpt lat="25.43401" lon="55.93548"/><trkpt lat="25.43376" lon="55.93588"/><trkpt lat="25.43153" lon="55.93724"/><trkpt lat="25.42937" lon="55.93886"/><trkpt lat="25.42905" lon="55.93894"/><trkpt lat="25.42875" lon="55.93933"/><trkpt lat="25.42781" lon="55.93938"/><trkpt lat="25.42645" lon="55.93999"/><trkpt lat="25.42282" lon="55.94123"/><trkpt lat="25.42261" lon="55.94138"/><trkpt lat="25.42224" lon="55.94211"/><trkpt lat="25.42248" lon="55.94235"/><trkpt lat="25.42222" lon="55.94282"/><trkpt lat="25.42185" lon="55.9428"/><trkpt lat="25.42107" lon="55.94248"/><trkpt lat="25.42083" lon="55.94271"/><trkpt lat="25.41942" lon="55.94303"/><trkpt lat="25.41654" lon="55.94311"/><trkpt lat="25.41626" lon="55.94324"/><trkpt lat="25.41465" lon="55.94466"/><trkpt lat="25.41454" lon="55.94498"/><trkpt lat="25.41463" lon="55.9455"/><trkpt lat="25.41623" lon="55.94971"/><trkpt lat="25.41668" lon="55.95004"/><trkpt lat="25.41745" lon="55.95004"/><trkpt lat="25.41788" lon="55.9502"/><trkpt lat="25.42016" lon="55.95311"/><trkpt lat="25.42097" lon="55.95371"/><trkpt lat="25.42284" lon="55.95564"/><trkpt lat="25.42299" lon="55.95591"/><trkpt lat="25.42308" lon="55.95645"/><trkpt lat="25.42268" lon="55.95771"/><trkpt lat="25.42" lon="55.96046"/><trkpt lat="25.41961" lon="55.96118"/><trkpt lat="25.41909" lon="55.96178"/><trkpt lat="25.41874" lon="55.96264"/><trkpt lat="25.41597" lon="55.96222"/><trkpt lat="25.41364" lon="55.96134"/><trkpt lat="25.41179" lon="55.96131"/><trkpt lat="25.41032" lon="55.96097"/><trkpt lat="25.40499" lon="55.96014"/><trkpt lat="25.40444" lon="55.95983"/><trkpt lat="25.40359" lon="55.95903"/><trkpt lat="25.40316" lon="55.95887"/><trkpt lat="25.40183" lon="55.95896"/><trkpt lat="25.40042" lon="55.95882"/><trkpt lat="25.40005" lon="55.95892"/><trkpt lat="25.39929" lon="55.95943"/><trkpt lat="25.39898" lon="55.95948"/></trkseg></trk></gpx>
