<?xml version="1.0" encoding="UTF-8"?>
<gpx version="1.1" creator="Nomad Outdoors" xmlns="http://www.topografix.com/GPX/1/1"><metadata><name>Al Qudra, October 2025</name><link href="https://www.nomadoutdoors.org/routes/2025-10-05-al-qudra"/></metadata><trk><name>Al Qudra, October 2025</name><trkseg><trkpt lat="24.88935" lon="55.44052"/><trkpt lat="24.88894" lon="55.44262"/><trkpt lat="24.88839" lon="55.4446"/><trkpt lat="24.88811" lon="55.44491"/><trkpt lat="24.88694" lon="55.44537"/><trkpt lat="24.88693" lon="55.44551"/><trkpt lat="24.88705" lon="55.44554"/><trkpt lat="24.8871" lon="55.44539"/><trkpt lat="24.88699" lon="55.44531"/><trkpt lat="24.88602" lon="55.44573"/><trkpt lat="24.88507" lon="55.44591"/><trkpt lat="24.88408" lon="55.44636"/><trkpt lat="24.88314" lon="55.44628"/><trkpt lat="24.88128" lon="55.44688"/><trkpt lat="24.8803" lon="55.447"/><trkpt lat="24.87971" lon="55.44749"/><trkpt lat="24.87849" lon="55.44775"/><trkpt lat="24.87796" lon="55.44828"/><trkpt lat="24.87736" lon="55.44857"/><trkpt lat="24.87713" lon="55.44913"/><trkpt lat="24.87692" lon="55.44916"/><trkpt lat="24.87641" lon="55.44894"/><trkpt lat="24.87615" lon="55.44919"/><trkpt lat="24.87517" lon="55.44964"/><trkpt lat="24.87456" lon="55.45016"/><trkpt lat="24.87414" lon="55.44989"/><trkpt lat="24.87368" lon="55.44986"/><trkpt lat="24.87315" lon="55.45001"/><trkpt lat="24.87181" lon="55.45079"/><trkpt lat="24.87092" lon="55.45071"/><trkpt lat="24.87051" lon="55.45113"/><trkpt lat="24.87009" lon="55.45127"/><trkpt lat="24.86928" lon="55.45228"/><trkpt lat="24.86888" lon="55.4526"/><trkpt lat="24.86863" lon="55.45266"/><trkpt lat="24.86774" lon="55.45249"/><trkpt lat="24.86745" lon="55.45265"/><trkpt lat="24.86717" lon="55.45305"/><trkpt lat="24.86689" lon="55.45417"/><trkpt lat="24.86628" lon="55.45542"/><trkpt lat="24.86534" lon="55.45421"/><trkpt lat="24.86419" lon="55.45301"/><trkpt lat="24.86388" lon="55.45313"/><trkpt lat="24.8624" lon="55.45441"/><trkpt lat="24.8614" lon="55.45498"/><trkpt lat="24.8609" lon="55.45564"/><trkpt lat="24.85966" lon="55.45574"/><trkpt lat="24.85949" lon="55.45591"/><trkpt lat="24.85978" lon="55.45826"/><trkpt lat="24.85998" lon="55.45898"/><trkpt lat="24.86024" lon="55.4594"/><trkpt lat="24.86048" lon="55.46055"/><trkpt lat="24.86066" lon="55.46093"/><trkpt lat="24.85986" lon="55.46258"/><trkpt lat="24.85919" lon="55.46322"/><trkpt lat="24.85878" lon="55.46442"/><trkpt lat="24.85906" lon="55.46502"/><trkpt lat="24.85921" lon="55.4663"/><trkpt lat="24.85921" lon="55.46709"/><trkpt lat="24.85892" lon="55.46772"/><trkpt lat="24.85953" lon="55.46904"/><trkpt lat="24.85944" lon="55.46972"/><trkpt lat="24.85972" lon="55.4714"/><trkpt lat="24.85956" lon="55.47319"/><trkpt lat="24.85967" lon="55.47347"/><trkpt lat="24.86064" lon="55.47461"/><trkpt lat="24.86125" lon="55.47594"/><trkpt lat="24.86171" lon="55.47773"/><trkpt lat="24.86178" lon="55.47872"/><trkpt lat="24.86163" lon="55.47935"/><trkpt lat="24.86169" lon="55.47956"/><trkpt lat="24.86158" lon="55.47984"/><trkpt lat="24.86158" lon="55.48044"/><trkpt lat="24.86184" lon="55.48101"/><trkpt lat="24.86184" lon="55.48128"/><trkpt lat="24.86228" lon="55.48146"/><trkpt lat="24.86259" lon="55.48123"/><trkpt lat="24.8628" lon="55.48241"/><trkpt lat="24.86301" lon="55.48244"/><trkpt lat="24.86328" lon="55.48213"/><trkpt lat="24.86361" lon="55.48218"/><trkpt lat="24.86376" lon="55.48309"/><trkpt lat="24.86435" lon="55.48301"/><trkpt lat="24.86467" lon="55.48289"/><trkpt lat="24.86505" lon="55.48251"/><trkpt lat="24.86493" lon="55.48184"/><trkpt lat="24.86509" lon="55.48143"/><trkpt lat="24.86502" lon="55.48087"/><trkpt lat="24.86531" lon="55.48031"/><trkpt lat="24.86562" lon="55.48144"/><trkpt lat="24.86597" lon="55.48163"/><trkpt lat="24.86625" lon="55.48254"/><trkpt lat="24.86644" lon="55.48251"/><trkpt lat="24.86646" lon="55.48221"/><trkpt lat="24.86685" lon="55.4822"/><trkpt lat="24.86727" lon="55.48267"/><trkpt lat="24.86735" lon="55.4831"/><trkpt lat="24.86751" lon="55.48322"/><trkpt lat="24.86822" lon="55.48253"/><trkpt lat="24.86825" lon="55.48225"/><trkpt lat="24.86774" lon="55.48081"/><trkpt lat="24.86753" lon="55.48056"/><trkpt lat="24.86698" lon="55.48027"/><trkpt lat="24.86679" lon="55.47989"/><trkpt lat="24.86718" lon="55.4791"/><trkpt lat="24.8671" lon="55.47874"/><trkpt lat="24.86674" lon="55.47816"/><trkpt lat="24.8666" lon="55.47756"/><trkpt lat="24.86688" lon="55.47625"/><trkpt lat="24.86709" lon="55.47401"/><trkpt lat="24.86688" lon="55.47364"/><trkpt lat="24.8666" lon="55.47349"/><trkpt lat="24.86643" lon="55.47322"/><trkpt lat="24.86638" lon="55.47269"/><trkpt lat="24.86649" lon="55.47207"/><trkpt lat="24.86634" lon="55.47159"/><trkpt lat="24.86604" lon="55.47139"/><trkpt lat="24.86573" lon="55.47191"/><trkpt lat="24.86568" lon="55.47221"/><trkpt lat="24.86585" lon="55.47366"/><trkpt lat="24.86626" lon="55.47424"/><trkpt lat="24.86618" lon="55.47456"/><trkpt lat="24.86627" lon="55.47501"/><trkpt lat="24.86643" lon="55.47507"/><trkpt lat="24.86705" lon="55.47485"/><trkpt lat="24.86772" lon="55.47142"/><trkpt lat="24.86772" lon="55.46941"/><trkpt lat="24.86794" lon="55.46939"/><trkpt lat="24.86803" lon="55.46973"/><trkpt lat="24.86849" lon="55.47003"/><trkpt lat="24.86956" lon="55.47178"/><trkpt lat="24.86942" lon="55.47224"/><trkpt lat="24.86947" lon="55.47311"/><trkpt lat="24.86935" lon="55.47415"/><trkpt lat="24.86949" lon="55.47541"/><trkpt lat="24.86982" lon="55.4761"/><trkpt lat="24.86988" lon="55.47672"/><trkpt lat="24.86968" lon="55.47805"/><trkpt lat="24.86941" lon="55.47876"/><trkpt lat="24.86976" lon="55.47906"/><trkpt lat="24.86988" lon="55.47933"/><trkpt lat="24.86969" lon="55.4797"/><trkpt lat="24.86941" lon="55.48114"/><trkpt lat="24.86946" lon="55.48179"/><trkpt lat="24.86979" lon="55.48207"/><trkpt lat="24.87013" lon="55.48195"/><trkpt lat="24.87025" lon="55.48174"/><trkpt lat="24.87038" lon="55.48079"/><trkpt lat="24.87041" lon="55.4793"/><trkpt lat="24.86988" lon="55.4785"/><trkpt lat="24.86992" lon="55.47761"/><trkpt lat="24.87005" lon="55.47737"/><trkpt lat="24.87036" lon="55.47722"/><trkpt lat="24.8707" lon="55.47731"/><trkpt lat="24.87093" lon="55.47757"/><trkpt lat="24.87127" lon="55.47839"/><trkpt lat="24.87102" lon="55.47848"/><trkpt lat="24.87097" lon="55.47868"/><trkpt lat="24.87141" lon="55.47956"/><trkpt lat="24.8711" lon="55.4803"/><trkpt lat="24.87175" lon="55.48137"/><trkpt lat="24.87165" lon="55.48167"/><trkpt lat="24.87144" lon="55.48185"/><trkpt lat="24.8716" lon="55.48237"/><trkpt lat="24.87163" lon="55.48318"/><trkpt lat="24.87141" lon="55.48357"/><trkpt lat="24.8712" lon="55.48349"/><trkpt lat="24.87107" lon="55.48358"/><trkpt lat="24.87103" lon="55.48407"/><trkpt lat="24.87133" lon="55.48478"/><trkpt lat="24.8712" lon="55.48537"/><trkpt lat="24.87194" lon="55.48647"/><trkpt lat="24.8718" lon="55.48707"/><trkpt lat="24.87125" lon="55.48751"/><trkpt lat="24.87131" lon="55.48824"/><trkpt lat="24.87152" lon="55.48828"/><trkpt lat="24.87221" lon="55.48756"/><trkpt lat="24.87255" lon="55.48707"/><trkpt lat="24.87278" lon="55.48647"/><trkpt lat="24.87253" lon="55.48641"/><trkpt lat="24.87242" lon="55.48607"/><trkpt lat="24.87209" lon="55.48693"/><trkpt lat="24.87225" lon="55.48742"/><trkpt lat="24.87214" lon="55.48787"/><trkpt lat="24.87227" lon="55.48816"/><trkpt lat="24.87221" lon="55.48867"/><trkpt lat="24.87292" lon="55.48928"/><trkpt lat="24.87305" lon="55.48953"/><trkpt lat="24.87299" lon="55.49016"/><trkpt lat="24.87247" lon="55.49056"/><trkpt lat="24.87237" lon="55.49078"/><trkpt lat="24.87286" lon="55.49125"/><trkpt lat="24.87334" lon="55.4911"/><trkpt lat="24.87411" lon="55.49119"/><trkpt lat="24.87433" lon="55.49201"/><trkpt lat="24.87523" lon="55.49211"/><trkpt lat="24.87493" lon="55.49274"/><trkpt lat="24.87464" lon="55.49299"/><trkpt lat="24.87469" lon="55.49347"/><trkpt lat="24.87391" lon="55.49341"/><trkpt lat="24.87363" lon="55.4931"/><trkpt lat="24.873" lon="55.49309"/><trkpt lat="24.8728" lon="55.49195"/><trkpt lat="24.87242" lon="55.49183"/><trkpt lat="24.87169" lon="55.49223"/><trkpt lat="24.87158" lon="55.49219"/><trkpt lat="24.87176" lon="55.4917"/><trkpt lat="24.87218" lon="55.49152"/><trkpt lat="24.8724" lon="55.49113"/><trkpt lat="24.872" lon="55.48988"/><trkpt lat="24.87187" lon="55.48988"/><trkpt lat="24.87146" lon="55.49026"/><trkpt lat="24.8712" lon="55.49103"/><trkpt lat="24.87075" lon="55.49146"/><trkpt lat="24.87051" lon="55.49147"/><trkpt lat="24.87025" lon="55.4912"/><trkpt lat="24.87022" lon="55.49096"/><trkpt lat="24.87044" lon="55.49071"/><trkpt lat="24.87035" lon="55.49061"/><trkpt lat="24.86979" lon="55.49079"/><trkpt lat="24.86946" lon="55.49047"/><trkpt lat="24.86933" lon="55.49002"/><trkpt lat="24.8696" lon="55.48934"/><trkpt lat="24.86911" lon="55.48888"/><trkpt lat="24.86904" lon="55.48865"/><trkpt lat="24.8692" lon="55.48739"/><trkpt lat="24.86859" lon="55.48652"/><trkpt lat="24.86832" lon="55.48648"/><trkpt lat="24.86817" lon="55.48576"/><trkpt lat="24.86791" lon="55.4858"/><trkpt lat="24.86754" lon="55.4872"/><trkpt lat="24.86701" lon="55.48815"/><trkpt lat="24.86713" lon="55.48884"/><trkpt lat="24.86686" lon="55.48882"/><trkpt lat="24.86649" lon="55.48815"/><trkpt lat="24.8662" lon="55.488"/><trkpt lat="24.86533" lon="55.48876"/><trkpt lat="24.86505" lon="55.4894"/><trkpt lat="24.86465" lon="55.48957"/><trkpt lat="24.86372" lon="55.48824"/><trkpt lat="24.86325" lon="55.48779"/><trkpt lat="24.86306" lon="55.48685"/><trkpt lat="24.86266" lon="55.48651"/><trkpt lat="24.86237" lon="55.48606"/><trkpt lat="24.86202" lon="55.4861"/><trkpt lat="24.86181" lon="55.4859"/><trkpt lat="24.86162" lon="55.4843"/><trkpt lat="24.86128" lon="55.48394"/><trkpt lat="24.86153" lon="55.48337"/><trkpt lat="24.86113" lon="55.48278"/><trkpt lat="24.86103" lon="55.48241"/><trkpt lat="24.86074" lon="55.48215"/><trkpt lat="24.8607" lon="55.48098"/><trkpt lat="24.86022" lon="55.481"/><trkpt lat="24.86007" lon="55.48089"/><trkpt lat="24.86012" lon="55.4801"/><trkpt lat="24.86004" lon="55.47972"/><trkpt lat="24.85899" lon="55.47982"/><trkpt lat="24.85887" lon="55.47874"/><trkpt lat="24.85854" lon="55.47875"/><trkpt lat="24.85844" lon="55.47848"/><trkpt lat="24.85772" lon="55.47792"/><trkpt lat="24.85758" lon="55.47804"/><trkpt lat="24.85775" lon="55.47833"/><trkpt lat="24.85761" lon="55.47852"/><trkpt lat="24.85732" lon="55.47863"/><trkpt lat="24.85702" lon="55.47859"/><trkpt lat="24.85677" lon="55.47813"/><trkpt lat="24.85656" lon="55.47695"/><trkpt lat="24.85669" lon="55.47624"/><trkpt lat="24.85635" lon="55.47539"/><trkpt lat="24.85661" lon="55.47384"/><trkpt lat="24.85638" lon="55.47274"/><trkpt lat="24.85588" lon="55.47173"/><trkpt lat="24.85594" lon="55.4715"/><trkpt lat="24.85565" lon="55.47105"/><trkpt lat="24.85554" lon="55.47018"/><trkpt lat="24.85561" lon="55.46959"/><trkpt lat="24.8553" lon="55.46928"/><trkpt lat="24.85508" lon="55.47031"/><trkpt lat="24.85483" lon="55.47071"/><trkpt lat="24.85397" lon="55.47299"/><trkpt lat="24.85287" lon="55.4753"/><trkpt lat="24.85255" lon="55.47631"/><trkpt lat="24.85159" lon="55.47753"/><trkpt lat="24.85105" lon="55.4786"/><trkpt lat="24.85035" lon="55.48114"/><trkpt lat="24.85031" lon="55.48192"/><trkpt lat="24.85049" lon="55.48304"/><trkpt lat="24.84988" lon="55.4838"/><trkpt lat="24.84967" lon="55.48427"/><trkpt lat="24.84923" lon="55.48464"/><trkpt lat="24.84881" lon="55.48574"/><trkpt lat="24.84857" lon="55.48582"/><trkpt lat="24.84826" lon="55.48538"/><trkpt lat="24.84819" lon="55.48504"/><trkpt lat="24.84848" lon="55.48392"/><trkpt lat="24.84848" lon="55.48338"/><trkpt lat="24.8483" lon="55.48312"/><trkpt lat="24.84782" lon="55.48282"/><trkpt lat="24.84764" lon="55.48249"/><trkpt lat="24.84754" lon="55.48142"/><trkpt lat="24.84663" lon="55.48003"/><trkpt lat="24.8464" lon="55.47939"/><trkpt lat="24.84635" lon="55.47873"/><trkpt lat="24.84567" lon="55.47688"/><trkpt lat="24.84575" lon="55.47664"/><trkpt lat="24.8461" lon="55.47637"/><trkpt lat="24.84643" lon="55.47521"/><trkpt lat="24.84631" lon="55.47428"/><trkpt lat="24.84603" lon="55.47328"/><trkpt lat="24.84595" lon="55.47183"/><trkpt lat="24.84576" lon="55.47125"/><trkpt lat="24.84539" lon="55.47065"/><trkpt lat="24.84482" lon="55.4702"/><trkpt lat="24.84387" lon="55.46862"/><trkpt lat="24.84339" lon="55.46853"/><trkpt lat="24.84323" lon="55.46909"/><trkpt lat="24.84304" lon="55.46923"/><trkpt lat="24.84241" lon="55.46831"/><trkpt lat="24.84228" lon="55.46785"/><trkpt lat="24.84211" lon="55.46765"/><trkpt lat="24.84108" lon="55.46796"/><trkpt lat="24.8404" lon="55.46857"/><trkpt lat="24.84031" lon="55.46845"/><trkpt lat="24.84025" lon="55.46768"/><trkpt lat="24.83934" lon="55.46685"/><trkpt lat="24.83891" lon="55.46541"/><trkpt lat="24.83825" lon="55.46563"/><trkpt lat="24.83801" lon="55.4655"/><trkpt lat="24.83808" lon="55.46526"/><trkpt lat="24.83798" lon="55.46507"/><trkpt lat="24.83769" lon="55.46502"/><trkpt lat="24.83749" lon="55.46527"/><trkpt lat="24.83749" lon="55.46561"/><trkpt lat="24.83771" lon="55.46585"/><trkpt lat="24.83748" lon="55.46525"/><trkpt lat="24.83774" lon="55.46503"/><trkpt lat="24.83782" lon="55.46485"/><trkpt lat="24.83773" lon="55.46481"/><trkpt lat="24.83765" lon="55.46498"/><trkpt lat="24.83776" lon="55.46504"/><trkpt lat="24.83783" lon="55.46447"/><trkpt lat="24.83772" lon="55.46427"/><trkpt lat="24.83737" lon="55.46407"/><trkpt lat="24.83702" lon="55.46281"/><trkpt lat="24.83701" lon="55.46218"/><trkpt lat="24.83686" lon="55.46197"/><trkpt lat="24.83717" lon="55.46015"/><trkpt lat="24.83719" lon="55.45926"/><trkpt lat="24.83706" lon="55.45696"/><trkpt lat="24.83679" lon="55.45498"/><trkpt lat="24.83635" lon="55.45291"/><trkpt lat="24.83516" lon="55.45039"/><trkpt lat="24.83322" lon="55.44499"/><trkpt lat="24.83241" lon="55.4438"/><trkpt lat="24.83135" lon="55.44266"/><trkpt lat="24.83039" lon="55.44257"/><trkpt lat="24.8291" lon="55.44203"/><trkpt lat="24.82544" lon="55.44017"/><trkpt lat="24.82453" lon="55.43945"/><trkpt lat="24.82217" lon="55.43649"/><trkpt lat="24.81772" lon="55.42964"/><trkpt lat="24.81268" lon="55.41949"/><trkpt lat="24.81025" lon="55.41423"/><trkpt lat="24.80864" lon="55.41136"/><trkpt lat="24.80762" lon="55.40804"/><trkpt lat="24.80711" lon="55.40673"/><trkpt lat="24.80266" lon="55.39647"/><trkpt lat="24.80037" lon="55.39162"/><trkpt lat="24.7994" lon="55.39063"/><trkpt lat="24.79811" lon="55.38996"/><trkpt lat="24.7963" lon="55.38947"/><trkpt lat="24.79249" lon="55.38869"/><trkpt lat="24.78963" lon="55.38891"/><trkpt lat="24.78949" lon="55.38901"/><trkpt lat="24.78941" lon="55.38977"/><trkpt lat="24.78928" lon="55.38985"/><trkpt lat="24.78901" lon="55.38834"/><trkpt lat="24.78903" lon="55.38734"/><trkpt lat="24.78883" lon="55.38746"/><trkpt lat="24.78868" lon="55.38727"/><trkpt lat="24.78843" lon="55.38748"/><trkpt lat="24.78825" lon="55.38737"/><trkpt lat="24.78766" lon="55.38656"/><trkpt lat="24.78746" lon="55.38591"/><trkpt lat="24.78708" lon="55.38583"/><trkpt lat="24.7868" lon="55.38501"/><trkpt lat="24.78661" lon="55.38478"/><trkpt lat="24.78664" lon="55.38455"/><trkpt lat="24.78725" lon="55.38367"/><trkpt lat="24.78705" lon="55.38291"/><trkpt lat="24.78706" lon="55.38253"/><trkpt lat="24.78626" lon="55.3829"/><trkpt lat="24.78569" lon="55.38261"/><trkpt lat="24.78553" lon="55.38266"/><trkpt lat="24.78544" lon="55.38295"/><trkpt lat="24.78553" lon="55.3832"/><trkpt lat="24.78525" lon="55.38357"/><trkpt lat="24.78536" lon="55.38436"/><trkpt lat="24.78574" lon="55.38503"/><trkpt lat="24.78606" lon="55.38522"/><trkpt lat="24.78614" lon="55.38599"/><trkpt lat="24.78511" lon="55.3882"/><trkpt lat="24.78466" lon="55.38837"/><trkpt lat="24.78443" lon="55.3888"/><trkpt lat="24.7842" lon="55.38895"/><trkpt lat="24.78337" lon="55.38902"/><trkpt lat="24.78282" lon="55.38862"/><trkpt lat="24.78242" lon="55.38763"/><trkpt lat="24.7818" lon="55.38513"/><trkpt lat="24.78153" lon="55.38464"/><trkpt lat="24.78196" lon="55.38416"/><trkpt lat="24.78154" lon="55.38455"/><trkpt lat="24.78105" lon="55.38432"/><trkpt lat="24.78082" lon="55.38452"/><trkpt lat="24.78083" lon="55.38493"/><trkpt lat="24.7812" lon="55.38549"/><trkpt lat="24.78168" lon="55.38526"/><trkpt lat="24.78181" lon="55.3849"/><trkpt lat="24.7821" lon="55.38498"/><trkpt lat="24.78277" lon="55.38684"/><trkpt lat="24.78434" lon="55.38769"/><trkpt lat="24.78482" lon="55.38763"/><trkpt lat="24.78484" lon="55.38814"/><trkpt lat="24.78497" lon="55.38825"/><trkpt lat="24.78522" lon="55.38802"/><trkpt lat="24.78603" lon="55.38633"/></trkseg></trk></gpx>
