<?xml version="1.0" encoding="UTF-8"?>
<gpx version="1.1" creator="Nomad Outdoors" xmlns="http://www.topografix.com/GPX/1/1"><metadata><name>Great Nafud, Ha'il, March 2025</name><link href="https://www.nomadoutdoors.org/routes/2025-03-30-great-nafud-ha-il"/></metadata><trk><name>Great Nafud, Ha'il, March 2025</name><trkseg><trkpt lat="27.92312" lon="41.33666"/><trkpt lat="27.92327" lon="41.33384"/><trkpt lat="27.92387" lon="41.3311"/><trkpt lat="27.92469" lon="41.32898"/><trkpt lat="27.92622" lon="41.32644"/><trkpt lat="27.92758" lon="41.32484"/><trkpt lat="27.92863" lon="41.32388"/><trkpt lat="27.93116" lon="41.32216"/><trkpt lat="27.9332" lon="41.32035"/><trkpt lat="27.93471" lon="41.31841"/><trkpt lat="27.93595" lon="41.31631"/><trkpt lat="27.93719" lon="41.31457"/><trkpt lat="27.93863" lon="41.3131"/><trkpt lat="27.94248" lon="41.31003"/><trkpt lat="27.94376" lon="41.3088"/><trkpt lat="27.94525" lon="41.30701"/><trkpt lat="27.9478" lon="41.30315"/><trkpt lat="27.94869" lon="41.30206"/><trkpt lat="27.95059" lon="41.30012"/><trkpt lat="27.95187" lon="41.29913"/><trkpt lat="27.95391" lon="41.29782"/><trkpt lat="27.96078" lon="41.29461"/><trkpt lat="27.96318" lon="41.29316"/><trkpt lat="27.96502" lon="41.29166"/><trkpt lat="27.97338" lon="41.28415"/><trkpt lat="27.97581" lon="41.28232"/><trkpt lat="27.97838" lon="41.28068"/><trkpt lat="27.98106" lon="41.27924"/><trkpt lat="27.9836" lon="41.27813"/><trkpt lat="27.9922" lon="41.27507"/><trkpt lat="27.99486" lon="41.27399"/><trkpt lat="28.00199" lon="41.27075"/><trkpt lat="28.00381" lon="41.26978"/><trkpt lat="28.00576" lon="41.2684"/><trkpt lat="28.00762" lon="41.26667"/><trkpt lat="28.01057" lon="41.26304"/><trkpt lat="28.01199" lon="41.26159"/><trkpt lat="28.01359" lon="41.26025"/><trkpt lat="28.01652" lon="41.25833"/><trkpt lat="28.01819" lon="41.25704"/><trkpt lat="28.02022" lon="41.25509"/><trkpt lat="28.02187" lon="41.25311"/><trkpt lat="28.02346" lon="41.25081"/><trkpt lat="28.02915" lon="41.2418"/><trkpt lat="28.03031" lon="41.23918"/><trkpt lat="28.03095" lon="41.2367"/><trkpt lat="28.03117" lon="41.23511"/><trkpt lat="28.03124" lon="41.2335"/><trkpt lat="28.03084" lon="41.22932"/><trkpt lat="28.03089" lon="41.22673"/><trkpt lat="28.03112" lon="41.22514"/><trkpt lat="28.03244" lon="41.22019"/><trkpt lat="28.03296" lon="41.21735"/><trkpt lat="28.03318" lon="41.21443"/><trkpt lat="28.03309" lon="41.20925"/><trkpt lat="28.0332" lon="41.20634"/><trkpt lat="28.0335" lon="41.20411"/><trkpt lat="28.03471" lon="41.19844"/><trkpt lat="28.03499" lon="41.19523"/><trkpt lat="28.03488" lon="41.19264"/><trkpt lat="28.03457" lon="41.19039"/><trkpt lat="28.03299" lon="41.18461"/><trkpt lat="28.03257" lon="41.18234"/><trkpt lat="28.03243" lon="41.18103"/><trkpt lat="28.03253" lon="41.17037"/><trkpt lat="28.03281" lon="41.16308"/><trkpt lat="28.03377" lon="41.15317"/><trkpt lat="28.03423" lon="41.15056"/><trkpt lat="28.03553" lon="41.14544"/><trkpt lat="28.03601" lon="41.14287"/><trkpt lat="28.03996" lon="41.11495"/><trkpt lat="28.04026" lon="41.11332"/><trkpt lat="28.04105" lon="41.11048"/><trkpt lat="28.04334" lon="41.1047"/><trkpt lat="28.04423" lon="41.10188"/><trkpt lat="28.04629" lon="41.09288"/><trkpt lat="28.04706" lon="41.09072"/><trkpt lat="28.04848" lon="41.08779"/><trkpt lat="28.04923" lon="41.08597"/><trkpt lat="28.05014" lon="41.08281"/><trkpt lat="28.05053" lon="41.08054"/><trkpt lat="28.05072" lon="41.07789"/><trkpt lat="28.05026" lon="41.07025"/><trkpt lat="28.0503" lon="41.06757"/><trkpt lat="28.05058" lon="41.06461"/><trkpt lat="28.05161" lon="41.05875"/><trkpt lat="28.05225" lon="41.05688"/><trkpt lat="28.05408" lon="41.05347"/><trkpt lat="28.05492" lon="41.05136"/><trkpt lat="28.05542" lon="41.04945"/><trkpt lat="28.05661" lon="41.04302"/><trkpt lat="28.05726" lon="41.04106"/><trkpt lat="28.05797" lon="41.03984"/><trkpt lat="28.0587" lon="41.03896"/><trkpt lat="28.06279" lon="41.03562"/><trkpt lat="28.06354" lon="41.03466"/><trkpt lat="28.06414" lon="41.03329"/><trkpt lat="28.06404" lon="41.03308"/><trkpt lat="28.06327" lon="41.03273"/><trkpt lat="28.03226" lon="41.01976"/><trkpt lat="28.03117" lon="41.0194"/><trkpt lat="28.02975" lon="41.01915"/><trkpt lat="28.02931" lon="41.01888"/><trkpt lat="28.02891" lon="41.01921"/><trkpt lat="28.02886" lon="41.019"/><trkpt lat="28.02898" lon="41.01884"/><trkpt lat="28.02889" lon="41.01871"/><trkpt lat="28.02904" lon="41.01856"/><trkpt lat="28.0291" lon="41.01946"/><trkpt lat="28.02933" lon="41.01956"/><trkpt lat="28.02954" lon="41.01928"/><trkpt lat="28.02926" lon="41.01851"/><trkpt lat="28.0286" lon="41.0128"/><trkpt lat="28.02836" lon="41.00907"/><trkpt lat="28.02827" lon="41.00419"/><trkpt lat="28.02833" lon="41.00116"/><trkpt lat="28.02848" lon="41.00048"/><trkpt lat="28.02838" lon="40.9988"/><trkpt lat="28.02863" lon="40.98412"/><trkpt lat="28.02877" lon="40.98298"/><trkpt lat="28.02869" lon="40.9818"/><trkpt lat="28.02878" lon="40.97484"/><trkpt lat="28.02927" lon="40.96107"/><trkpt lat="28.02947" lon="40.94719"/><trkpt lat="28.02979" lon="40.944"/><trkpt lat="28.02978" lon="40.94263"/><trkpt lat="28.03022" lon="40.93968"/><trkpt lat="28.02999" lon="40.93887"/><trkpt lat="28.02934" lon="40.9388"/><trkpt lat="28.02898" lon="40.93858"/><trkpt lat="28.0293" lon="40.9388"/><trkpt lat="28.02978" lon="40.93885"/><trkpt lat="28.02959" lon="40.93803"/><trkpt lat="28.03013" lon="40.9378"/><trkpt lat="28.03026" lon="40.93723"/><trkpt lat="28.03082" lon="40.93668"/><trkpt lat="28.03174" lon="40.93645"/><trkpt lat="28.03178" lon="40.93568"/><trkpt lat="28.03158" lon="40.93471"/><trkpt lat="28.03238" lon="40.9341"/><trkpt lat="28.03573" lon="40.93315"/><trkpt lat="28.03585" lon="40.93331"/><trkpt lat="28.03582" lon="40.93435"/><trkpt lat="28.03585" lon="40.93445"/><trkpt lat="28.03596" lon="40.93439"/><trkpt lat="28.03613" lon="40.9286"/><trkpt lat="28.03659" lon="40.92638"/><trkpt lat="28.03691" lon="40.92323"/><trkpt lat="28.03674" lon="40.91947"/><trkpt lat="28.03687" lon="40.91884"/><trkpt lat="28.03666" lon="40.91828"/><trkpt lat="28.03637" lon="40.9148"/><trkpt lat="28.03587" lon="40.91377"/><trkpt lat="28.03273" lon="40.91122"/><trkpt lat="28.03251" lon="40.9109"/><trkpt lat="28.03225" lon="40.91001"/><trkpt lat="28.03169" lon="40.90666"/><trkpt lat="28.0314" lon="40.90577"/><trkpt lat="28.0297" lon="40.90264"/><trkpt lat="28.02935" lon="40.90127"/><trkpt lat="28.02933" lon="40.8993"/><trkpt lat="28.02902" lon="40.89868"/><trkpt lat="28.02873" lon="40.89839"/><trkpt lat="28.02835" lon="40.89825"/><trkpt lat="28.02708" lon="40.89837"/><trkpt lat="28.02656" lon="40.89812"/><trkpt lat="28.02647" lon="40.89823"/><trkpt lat="28.02728" lon="40.89965"/><trkpt lat="28.02831" lon="40.90071"/><trkpt lat="28.02868" lon="40.90426"/><trkpt lat="28.02896" lon="40.90499"/><trkpt lat="28.02927" lon="40.90541"/><trkpt lat="28.02879" lon="40.90561"/><trkpt lat="28.02851" lon="40.9055"/><trkpt lat="28.02856" lon="40.90583"/><trkpt lat="28.0283" lon="40.90593"/><trkpt lat="28.02732" lon="40.90571"/><trkpt lat="28.02751" lon="40.90601"/><trkpt lat="28.02826" lon="40.90631"/><trkpt lat="28.02819" lon="40.9064"/><trkpt lat="28.02774" lon="40.90635"/><trkpt lat="28.02808" lon="40.90685"/><trkpt lat="28.02805" lon="40.90742"/><trkpt lat="28.0276" lon="40.90783"/><trkpt lat="28.02708" lon="40.90779"/><trkpt lat="28.02669" lon="40.90798"/><trkpt lat="28.02632" lon="40.90779"/><trkpt lat="28.02628" lon="40.90735"/><trkpt lat="28.02645" lon="40.90739"/><trkpt lat="28.02652" lon="40.90719"/><trkpt lat="28.02667" lon="40.90585"/><trkpt lat="28.02564" lon="40.904"/><trkpt lat="28.02538" lon="40.90248"/><trkpt lat="28.02535" lon="40.90147"/><trkpt lat="28.02547" lon="40.90112"/><trkpt lat="28.02577" lon="40.90088"/><trkpt lat="28.02612" lon="40.90141"/><trkpt lat="28.02681" lon="40.9017"/><trkpt lat="28.02685" lon="40.90152"/><trkpt lat="28.02653" lon="40.90081"/><trkpt lat="28.02654" lon="40.90018"/><trkpt lat="28.02741" lon="40.90022"/><trkpt lat="28.02759" lon="40.90007"/><trkpt lat="28.02725" lon="40.89975"/><trkpt lat="28.02648" lon="40.89841"/><trkpt lat="28.02592" lon="40.89778"/><trkpt lat="28.02471" lon="40.896"/><trkpt lat="28.02403" lon="40.89569"/><trkpt lat="28.02284" lon="40.89478"/><trkpt lat="28.0217" lon="40.89355"/><trkpt lat="28.02138" lon="40.893"/><trkpt lat="28.02063" lon="40.89248"/><trkpt lat="28.01955" lon="40.89206"/><trkpt lat="28.01743" lon="40.89211"/><trkpt lat="28.01609" lon="40.89186"/><trkpt lat="28.01441" lon="40.89229"/><trkpt lat="28.01264" lon="40.89339"/><trkpt lat="28.01183" lon="40.89438"/><trkpt lat="28.01112" lon="40.89498"/><trkpt lat="28.00895" lon="40.89762"/><trkpt lat="28.0083" lon="40.89808"/><trkpt lat="28.00733" lon="40.8983"/><trkpt lat="28.00625" lon="40.89811"/><trkpt lat="28.00452" lon="40.89697"/><trkpt lat="28.0031" lon="40.89689"/><trkpt lat="28.00299" lon="40.89704"/><trkpt lat="28.00311" lon="40.89759"/><trkpt lat="28.00296" lon="40.89794"/><trkpt lat="28.00191" lon="40.89884"/><trkpt lat="28.00194" lon="40.89916"/><trkpt lat="28.00128" lon="40.8994"/><trkpt lat="28.00176" lon="40.89993"/><trkpt lat="28.00236" lon="40.89982"/><trkpt lat="28.00322" lon="40.90033"/><trkpt lat="28.00314" lon="40.89996"/><trkpt lat="28.0027" lon="40.89954"/><trkpt lat="28.00246" lon="40.89861"/><trkpt lat="28.00186" lon="40.89889"/></trkseg></trk></gpx>
