<?xml version="1.0" encoding="UTF-8"?>
<gpx version="1.1" creator="Nomad Outdoors" xmlns="http://www.topografix.com/GPX/1/1"><metadata><name>Eastern Province near Qatar, December 2025</name><link href="https://www.nomadoutdoors.org/routes/2025-12-07-eastern-province-near-qatar"/></metadata><trk><name>Eastern Province near Qatar, December 2025</name><trkseg><trkpt lat="24.20373" lon="51.22194"/><trkpt lat="24.20403" lon="51.22226"/><trkpt lat="24.2044" lon="51.22226"/><trkpt lat="24.20469" lon="51.22183"/><trkpt lat="24.20485" lon="51.2212"/><trkpt lat="24.20531" lon="51.22121"/><trkpt lat="24.20599" lon="51.22168"/><trkpt lat="24.20587" lon="51.22232"/><trkpt lat="24.20605" lon="51.22265"/><trkpt lat="24.20663" lon="51.22298"/><trkpt lat="24.20717" lon="51.22348"/><trkpt lat="24.20858" lon="51.22391"/><trkpt lat="24.20947" lon="51.22351"/><trkpt lat="24.20989" lon="51.2235"/><trkpt lat="24.21007" lon="51.22332"/><trkpt lat="24.21029" lon="51.22273"/><trkpt lat="24.2101" lon="51.22098"/><trkpt lat="24.21042" lon="51.22036"/><trkpt lat="24.21075" lon="51.22"/><trkpt lat="24.21118" lon="51.2198"/><trkpt lat="24.21242" lon="51.21984"/><trkpt lat="24.21287" lon="51.21961"/><trkpt lat="24.21286" lon="51.21652"/><trkpt lat="24.21231" lon="51.21508"/><trkpt lat="24.21293" lon="51.21404"/><trkpt lat="24.21402" lon="51.21166"/><trkpt lat="24.21395" lon="51.21149"/><trkpt lat="24.21341" lon="51.21118"/><trkpt lat="24.21302" lon="51.21076"/><trkpt lat="24.21292" lon="51.21043"/><trkpt lat="24.21298" lon="51.20999"/><trkpt lat="24.21331" lon="51.20922"/><trkpt lat="24.21414" lon="51.20832"/><trkpt lat="24.21521" lon="51.20667"/><trkpt lat="24.21601" lon="51.20641"/><trkpt lat="24.21631" lon="51.20604"/><trkpt lat="24.21607" lon="51.20519"/><trkpt lat="24.2151" lon="51.20383"/><trkpt lat="24.21466" lon="51.20255"/><trkpt lat="24.21414" lon="51.2016"/><trkpt lat="24.21416" lon="51.20095"/><trkpt lat="24.21497" lon="51.1997"/><trkpt lat="24.21528" lon="51.19851"/><trkpt lat="24.21712" lon="51.19748"/><trkpt lat="24.21764" lon="51.19699"/><trkpt lat="24.21799" lon="51.19607"/><trkpt lat="24.21874" lon="51.1959"/><trkpt lat="24.21963" lon="51.19511"/><trkpt lat="24.22007" lon="51.19513"/><trkpt lat="24.22044" lon="51.19554"/><trkpt lat="24.22079" lon="51.19568"/><trkpt lat="24.22133" lon="51.19562"/><trkpt lat="24.22167" lon="51.19503"/><trkpt lat="24.22244" lon="51.19425"/><trkpt lat="24.2229" lon="51.19288"/><trkpt lat="24.22338" lon="51.19259"/><trkpt lat="24.22347" lon="51.19233"/><trkpt lat="24.2227" lon="51.19095"/><trkpt lat="24.2228" lon="51.18897"/><trkpt lat="24.22271" lon="51.18868"/><trkpt lat="24.22237" lon="51.18832"/><trkpt lat="24.22122" lon="51.18787"/><trkpt lat="24.22084" lon="51.18733"/><trkpt lat="24.22079" lon="51.18692"/><trkpt lat="24.22093" lon="51.18633"/><trkpt lat="24.22159" lon="51.18581"/><trkpt lat="24.22135" lon="51.18534"/><trkpt lat="24.22136" lon="51.18424"/><trkpt lat="24.22102" lon="51.18391"/><trkpt lat="24.22041" lon="51.18368"/><trkpt lat="24.21981" lon="51.18291"/><trkpt lat="24.21791" lon="51.18244"/><trkpt lat="24.21739" lon="51.18211"/><trkpt lat="24.2169" lon="51.18152"/><trkpt lat="24.21689" lon="51.18108"/><trkpt lat="24.21712" lon="51.18079"/><trkpt lat="24.2178" lon="51.18091"/><trkpt lat="24.21823" lon="51.18068"/><trkpt lat="24.21848" lon="51.18015"/><trkpt lat="24.21834" lon="51.17949"/><trkpt lat="24.21675" lon="51.17825"/><trkpt lat="24.21601" lon="51.1784"/><trkpt lat="24.2153" lon="51.17873"/><trkpt lat="24.21493" lon="51.17862"/><trkpt lat="24.21453" lon="51.1783"/><trkpt lat="24.21414" lon="51.17776"/><trkpt lat="24.21428" lon="51.17698"/><trkpt lat="24.21412" lon="51.17612"/><trkpt lat="24.21391" lon="51.17579"/><trkpt lat="24.21345" lon="51.17578"/><trkpt lat="24.21323" lon="51.17621"/><trkpt lat="24.21262" lon="51.17657"/><trkpt lat="24.21209" lon="51.17672"/><trkpt lat="24.21148" lon="51.17633"/><trkpt lat="24.21088" lon="51.17621"/><trkpt lat="24.21012" lon="51.17585"/><trkpt lat="24.20974" lon="51.17553"/><trkpt lat="24.20891" lon="51.17509"/><trkpt lat="24.20797" lon="51.17517"/><trkpt lat="24.20692" lon="51.17497"/><trkpt lat="24.20608" lon="51.17509"/><trkpt lat="24.20508" lon="51.17548"/><trkpt lat="24.20312" lon="51.17735"/><trkpt lat="24.20275" lon="51.17807"/><trkpt lat="24.20276" lon="51.17951"/><trkpt lat="24.20308" lon="51.18123"/><trkpt lat="24.20285" lon="51.18261"/><trkpt lat="24.2021" lon="51.18347"/><trkpt lat="24.20201" lon="51.18375"/><trkpt lat="24.20235" lon="51.18437"/><trkpt lat="24.20257" lon="51.18536"/><trkpt lat="24.20309" lon="51.1863"/><trkpt lat="24.20317" lon="51.18658"/><trkpt lat="24.20309" lon="51.18713"/><trkpt lat="24.20295" lon="51.18725"/><trkpt lat="24.20157" lon="51.18797"/><trkpt lat="24.20061" lon="51.18818"/><trkpt lat="24.19865" lon="51.18824"/><trkpt lat="24.19676" lon="51.188"/><trkpt lat="24.19644" lon="51.1883"/><trkpt lat="24.19595" lon="51.18932"/><trkpt lat="24.19527" lon="51.18963"/><trkpt lat="24.19471" lon="51.18966"/><trkpt lat="24.19374" lon="51.1894"/><trkpt lat="24.1913" lon="51.18958"/><trkpt lat="24.19" lon="51.18951"/><trkpt lat="24.18904" lon="51.18931"/><trkpt lat="24.18807" lon="51.19"/><trkpt lat="24.18662" lon="51.19026"/><trkpt lat="24.18595" lon="51.19015"/><trkpt lat="24.18529" lon="51.18971"/><trkpt lat="24.18489" lon="51.18963"/><trkpt lat="24.18458" lon="51.18984"/><trkpt lat="24.18415" lon="51.19101"/><trkpt lat="24.18394" lon="51.19126"/><trkpt lat="24.1821" lon="51.19169"/><trkpt lat="24.18078" lon="51.19237"/><trkpt lat="24.17958" lon="51.19277"/><trkpt lat="24.17885" lon="51.1925"/><trkpt lat="24.17834" lon="51.19267"/><trkpt lat="24.17678" lon="51.19272"/><trkpt lat="24.17574" lon="51.19297"/><trkpt lat="24.17491" lon="51.19261"/><trkpt lat="24.17354" lon="51.19264"/><trkpt lat="24.17149" lon="51.19391"/><trkpt lat="24.17074" lon="51.19501"/><trkpt lat="24.16905" lon="51.19573"/><trkpt lat="24.16849" lon="51.1961"/><trkpt lat="24.1682" lon="51.19646"/><trkpt lat="24.16814" lon="51.19687"/><trkpt lat="24.16827" lon="51.19766"/><trkpt lat="24.1688" lon="51.19809"/><trkpt lat="24.1689" lon="51.1985"/><trkpt lat="24.16834" lon="51.201"/><trkpt lat="24.16869" lon="51.20242"/><trkpt lat="24.1686" lon="51.20279"/><trkpt lat="24.16836" lon="51.20306"/><trkpt lat="24.16695" lon="51.20367"/><trkpt lat="24.16598" lon="51.20376"/><trkpt lat="24.16565" lon="51.20349"/><trkpt lat="24.16519" lon="51.2026"/><trkpt lat="24.16429" lon="51.20197"/><trkpt lat="24.1635" lon="51.20113"/><trkpt lat="24.16302" lon="51.20095"/><trkpt lat="24.16302" lon="51.20113"/><trkpt lat="24.16341" lon="51.20161"/><trkpt lat="24.16364" lon="51.20277"/><trkpt lat="24.16333" lon="51.20452"/><trkpt lat="24.16344" lon="51.20584"/><trkpt lat="24.1639" lon="51.20801"/><trkpt lat="24.1638" lon="51.20871"/><trkpt lat="24.16359" lon="51.20908"/><trkpt lat="24.16316" lon="51.20918"/><trkpt lat="24.16109" lon="51.20862"/><trkpt lat="24.16063" lon="51.20877"/><trkpt lat="24.16048" lon="51.20925"/><trkpt lat="24.16055" lon="51.21049"/><trkpt lat="24.1604" lon="51.21141"/><trkpt lat="24.16008" lon="51.21182"/><trkpt lat="24.15957" lon="51.2116"/><trkpt lat="24.15931" lon="51.21162"/><trkpt lat="24.15852" lon="51.21239"/><trkpt lat="24.15842" lon="51.21273"/><trkpt lat="24.15872" lon="51.21384"/><trkpt lat="24.1585" lon="51.21419"/><trkpt lat="24.1576" lon="51.21419"/><trkpt lat="24.15674" lon="51.21317"/><trkpt lat="24.15656" lon="51.2132"/><trkpt lat="24.15655" lon="51.21355"/><trkpt lat="24.15716" lon="51.21414"/><trkpt lat="24.1576" lon="51.21514"/><trkpt lat="24.15851" lon="51.21618"/><trkpt lat="24.15867" lon="51.21678"/><trkpt lat="24.1586" lon="51.21752"/><trkpt lat="24.15817" lon="51.21861"/><trkpt lat="24.15803" lon="51.21928"/><trkpt lat="24.1578" lon="51.21966"/><trkpt lat="24.15709" lon="51.22019"/><trkpt lat="24.15652" lon="51.22049"/><trkpt lat="24.15573" lon="51.22052"/><trkpt lat="24.15501" lon="51.22041"/><trkpt lat="24.15443" lon="51.22008"/><trkpt lat="24.15404" lon="51.21876"/><trkpt lat="24.15392" lon="51.21782"/><trkpt lat="24.15254" lon="51.21615"/><trkpt lat="24.15256" lon="51.21476"/><trkpt lat="24.15187" lon="51.2132"/><trkpt lat="24.15173" lon="51.21246"/><trkpt lat="24.15131" lon="51.21152"/><trkpt lat="24.15123" lon="51.2109"/><trkpt lat="24.15098" lon="51.21053"/><trkpt lat="24.15054" lon="51.2102"/><trkpt lat="24.14783" lon="51.21092"/><trkpt lat="24.1475" lon="51.21132"/><trkpt lat="24.14444" lon="51.21263"/><trkpt lat="24.1436" lon="51.21218"/><trkpt lat="24.14303" lon="51.2122"/><trkpt lat="24.14144" lon="51.21261"/><trkpt lat="24.14115" lon="51.21282"/><trkpt lat="24.14061" lon="51.21368"/><trkpt lat="24.14059" lon="51.21404"/><trkpt lat="24.1407" lon="51.21414"/><trkpt lat="24.1409" lon="51.21416"/><trkpt lat="24.14115" lon="51.21397"/><trkpt lat="24.14186" lon="51.21319"/><trkpt lat="24.14235" lon="51.21314"/><trkpt lat="24.14347" lon="51.21408"/><trkpt lat="24.14431" lon="51.21506"/><trkpt lat="24.14533" lon="51.21557"/><trkpt lat="24.14651" lon="51.21729"/><trkpt lat="24.14714" lon="51.218"/><trkpt lat="24.14828" lon="51.21829"/><trkpt lat="24.14916" lon="51.21809"/><trkpt lat="24.14953" lon="51.21817"/><trkpt lat="24.14994" lon="51.21877"/><trkpt lat="24.15017" lon="51.21968"/><trkpt lat="24.14987" lon="51.22188"/><trkpt lat="24.14927" lon="51.22272"/><trkpt lat="24.14776" lon="51.22329"/><trkpt lat="24.14719" lon="51.22376"/><trkpt lat="24.14656" lon="51.22408"/><trkpt lat="24.14466" lon="51.22437"/><trkpt lat="24.14407" lon="51.22479"/><trkpt lat="24.14389" lon="51.22524"/><trkpt lat="24.14448" lon="51.22705"/><trkpt lat="24.14528" lon="51.22896"/><trkpt lat="24.14547" lon="51.22968"/><trkpt lat="24.14551" lon="51.23072"/><trkpt lat="24.14532" lon="51.2315"/><trkpt lat="24.14487" lon="51.2321"/><trkpt lat="24.14399" lon="51.23288"/><trkpt lat="24.1441" lon="51.23293"/><trkpt lat="24.14476" lon="51.23266"/><trkpt lat="24.1449" lon="51.23274"/><trkpt lat="24.14516" lon="51.23363"/><trkpt lat="24.14584" lon="51.23516"/><trkpt lat="24.1464" lon="51.23714"/><trkpt lat="24.14684" lon="51.23763"/><trkpt lat="24.14695" lon="51.238"/><trkpt lat="24.14676" lon="51.23797"/><trkpt lat="24.14635" lon="51.23723"/><trkpt lat="24.14605" lon="51.23586"/><trkpt lat="24.14547" lon="51.23449"/><trkpt lat="24.14492" lon="51.23274"/><trkpt lat="24.14473" lon="51.23264"/><trkpt lat="24.14418" lon="51.23287"/></trkseg></trk></gpx>
