<?xml version="1.0" encoding="UTF-8"?>
<gpx version="1.1" creator="Nomad Outdoors" xmlns="http://www.topografix.com/GPX/1/1"><metadata><name>Al Qudra, June 2026</name><link href="https://www.nomadoutdoors.org/routes/2026-06-20-al-qudra"/></metadata><trk><name>Al Qudra, June 2026</name><trkseg><trkpt lat="24.84555" lon="55.34192"/><trkpt lat="24.84481" lon="55.34163"/><trkpt lat="24.84395" lon="55.34085"/><trkpt lat="24.84309" lon="55.34042"/><trkpt lat="24.84154" lon="55.3404"/><trkpt lat="24.84053" lon="55.33936"/><trkpt lat="24.84056" lon="55.33894"/><trkpt lat="24.84044" lon="55.33881"/><trkpt lat="24.83995" lon="55.33895"/><trkpt lat="24.83871" lon="55.33854"/><trkpt lat="24.8384" lon="55.33862"/><trkpt lat="24.83755" lon="55.34136"/><trkpt lat="24.83723" lon="55.34089"/><trkpt lat="24.83726" lon="55.3405"/><trkpt lat="24.83653" lon="55.33986"/><trkpt lat="24.83556" lon="55.33978"/><trkpt lat="24.83528" lon="55.33959"/><trkpt lat="24.8345" lon="55.33941"/><trkpt lat="24.83401" lon="55.33967"/><trkpt lat="24.83306" lon="55.33982"/><trkpt lat="24.83306" lon="55.33993"/><trkpt lat="24.83445" lon="55.33941"/><trkpt lat="24.83482" lon="55.33944"/><trkpt lat="24.83483" lon="55.33935"/><trkpt lat="24.83472" lon="55.33944"/><trkpt lat="24.83443" lon="55.3394"/><trkpt lat="24.83403" lon="55.33966"/><trkpt lat="24.83335" lon="55.33977"/><trkpt lat="24.83313" lon="55.33995"/><trkpt lat="24.8328" lon="55.33976"/><trkpt lat="24.8321" lon="55.33889"/><trkpt lat="24.83145" lon="55.33874"/><trkpt lat="24.83121" lon="55.33743"/><trkpt lat="24.83148" lon="55.33603"/><trkpt lat="24.83194" lon="55.33444"/><trkpt lat="24.83271" lon="55.33312"/><trkpt lat="24.83304" lon="55.3322"/><trkpt lat="24.83352" lon="55.32981"/><trkpt lat="24.83361" lon="55.32827"/><trkpt lat="24.83387" lon="55.32782"/><trkpt lat="24.83288" lon="55.32814"/><trkpt lat="24.83224" lon="55.32794"/><trkpt lat="24.83191" lon="55.32808"/><trkpt lat="24.83159" lon="55.3288"/><trkpt lat="24.83121" lon="55.33069"/><trkpt lat="24.83086" lon="55.33152"/><trkpt lat="24.83066" lon="55.33172"/><trkpt lat="24.83056" lon="55.3317"/><trkpt lat="24.83035" lon="55.33125"/><trkpt lat="24.8304" lon="55.33047"/><trkpt lat="24.83014" lon="55.32952"/><trkpt lat="24.83032" lon="55.32875"/><trkpt lat="24.83026" lon="55.32827"/><trkpt lat="24.83046" lon="55.32789"/><trkpt lat="24.83041" lon="55.32734"/><trkpt lat="24.83051" lon="55.32706"/><trkpt lat="24.83145" lon="55.32626"/><trkpt lat="24.832" lon="55.32598"/><trkpt lat="24.83293" lon="55.325"/><trkpt lat="24.83358" lon="55.32469"/><trkpt lat="24.83336" lon="55.3232"/><trkpt lat="24.83321" lon="55.32303"/><trkpt lat="24.83258" lon="55.32286"/><trkpt lat="24.83168" lon="55.32228"/><trkpt lat="24.83066" lon="55.32124"/><trkpt lat="24.83036" lon="55.32113"/><trkpt lat="24.82817" lon="55.32154"/><trkpt lat="24.82747" lon="55.32195"/><trkpt lat="24.82699" lon="55.32206"/><trkpt lat="24.82399" lon="55.32174"/><trkpt lat="24.82504" lon="55.31561"/><trkpt lat="24.82482" lon="55.31338"/><trkpt lat="24.82467" lon="55.31293"/><trkpt lat="24.82456" lon="55.31105"/><trkpt lat="24.82427" lon="55.3109"/><trkpt lat="24.82413" lon="55.3106"/><trkpt lat="24.82421" lon="55.31012"/><trkpt lat="24.82456" lon="55.31019"/><trkpt lat="24.82467" lon="55.30961"/><trkpt lat="24.8249" lon="55.30949"/><trkpt lat="24.82496" lon="55.30885"/><trkpt lat="24.82489" lon="55.30773"/><trkpt lat="24.82479" lon="55.30753"/><trkpt lat="24.82495" lon="55.30727"/><trkpt lat="24.82492" lon="55.30652"/><trkpt lat="24.82375" lon="55.30416"/><trkpt lat="24.82363" lon="55.30342"/><trkpt lat="24.82364" lon="55.30192"/><trkpt lat="24.82405" lon="55.30086"/><trkpt lat="24.82408" lon="55.30033"/><trkpt lat="24.82348" lon="55.29863"/><trkpt lat="24.82351" lon="55.29834"/><trkpt lat="24.82329" lon="55.2976"/><trkpt lat="24.82345" lon="55.29734"/><trkpt lat="24.82293" lon="55.29724"/><trkpt lat="24.82216" lon="55.29666"/><trkpt lat="24.82255" lon="55.29443"/><trkpt lat="24.82261" lon="55.29354"/><trkpt lat="24.8225" lon="55.2931"/><trkpt lat="24.8221" lon="55.29274"/><trkpt lat="24.82027" lon="55.29226"/><trkpt lat="24.81879" lon="55.29315"/><trkpt lat="24.81854" lon="55.29364"/><trkpt lat="24.81813" lon="55.29382"/><trkpt lat="24.81793" lon="55.29478"/><trkpt lat="24.81729" lon="55.29561"/><trkpt lat="24.81709" lon="55.29764"/><trkpt lat="24.81624" lon="55.30157"/><trkpt lat="24.81591" lon="55.30422"/><trkpt lat="24.81563" lon="55.30545"/><trkpt lat="24.81579" lon="55.30587"/><trkpt lat="24.81621" lon="55.30612"/><trkpt lat="24.81756" lon="55.30738"/><trkpt lat="24.81784" lon="55.30796"/><trkpt lat="24.81765" lon="55.30895"/><trkpt lat="24.81798" lon="55.30936"/><trkpt lat="24.81724" lon="55.31024"/><trkpt lat="24.81711" lon="55.31068"/><trkpt lat="24.81733" lon="55.31135"/><trkpt lat="24.81679" lon="55.31205"/><trkpt lat="24.81668" lon="55.31326"/><trkpt lat="24.8169" lon="55.31361"/><trkpt lat="24.81693" lon="55.31415"/><trkpt lat="24.81622" lon="55.31649"/><trkpt lat="24.817" lon="55.31759"/><trkpt lat="24.81776" lon="55.31902"/><trkpt lat="24.81783" lon="55.31942"/><trkpt lat="24.81772" lon="55.3204"/><trkpt lat="24.81811" lon="55.32084"/><trkpt lat="24.81833" lon="55.32129"/><trkpt lat="24.81848" lon="55.32449"/><trkpt lat="24.819" lon="55.32502"/><trkpt lat="24.81926" lon="55.3255"/><trkpt lat="24.81929" lon="55.32586"/><trkpt lat="24.81959" lon="55.3262"/><trkpt lat="24.81974" lon="55.32658"/><trkpt lat="24.81904" lon="55.3272"/><trkpt lat="24.81898" lon="55.32801"/><trkpt lat="24.81873" lon="55.32873"/><trkpt lat="24.81882" lon="55.32952"/><trkpt lat="24.81872" lon="55.32959"/><trkpt lat="24.81858" lon="55.3294"/><trkpt lat="24.81811" lon="55.32926"/><trkpt lat="24.81782" lon="55.32858"/><trkpt lat="24.81773" lon="55.328"/><trkpt lat="24.81747" lon="55.32769"/><trkpt lat="24.8175" lon="55.32729"/><trkpt lat="24.81737" lon="55.32691"/><trkpt lat="24.81684" lon="55.32625"/><trkpt lat="24.81641" lon="55.32595"/><trkpt lat="24.81649" lon="55.32564"/><trkpt lat="24.81611" lon="55.32473"/><trkpt lat="24.8157" lon="55.3242"/><trkpt lat="24.81572" lon="55.32369"/><trkpt lat="24.81557" lon="55.32335"/><trkpt lat="24.81527" lon="55.32331"/><trkpt lat="24.81492" lon="55.32357"/><trkpt lat="24.81449" lon="55.32359"/><trkpt lat="24.8143" lon="55.32344"/><trkpt lat="24.81446" lon="55.32226"/><trkpt lat="24.81499" lon="55.32168"/><trkpt lat="24.8151" lon="55.3208"/><trkpt lat="24.81493" lon="55.32031"/><trkpt lat="24.81451" lon="55.31985"/><trkpt lat="24.81428" lon="55.31995"/><trkpt lat="24.8144" lon="55.32102"/><trkpt lat="24.81431" lon="55.3216"/><trkpt lat="24.81409" lon="55.32186"/><trkpt lat="24.81396" lon="55.32187"/><trkpt lat="24.81378" lon="55.32122"/><trkpt lat="24.81361" lon="55.3212"/><trkpt lat="24.81314" lon="55.32148"/><trkpt lat="24.81248" lon="55.32147"/><trkpt lat="24.81205" lon="55.32247"/><trkpt lat="24.81186" lon="55.3236"/><trkpt lat="24.8116" lon="55.32423"/><trkpt lat="24.81159" lon="55.32462"/><trkpt lat="24.81179" lon="55.32495"/><trkpt lat="24.81158" lon="55.32542"/><trkpt lat="24.81153" lon="55.32614"/><trkpt lat="24.81132" lon="55.32672"/><trkpt lat="24.81131" lon="55.32851"/><trkpt lat="24.81118" lon="55.32887"/><trkpt lat="24.81112" lon="55.32965"/><trkpt lat="24.81094" lon="55.33002"/><trkpt lat="24.81064" lon="55.32982"/><trkpt lat="24.81047" lon="55.3302"/><trkpt lat="24.8104" lon="55.33"/><trkpt lat="24.81021" lon="55.32995"/><trkpt lat="24.81029" lon="55.33086"/><trkpt lat="24.81038" lon="55.33094"/><trkpt lat="24.8107" lon="55.33078"/><trkpt lat="24.81072" lon="55.33116"/><trkpt lat="24.81022" lon="55.33176"/><trkpt lat="24.80979" lon="55.33325"/><trkpt lat="24.81015" lon="55.33417"/><trkpt lat="24.81038" lon="55.33443"/><trkpt lat="24.81054" lon="55.33596"/><trkpt lat="24.81073" lon="55.33617"/><trkpt lat="24.81044" lon="55.33704"/><trkpt lat="24.81056" lon="55.33735"/><trkpt lat="24.81039" lon="55.33748"/><trkpt lat="24.81036" lon="55.33806"/><trkpt lat="24.81043" lon="55.33863"/><trkpt lat="24.81061" lon="55.33866"/><trkpt lat="24.81072" lon="55.3389"/><trkpt lat="24.81023" lon="55.33998"/><trkpt lat="24.8101" lon="55.34058"/><trkpt lat="24.81025" lon="55.34111"/><trkpt lat="24.81063" lon="55.3416"/><trkpt lat="24.81077" lon="55.34225"/><trkpt lat="24.81074" lon="55.34325"/><trkpt lat="24.81057" lon="55.34367"/><trkpt lat="24.81077" lon="55.34456"/><trkpt lat="24.8105" lon="55.34497"/><trkpt lat="24.81065" lon="55.34523"/><trkpt lat="24.8106" lon="55.34601"/><trkpt lat="24.81019" lon="55.34656"/><trkpt lat="24.81017" lon="55.34743"/><trkpt lat="24.80996" lon="55.34806"/><trkpt lat="24.80957" lon="55.34772"/><trkpt lat="24.80953" lon="55.34705"/><trkpt lat="24.80939" lon="55.34685"/><trkpt lat="24.80925" lon="55.3469"/><trkpt lat="24.80915" lon="55.34772"/><trkpt lat="24.80932" lon="55.34839"/><trkpt lat="24.80906" lon="55.34858"/><trkpt lat="24.80892" lon="55.34754"/><trkpt lat="24.80867" lon="55.34727"/><trkpt lat="24.80859" lon="55.34669"/><trkpt lat="24.80849" lon="55.34665"/><trkpt lat="24.80826" lon="55.34711"/><trkpt lat="24.80829" lon="55.34745"/><trkpt lat="24.80838" lon="55.34726"/><trkpt lat="24.80864" lon="55.34719"/><trkpt lat="24.80891" lon="55.34754"/><trkpt lat="24.80905" lon="55.3494"/><trkpt lat="24.80916" lon="55.34946"/><trkpt lat="24.80945" lon="55.34916"/><trkpt lat="24.80947" lon="55.34955"/><trkpt lat="24.80957" lon="55.3496"/><trkpt lat="24.80978" lon="55.35088"/><trkpt lat="24.80967" lon="55.35122"/><trkpt lat="24.80992" lon="55.35216"/><trkpt lat="24.80995" lon="55.35326"/><trkpt lat="24.80982" lon="55.35352"/><trkpt lat="24.81011" lon="55.35451"/><trkpt lat="24.81041" lon="55.35461"/><trkpt lat="24.81031" lon="55.35484"/><trkpt lat="24.8104" lon="55.35588"/><trkpt lat="24.8105" lon="55.35645"/><trkpt lat="24.81062" lon="55.35656"/><trkpt lat="24.81052" lon="55.35681"/><trkpt lat="24.81056" lon="55.35744"/><trkpt lat="24.81074" lon="55.35789"/><trkpt lat="24.81063" lon="55.35802"/><trkpt lat="24.81071" lon="55.35821"/><trkpt lat="24.81065" lon="55.35837"/><trkpt lat="24.81096" lon="55.35971"/><trkpt lat="24.81124" lon="55.36021"/><trkpt lat="24.81123" lon="55.36084"/><trkpt lat="24.81144" lon="55.3611"/><trkpt lat="24.81159" lon="55.36174"/><trkpt lat="24.81167" lon="55.36308"/><trkpt lat="24.81151" lon="55.36339"/><trkpt lat="24.81159" lon="55.36393"/><trkpt lat="24.8119" lon="55.36436"/><trkpt lat="24.81196" lon="55.36485"/><trkpt lat="24.81188" lon="55.36489"/><trkpt lat="24.81209" lon="55.36581"/><trkpt lat="24.81201" lon="55.36605"/><trkpt lat="24.81249" lon="55.36665"/><trkpt lat="24.81235" lon="55.36679"/><trkpt lat="24.81208" lon="55.36676"/><trkpt lat="24.81011" lon="55.36745"/><trkpt lat="24.80797" lon="55.36799"/><trkpt lat="24.80792" lon="55.36814"/><trkpt lat="24.81274" lon="55.36664"/><trkpt lat="24.81636" lon="55.36576"/><trkpt lat="24.82602" lon="55.36472"/><trkpt lat="24.82586" lon="55.36369"/><trkpt lat="24.82537" lon="55.36202"/><trkpt lat="24.82564" lon="55.36014"/><trkpt lat="24.8255" lon="55.35895"/><trkpt lat="24.82565" lon="55.35835"/><trkpt lat="24.82544" lon="55.35729"/><trkpt lat="24.82573" lon="55.35613"/><trkpt lat="24.82539" lon="55.35568"/><trkpt lat="24.82535" lon="55.35534"/><trkpt lat="24.82583" lon="55.35464"/><trkpt lat="24.82589" lon="55.35412"/><trkpt lat="24.82551" lon="55.35321"/><trkpt lat="24.82519" lon="55.35193"/><trkpt lat="24.82534" lon="55.35125"/><trkpt lat="24.82538" lon="55.34998"/><trkpt lat="24.82494" lon="55.34959"/><trkpt lat="24.82504" lon="55.34904"/><trkpt lat="24.82497" lon="55.3488"/><trkpt lat="24.82461" lon="55.3488"/><trkpt lat="24.82434" lon="55.34855"/><trkpt lat="24.82439" lon="55.34815"/><trkpt lat="24.82474" lon="55.34773"/><trkpt lat="24.82453" lon="55.34737"/><trkpt lat="24.82488" lon="55.34668"/><trkpt lat="24.82443" lon="55.34594"/><trkpt lat="24.8246" lon="55.34526"/><trkpt lat="24.82458" lon="55.34466"/><trkpt lat="24.82477" lon="55.34421"/><trkpt lat="24.82462" lon="55.34445"/><trkpt lat="24.82453" lon="55.34442"/><trkpt lat="24.82447" lon="55.34378"/><trkpt lat="24.82465" lon="55.34324"/><trkpt lat="24.82484" lon="55.34332"/><trkpt lat="24.8249" lon="55.34454"/><trkpt lat="24.82526" lon="55.34545"/><trkpt lat="24.82542" lon="55.34551"/><trkpt lat="24.82556" lon="55.34526"/><trkpt lat="24.82552" lon="55.3448"/><trkpt lat="24.82588" lon="55.34523"/><trkpt lat="24.82595" lon="55.34721"/><trkpt lat="24.82614" lon="55.34754"/><trkpt lat="24.82626" lon="55.34817"/><trkpt lat="24.82643" lon="55.34852"/><trkpt lat="24.82694" lon="55.34896"/><trkpt lat="24.82701" lon="55.34948"/><trkpt lat="24.82725" lon="55.34998"/><trkpt lat="24.8276" lon="55.3503"/><trkpt lat="24.82799" lon="55.35101"/><trkpt lat="24.82795" lon="55.35176"/><trkpt lat="24.82823" lon="55.3526"/><trkpt lat="24.82835" lon="55.35371"/><trkpt lat="24.82961" lon="55.35542"/><trkpt lat="24.82958" lon="55.35611"/><trkpt lat="24.82942" lon="55.35655"/><trkpt lat="24.82957" lon="55.35765"/><trkpt lat="24.82977" lon="55.35777"/><trkpt lat="24.82997" lon="55.35771"/><trkpt lat="24.83" lon="55.35754"/><trkpt lat="24.82983" lon="55.35705"/><trkpt lat="24.82943" lon="55.35656"/><trkpt lat="24.82967" lon="55.35641"/><trkpt lat="24.82969" lon="55.35604"/><trkpt lat="24.82991" lon="55.35555"/><trkpt lat="24.83015" lon="55.35533"/><trkpt lat="24.83035" lon="55.35546"/><trkpt lat="24.83026" lon="55.35679"/><trkpt lat="24.83036" lon="55.35701"/><trkpt lat="24.8305" lon="55.35704"/><trkpt lat="24.83067" lon="55.3568"/><trkpt lat="24.83075" lon="55.35582"/><trkpt lat="24.83095" lon="55.35528"/><trkpt lat="24.83112" lon="55.35515"/><trkpt lat="24.83125" lon="55.35523"/><trkpt lat="24.83133" lon="55.35629"/><trkpt lat="24.83158" lon="55.3566"/><trkpt lat="24.83221" lon="55.35687"/><trkpt lat="24.83267" lon="55.35679"/><trkpt lat="24.83369" lon="55.3571"/><trkpt lat="24.83453" lon="55.35763"/><trkpt lat="24.83751" lon="55.3569"/><trkpt lat="24.83846" lon="55.35636"/><trkpt lat="24.83901" lon="55.35528"/><trkpt lat="24.83908" lon="55.35462"/><trkpt lat="24.83894" lon="55.35401"/><trkpt lat="24.83907" lon="55.35332"/><trkpt lat="24.83991" lon="55.3532"/><trkpt lat="24.84037" lon="55.35363"/><trkpt lat="24.84102" lon="55.35343"/><trkpt lat="24.84179" lon="55.35366"/><trkpt lat="24.84292" lon="55.35272"/><trkpt lat="24.84334" lon="55.35214"/><trkpt lat="24.84407" lon="55.35177"/><trkpt lat="24.84395" lon="55.3511"/><trkpt lat="24.84512" lon="55.34985"/><trkpt lat="24.84559" lon="55.3496"/><trkpt lat="24.84675" lon="55.34951"/><trkpt lat="24.84726" lon="55.34909"/><trkpt lat="24.84826" lon="55.34771"/><trkpt lat="24.84832" lon="55.34514"/><trkpt lat="24.84841" lon="55.34468"/></trkseg></trk></gpx>
