<?xml version="1.0" encoding="UTF-8"?>
<gpx version="1.1" creator="Nomad Outdoors" xmlns="http://www.topografix.com/GPX/1/1"><metadata><name>Al Qudra, June 2026</name><link href="https://www.nomadoutdoors.org/routes/2026-06-27-al-qudra"/></metadata><trk><name>Al Qudra, June 2026</name><trkseg><trkpt lat="24.71559" lon="55.54013"/><trkpt lat="24.71508" lon="55.53936"/><trkpt lat="24.71371" lon="55.53661"/><trkpt lat="24.71286" lon="55.53528"/><trkpt lat="24.71021" lon="55.53196"/><trkpt lat="24.70748" lon="55.52801"/><trkpt lat="24.70707" lon="55.5279"/><trkpt lat="24.7067" lon="55.52805"/><trkpt lat="24.70641" lon="55.52754"/><trkpt lat="24.70614" lon="55.52733"/><trkpt lat="24.70427" lon="55.52705"/><trkpt lat="24.70041" lon="55.52767"/><trkpt lat="24.69886" lon="55.52841"/><trkpt lat="24.6981" lon="55.52831"/><trkpt lat="24.69759" lon="55.52865"/><trkpt lat="24.69691" lon="55.52858"/><trkpt lat="24.69595" lon="55.52775"/><trkpt lat="24.69478" lon="55.52708"/><trkpt lat="24.6946" lon="55.5272"/><trkpt lat="24.69342" lon="55.5338"/><trkpt lat="24.69371" lon="55.53725"/><trkpt lat="24.69317" lon="55.53901"/><trkpt lat="24.6931" lon="55.53984"/><trkpt lat="24.6927" lon="55.54061"/><trkpt lat="24.69266" lon="55.54172"/><trkpt lat="24.69198" lon="55.54366"/><trkpt lat="24.69157" lon="55.54617"/><trkpt lat="24.69155" lon="55.54919"/><trkpt lat="24.69124" lon="55.55015"/><trkpt lat="24.69146" lon="55.55339"/><trkpt lat="24.69137" lon="55.55434"/><trkpt lat="24.69144" lon="55.55711"/><trkpt lat="24.69166" lon="55.55957"/><trkpt lat="24.69155" lon="55.56039"/><trkpt lat="24.69187" lon="55.56164"/><trkpt lat="24.69306" lon="55.56415"/><trkpt lat="24.69367" lon="55.56605"/><trkpt lat="24.69445" lon="55.5678"/><trkpt lat="24.69458" lon="55.56848"/><trkpt lat="24.69447" lon="55.57179"/><trkpt lat="24.69468" lon="55.57306"/><trkpt lat="24.6945" lon="55.57381"/><trkpt lat="24.69462" lon="55.57442"/><trkpt lat="24.69415" lon="55.57556"/><trkpt lat="24.6938" lon="55.57722"/><trkpt lat="24.69354" lon="55.57788"/><trkpt lat="24.69364" lon="55.57983"/><trkpt lat="24.69335" lon="55.58159"/><trkpt lat="24.69377" lon="55.58414"/><trkpt lat="24.69411" lon="55.58827"/><trkpt lat="24.69411" lon="55.58857"/><trkpt lat="24.69402" lon="55.58861"/><trkpt lat="24.69379" lon="55.58431"/><trkpt lat="24.69335" lon="55.58151"/><trkpt lat="24.69365" lon="55.57989"/><trkpt lat="24.69356" lon="55.57782"/><trkpt lat="24.69385" lon="55.57708"/><trkpt lat="24.69416" lon="55.5756"/><trkpt lat="24.69465" lon="55.5744"/><trkpt lat="24.69451" lon="55.57374"/><trkpt lat="24.6947" lon="55.57297"/><trkpt lat="24.69447" lon="55.57164"/><trkpt lat="24.6946" lon="55.56843"/><trkpt lat="24.69444" lon="55.5677"/><trkpt lat="24.69401" lon="55.56688"/><trkpt lat="24.69305" lon="55.56404"/><trkpt lat="24.69184" lon="55.56148"/><trkpt lat="24.6916" lon="55.56056"/><trkpt lat="24.69168" lon="55.55945"/><trkpt lat="24.69143" lon="55.55653"/><trkpt lat="24.69138" lon="55.55435"/><trkpt lat="24.69148" lon="55.55328"/><trkpt lat="24.69128" lon="55.55009"/><trkpt lat="24.69159" lon="55.54913"/><trkpt lat="24.69161" lon="55.54616"/><trkpt lat="24.69204" lon="55.54351"/><trkpt lat="24.69271" lon="55.54169"/><trkpt lat="24.69272" lon="55.54067"/><trkpt lat="24.69312" lon="55.53984"/><trkpt lat="24.69323" lon="55.53889"/><trkpt lat="24.69377" lon="55.53705"/><trkpt lat="24.69344" lon="55.53427"/><trkpt lat="24.69364" lon="55.53264"/><trkpt lat="24.69453" lon="55.52758"/><trkpt lat="24.69483" lon="55.52635"/><trkpt lat="24.69535" lon="55.52515"/><trkpt lat="24.69559" lon="55.52409"/><trkpt lat="24.69507" lon="55.52294"/><trkpt lat="24.69502" lon="55.52167"/><trkpt lat="24.69458" lon="55.52095"/><trkpt lat="24.69411" lon="55.51975"/><trkpt lat="24.69357" lon="55.51755"/><trkpt lat="24.69231" lon="55.51364"/><trkpt lat="24.692" lon="55.51179"/><trkpt lat="24.6917" lon="55.51069"/><trkpt lat="24.6914" lon="55.5086"/><trkpt lat="24.69143" lon="55.50698"/><trkpt lat="24.69129" lon="55.50602"/><trkpt lat="24.68963" lon="55.50286"/><trkpt lat="24.6883" lon="55.50118"/><trkpt lat="24.68611" lon="55.4976"/><trkpt lat="24.6831" lon="55.49367"/><trkpt lat="24.68077" lon="55.49106"/><trkpt lat="24.67989" lon="55.48974"/><trkpt lat="24.67865" lon="55.48731"/><trkpt lat="24.67656" lon="55.48391"/><trkpt lat="24.67428" lon="55.4784"/><trkpt lat="24.67275" lon="55.4752"/><trkpt lat="24.67053" lon="55.47126"/><trkpt lat="24.66735" lon="55.466"/><trkpt lat="24.66614" lon="55.46262"/><trkpt lat="24.66515" lon="55.45883"/><trkpt lat="24.66253" lon="55.45174"/><trkpt lat="24.66162" lon="55.44959"/><trkpt lat="24.6606" lon="55.44666"/><trkpt lat="24.65992" lon="55.44431"/><trkpt lat="24.65924" lon="55.44114"/><trkpt lat="24.65789" lon="55.43791"/><trkpt lat="24.65693" lon="55.43444"/><trkpt lat="24.65482" lon="55.43021"/><trkpt lat="24.65397" lon="55.42919"/><trkpt lat="24.65351" lon="55.42902"/><trkpt lat="24.65092" lon="55.42945"/><trkpt lat="24.65002" lon="55.42988"/><trkpt lat="24.64677" lon="55.43243"/><trkpt lat="24.64641" lon="55.43284"/><trkpt lat="24.64579" lon="55.43498"/><trkpt lat="24.64538" lon="55.43594"/><trkpt lat="24.64535" lon="55.43704"/><trkpt lat="24.6456" lon="55.43721"/><trkpt lat="24.6457" lon="55.437"/><trkpt lat="24.64642" lon="55.43646"/><trkpt lat="24.64693" lon="55.4358"/><trkpt lat="24.64743" lon="55.43373"/><trkpt lat="24.64763" lon="55.43229"/><trkpt lat="24.64785" lon="55.43182"/><trkpt lat="24.64847" lon="55.43113"/><trkpt lat="24.65" lon="55.42989"/><trkpt lat="24.65051" lon="55.42918"/><trkpt lat="24.65091" lon="55.42794"/><trkpt lat="24.65209" lon="55.42249"/><trkpt lat="24.65179" lon="55.42204"/><trkpt lat="24.64811" lon="55.41902"/><trkpt lat="24.64758" lon="55.41887"/><trkpt lat="24.64671" lon="55.41896"/><trkpt lat="24.64509" lon="55.4182"/><trkpt lat="24.64332" lon="55.41762"/><trkpt lat="24.64243" lon="55.41681"/><trkpt lat="24.64147" lon="55.41488"/><trkpt lat="24.64068" lon="55.41424"/><trkpt lat="24.64001" lon="55.4141"/><trkpt lat="24.63929" lon="55.41421"/><trkpt lat="24.63692" lon="55.41504"/><trkpt lat="24.6357" lon="55.41539"/><trkpt lat="24.63548" lon="55.41534"/><trkpt lat="24.63555" lon="55.41516"/><trkpt lat="24.6363" lon="55.41491"/><trkpt lat="24.64125" lon="55.41374"/><trkpt lat="24.64227" lon="55.41261"/><trkpt lat="24.64255" lon="55.4121"/><trkpt lat="24.64257" lon="55.41135"/><trkpt lat="24.64233" lon="55.41031"/><trkpt lat="24.6418" lon="55.40888"/><trkpt lat="24.64037" lon="55.40656"/><trkpt lat="24.63965" lon="55.40228"/><trkpt lat="24.63609" lon="55.39598"/><trkpt lat="24.63562" lon="55.3949"/><trkpt lat="24.63548" lon="55.3943"/><trkpt lat="24.63552" lon="55.39242"/><trkpt lat="24.6333" lon="55.38875"/><trkpt lat="24.63193" lon="55.38581"/><trkpt lat="24.63175" lon="55.38477"/><trkpt lat="24.63116" lon="55.38415"/><trkpt lat="24.63057" lon="55.38328"/><trkpt lat="24.63049" lon="55.38244"/><trkpt lat="24.62872" lon="55.37969"/><trkpt lat="24.62588" lon="55.37548"/><trkpt lat="24.62475" lon="55.37438"/><trkpt lat="24.62432" lon="55.37381"/><trkpt lat="24.62272" lon="55.37114"/><trkpt lat="24.62265" lon="55.36991"/><trkpt lat="24.62215" lon="55.36834"/><trkpt lat="24.62227" lon="55.36777"/><trkpt lat="24.62188" lon="55.36472"/><trkpt lat="24.62136" lon="55.36311"/><trkpt lat="24.62104" lon="55.35928"/><trkpt lat="24.62068" lon="55.35735"/><trkpt lat="24.62043" lon="55.35462"/><trkpt lat="24.61995" lon="55.35333"/><trkpt lat="24.61973" lon="55.35169"/><trkpt lat="24.61952" lon="55.35104"/><trkpt lat="24.61943" lon="55.34886"/><trkpt lat="24.61915" lon="55.34756"/><trkpt lat="24.61922" lon="55.34629"/><trkpt lat="24.61967" lon="55.34503"/><trkpt lat="24.62088" lon="55.34246"/><trkpt lat="24.62182" lon="55.33938"/><trkpt lat="24.62416" lon="55.33478"/><trkpt lat="24.62597" lon="55.33247"/><trkpt lat="24.62694" lon="55.33176"/><trkpt lat="24.62784" lon="55.33081"/><trkpt lat="24.62928" lon="55.32661"/><trkpt lat="24.63033" lon="55.3222"/><trkpt lat="24.63082" lon="55.32068"/><trkpt lat="24.63122" lon="55.31885"/><trkpt lat="24.6315" lon="55.31817"/><trkpt lat="24.63436" lon="55.31372"/><trkpt lat="24.64096" lon="55.30153"/><trkpt lat="24.64232" lon="55.29869"/><trkpt lat="24.64278" lon="55.29744"/><trkpt lat="24.64321" lon="55.29573"/><trkpt lat="24.64352" lon="55.29327"/><trkpt lat="24.64468" lon="55.28656"/><trkpt lat="24.64466" lon="55.28605"/><trkpt lat="24.64392" lon="55.28279"/><trkpt lat="24.64371" lon="55.28237"/><trkpt lat="24.64268" lon="55.28111"/><trkpt lat="24.64161" lon="55.27921"/><trkpt lat="24.64087" lon="55.27871"/><trkpt lat="24.63819" lon="55.2777"/><trkpt lat="24.63781" lon="55.27726"/><trkpt lat="24.63733" lon="55.27609"/><trkpt lat="24.63704" lon="55.27504"/><trkpt lat="24.63671" lon="55.27279"/><trkpt lat="24.63562" lon="55.26778"/><trkpt lat="24.63543" lon="55.26597"/><trkpt lat="24.635" lon="55.26382"/><trkpt lat="24.63483" lon="55.2619"/><trkpt lat="24.63389" lon="55.25864"/><trkpt lat="24.63368" lon="55.25665"/><trkpt lat="24.63402" lon="55.25439"/><trkpt lat="24.63853" lon="55.24379"/><trkpt lat="24.63886" lon="55.24369"/><trkpt lat="24.63986" lon="55.24411"/><trkpt lat="24.64085" lon="55.24436"/><trkpt lat="24.63949" lon="55.24631"/><trkpt lat="24.63937" lon="55.24672"/><trkpt lat="24.63941" lon="55.24689"/><trkpt lat="24.63961" lon="55.24677"/><trkpt lat="24.63969" lon="55.24685"/><trkpt lat="24.64006" lon="55.24956"/><trkpt lat="24.63995" lon="55.24954"/><trkpt lat="24.63992" lon="55.24839"/><trkpt lat="24.6396" lon="55.24619"/><trkpt lat="24.64088" lon="55.24435"/><trkpt lat="24.63916" lon="55.24382"/><trkpt lat="24.63841" lon="55.24342"/><trkpt lat="24.63832" lon="55.2432"/><trkpt lat="24.66507" lon="55.17961"/><trkpt lat="24.66524" lon="55.17954"/><trkpt lat="24.66547" lon="55.17986"/><trkpt lat="24.6651" lon="55.18084"/><trkpt lat="24.66489" lon="55.18221"/><trkpt lat="24.66497" lon="55.18251"/><trkpt lat="24.66523" lon="55.18282"/><trkpt lat="24.6667" lon="55.18366"/><trkpt lat="24.66699" lon="55.18407"/><trkpt lat="24.66697" lon="55.18435"/><trkpt lat="24.66688" lon="55.1844"/><trkpt lat="24.66685" lon="55.18415"/><trkpt lat="24.66723" lon="55.18422"/><trkpt lat="24.66758" lon="55.18478"/><trkpt lat="24.66781" lon="55.1856"/><trkpt lat="24.66786" lon="55.18671"/><trkpt lat="24.66767" lon="55.18892"/><trkpt lat="24.6676" lon="55.19216"/><trkpt lat="24.66784" lon="55.1926"/><trkpt lat="24.66821" lon="55.19281"/><trkpt lat="24.6688" lon="55.19349"/><trkpt lat="24.66938" lon="55.19346"/><trkpt lat="24.66975" lon="55.19368"/><trkpt lat="24.66975" lon="55.19399"/><trkpt lat="24.67031" lon="55.19418"/><trkpt lat="24.67064" lon="55.19407"/><trkpt lat="24.67097" lon="55.19437"/><trkpt lat="24.67116" lon="55.19403"/><trkpt lat="24.67118" lon="55.19357"/><trkpt lat="24.67144" lon="55.19304"/><trkpt lat="24.67151" lon="55.19237"/><trkpt lat="24.67205" lon="55.19077"/><trkpt lat="24.67231" lon="55.19058"/><trkpt lat="24.67298" lon="55.19051"/><trkpt lat="24.67447" lon="55.19"/><trkpt lat="24.67439" lon="55.18958"/><trkpt lat="24.67343" lon="55.18806"/><trkpt lat="24.6731" lon="55.18706"/><trkpt lat="24.67318" lon="55.18618"/><trkpt lat="24.67394" lon="55.18442"/><trkpt lat="24.67417" lon="55.18301"/><trkpt lat="24.67366" lon="55.18162"/><trkpt lat="24.67349" lon="55.18138"/><trkpt lat="24.67338" lon="55.18142"/><trkpt lat="24.67383" lon="55.18189"/><trkpt lat="24.67433" lon="55.18213"/><trkpt lat="24.67444" lon="55.18205"/><trkpt lat="24.67475" lon="55.17842"/><trkpt lat="24.67526" lon="55.17697"/><trkpt lat="24.67531" lon="55.17577"/><trkpt lat="24.67627" lon="55.17339"/><trkpt lat="24.67648" lon="55.17323"/><trkpt lat="24.6777" lon="55.17345"/><trkpt lat="24.67981" lon="55.17394"/><trkpt lat="24.68146" lon="55.17464"/><trkpt lat="24.68266" lon="55.17484"/><trkpt lat="24.68211" lon="55.17471"/><trkpt lat="24.68169" lon="55.17437"/><trkpt lat="24.68167" lon="55.17314"/><trkpt lat="24.6818" lon="55.17178"/><trkpt lat="24.68131" lon="55.17119"/><trkpt lat="24.68164" lon="55.17008"/><trkpt lat="24.68228" lon="55.16685"/><trkpt lat="24.68247" lon="55.16484"/><trkpt lat="24.68229" lon="55.1649"/><trkpt lat="24.68223" lon="55.16705"/><trkpt lat="24.68166" lon="55.17002"/><trkpt lat="24.68138" lon="55.17089"/><trkpt lat="24.68119" lon="55.17101"/><trkpt lat="24.681" lon="55.17093"/><trkpt lat="24.68064" lon="55.17052"/><trkpt lat="24.67958" lon="55.16973"/><trkpt lat="24.67893" lon="55.16943"/><trkpt lat="24.67857" lon="55.16859"/><trkpt lat="24.67843" lon="55.16777"/><trkpt lat="24.67838" lon="55.1642"/><trkpt lat="24.67579" lon="55.16283"/><trkpt lat="24.67554" lon="55.16196"/><trkpt lat="24.67568" lon="55.15963"/><trkpt lat="24.67534" lon="55.15929"/><trkpt lat="24.67415" lon="55.15867"/><trkpt lat="24.67402" lon="55.15838"/><trkpt lat="24.681" lon="55.1419"/><trkpt lat="24.68155" lon="55.14146"/><trkpt lat="24.68451" lon="55.14024"/><trkpt lat="24.68495" lon="55.14021"/><trkpt lat="24.68528" lon="55.13987"/><trkpt lat="24.68554" lon="55.13977"/><trkpt lat="24.68708" lon="55.13955"/><trkpt lat="24.68816" lon="55.13961"/><trkpt lat="24.69075" lon="55.1393"/><trkpt lat="24.69168" lon="55.139"/><trkpt lat="24.69341" lon="55.13868"/><trkpt lat="24.69435" lon="55.13825"/><trkpt lat="24.69945" lon="55.13683"/><trkpt lat="24.70373" lon="55.13519"/><trkpt lat="24.70803" lon="55.13307"/><trkpt lat="24.71191" lon="55.13075"/><trkpt lat="24.75994" lon="55.0986"/><trkpt lat="24.76058" lon="55.09827"/><trkpt lat="24.76116" lon="55.09822"/><trkpt lat="24.76181" lon="55.09851"/><trkpt lat="24.76202" lon="55.09922"/><trkpt lat="24.76195" lon="55.09957"/><trkpt lat="24.76145" lon="55.10031"/><trkpt lat="24.76139" lon="55.10057"/><trkpt lat="24.7617" lon="55.1016"/><trkpt lat="24.76149" lon="55.10213"/><trkpt lat="24.76105" lon="55.10461"/><trkpt lat="24.76088" lon="55.10721"/><trkpt lat="24.76056" lon="55.10952"/><trkpt lat="24.76096" lon="55.11082"/><trkpt lat="24.76198" lon="55.11334"/><trkpt lat="24.7621" lon="55.11411"/><trkpt lat="24.76109" lon="55.11389"/><trkpt lat="24.76043" lon="55.11403"/><trkpt lat="24.73988" lon="55.13107"/><trkpt lat="24.7397" lon="55.13158"/><trkpt lat="24.74106" lon="55.13729"/><trkpt lat="24.74102" lon="55.13774"/><trkpt lat="24.72913" lon="55.14806"/><trkpt lat="24.72889" lon="55.1486"/><trkpt lat="24.72942" lon="55.1509"/><trkpt lat="24.73004" lon="55.15973"/><trkpt lat="24.7302" lon="55.15984"/><trkpt lat="24.73039" lon="55.15978"/><trkpt lat="24.731" lon="55.15927"/><trkpt lat="24.73131" lon="55.15919"/><trkpt lat="24.73154" lon="55.15892"/><trkpt lat="24.73216" lon="55.15862"/><trkpt lat="24.73248" lon="55.15872"/><trkpt lat="24.73416" lon="55.15739"/><trkpt lat="24.73433" lon="55.15713"/><trkpt lat="24.73537" lon="55.15642"/><trkpt lat="24.7355" lon="55.15644"/><trkpt lat="24.73593" lon="55.15733"/><trkpt lat="24.73543" lon="55.15787"/><trkpt lat="24.73573" lon="55.1581"/><trkpt lat="24.73554" lon="55.15888"/><trkpt lat="24.73559" lon="55.1602"/><trkpt lat="24.73546" lon="55.16101"/><trkpt lat="24.73472" lon="55.1627"/><trkpt lat="24.73466" lon="55.16335"/><trkpt lat="24.73477" lon="55.16397"/><trkpt lat="24.73519" lon="55.16472"/><trkpt lat="24.73558" lon="55.16512"/><trkpt lat="24.73594" lon="55.16533"/><trkpt lat="24.73659" lon="55.16548"/><trkpt lat="24.73778" lon="55.16612"/><trkpt lat="24.73822" lon="55.1662"/><trkpt lat="24.73873" lon="55.16707"/><trkpt lat="24.73921" lon="55.16728"/><trkpt lat="24.73938" lon="55.16754"/><trkpt lat="24.73942" lon="55.16875"/><trkpt lat="24.73977" lon="55.16985"/><trkpt lat="24.73936" lon="55.17077"/><trkpt lat="24.73953" lon="55.17172"/><trkpt lat="24.73951" lon="55.17261"/><trkpt lat="24.7391" lon="55.1758"/><trkpt lat="24.7388" lon="55.17661"/><trkpt lat="24.73939" lon="55.17691"/><trkpt lat="24.73982" lon="55.17744"/><trkpt lat="24.73974" lon="55.17878"/><trkpt lat="24.73982" lon="55.17929"/><trkpt lat="24.74113" lon="55.1808"/><trkpt lat="24.74144" lon="55.18179"/><trkpt lat="24.74084" lon="55.18359"/><trkpt lat="24.74073" lon="55.18442"/><trkpt lat="24.7396" lon="55.18641"/><trkpt lat="24.73985" lon="55.18783"/><trkpt lat="24.73977" lon="55.1885"/><trkpt lat="24.73993" lon="55.1892"/><trkpt lat="24.73985" lon="55.19036"/><trkpt lat="24.73991" lon="55.19187"/><trkpt lat="24.74021" lon="55.19445"/><trkpt lat="24.74058" lon="55.19571"/><trkpt lat="24.74122" lon="55.19666"/><trkpt lat="24.74157" lon="55.19753"/><trkpt lat="24.74219" lon="55.19838"/><trkpt lat="24.74227" lon="55.20075"/><trkpt lat="24.74262" lon="55.20149"/><trkpt lat="24.74338" lon="55.20242"/><trkpt lat="24.74344" lon="55.20307"/><trkpt lat="24.74325" lon="55.20447"/><trkpt lat="24.74337" lon="55.20481"/><trkpt lat="24.74403" lon="55.20559"/><trkpt lat="24.74398" lon="55.20677"/><trkpt lat="24.74459" lon="55.20952"/><trkpt lat="24.74476" lon="55.20991"/><trkpt lat="24.74603" lon="55.21144"/><trkpt lat="24.74662" lon="55.21313"/><trkpt lat="24.74667" lon="55.21377"/><trkpt lat="24.74641" lon="55.21549"/><trkpt lat="24.74687" lon="55.21719"/><trkpt lat="24.74808" lon="55.21897"/><trkpt lat="24.7492" lon="55.22597"/><trkpt lat="24.74967" lon="55.22713"/><trkpt lat="24.7502" lon="55.22773"/><trkpt lat="24.75101" lon="55.22951"/><trkpt lat="24.75106" lon="55.23012"/><trkpt lat="24.75085" lon="55.23191"/><trkpt lat="24.75073" lon="55.23442"/><trkpt lat="24.75032" lon="55.23524"/><trkpt lat="24.74995" lon="55.2365"/><trkpt lat="24.74971" lon="55.2386"/><trkpt lat="24.74937" lon="55.23986"/><trkpt lat="24.74922" lon="55.24146"/><trkpt lat="24.74934" lon="55.24229"/><trkpt lat="24.74996" lon="55.24446"/><trkpt lat="24.75018" lon="55.2462"/><trkpt lat="24.75075" lon="55.24847"/><trkpt lat="24.75101" lon="55.24883"/><trkpt lat="24.75177" lon="55.24936"/><trkpt lat="24.75303" lon="55.24956"/><trkpt lat="24.75542" lon="55.25044"/><trkpt lat="24.75853" lon="55.25204"/><trkpt lat="24.76068" lon="55.25297"/><trkpt lat="24.76158" lon="55.25365"/><trkpt lat="24.76212" lon="55.25789"/><trkpt lat="24.76226" lon="55.25814"/><trkpt lat="24.76299" lon="55.25875"/><trkpt lat="24.76339" lon="55.25988"/><trkpt lat="24.7654" lon="55.26268"/><trkpt lat="24.7675" lon="55.26999"/><trkpt lat="24.7682" lon="55.27287"/><trkpt lat="24.76906" lon="55.27507"/><trkpt lat="24.77028" lon="55.27793"/><trkpt lat="24.77173" lon="55.28046"/><trkpt lat="24.77318" lon="55.28232"/><trkpt lat="24.77399" lon="55.28367"/><trkpt lat="24.77408" lon="55.28455"/><trkpt lat="24.77376" lon="55.28636"/><trkpt lat="24.77433" lon="55.28775"/><trkpt lat="24.77449" lon="55.28785"/><trkpt lat="24.80954" lon="55.2626"/><trkpt lat="24.81111" lon="55.26121"/><trkpt lat="24.81288" lon="55.26016"/><trkpt lat="24.81548" lon="55.25829"/></trkseg></trk></gpx>
